{"type":"FeatureCollection","features":[{"type":"Feature","geometry":{"type":"Point","coordinates":[-74.402263,40.683798]},"properties":{"prp_name":"Alcatel-Lucent USA","label":"Alcatel-Lucent USA","address":"600 - 700 MOUNTAIN AVENUE, Murray Hill, NJ 07974-2008","county":"Union"}},{"type":"Feature","geometry":{"type":"Point","coordinates":[-74.108354,40.724612]},"properties":{"prp_name":"Alden Leeds","label":"Alden Leeds","address":"100 HACKENSACK AVE, Kearny, NJ 07032","county":"Hudson"}},{"type":"Feature","geometry":{"type":"Point","coordinates":[-74.12995,40.72334]},"properties":{"prp_name":"Alliance Chemical","label":"Alliance Chemical","address":"309-327 AVENUE P, Newark, NJ 07105","county":"Essex"}},{"type":"Feature","geometry":{"type":"Point","coordinates":[-74.12511,40.8313]},"properties":{"prp_name":"Arkema","label":"Arkema","address":"2 PEEKAY DR, Clifton, NJ 07014","county":"Passaic"}},{"type":"Feature","geometry":{"type":"Point","coordinates":[-74.20375,40.74011]},"properties":{"prp_name":"Ashland","label":"Ashland","address":"30 ASHLAND ST, Newark, NJ 07103","county":"Essex"}},{"type":"Feature","geometry":{"type":"Point","coordinates":[-74.133219,40.737599]},"properties":{"prp_name":"Atlas Refinery","label":"Atlas Refinery","address":"142 LOCKWOOD STREET, Newark, NJ 07105","county":"Essex"}},{"type":"Feature","geometry":{"type":"Point","coordinates":[-74.13197,40.72716]},"properties":{"prp_name":"Automatic Electro Plating Corp","label":"Automatic Electro Plating Corp","address":"185 FOUNDRY STREET, Newark, NJ 07105","county":"Essex"}},{"type":"Feature","geometry":{"type":"Point","coordinates":[-74.164054,40.751715]},"properties":{"prp_name":"BASF Catalysts","label":"BASF Catalysts","address":"1 W CENTRAL AVE, East Newark, NJ 07029","county":"Hudson"}},{"type":"Feature","geometry":{"type":"Point","coordinates":[-74.164054,40.751715]},"properties":{"prp_name":"BASF Corp","label":"BASF Corp","address":"1 W CENTRAL AVE, East Newark, NJ 07029","county":"Hudson"}},{"type":"Feature","geometry":{"type":"Point","coordinates":[-74.139786,40.801067]},"properties":{"prp_name":"Belleville Industrial Center","label":"Belleville Industrial Center","address":"681 MAIN ST, Belleville, NJ 07109","county":"Essex"}},{"type":"Feature","geometry":{"type":"Point","coordinates":[-74.16468,40.8865]},"properties":{"prp_name":"Benjamin Moore","label":"Benjamin Moore","address":"203 KULLER ROAD, Clifton, NJ 07011","county":"Passaic"}},{"type":"Feature","geometry":{"type":"Point","coordinates":[-74.114468,40.72066]},"properties":{"prp_name":"Berol/Newell Rubbermaid","label":"Berol/Newell Rubbermaid","address":"49 CENTRAL AVE, Kearny, NJ 07032","county":"Hudson"}},{"type":"Feature","geometry":{"type":"Point","coordinates":[-74.164589,40.751212]},"properties":{"prp_name":"Borough of East Newark","label":"Borough of East Newark","address":"34 SHERMAN AVE, East Newark, NJ 07029","county":"Hudson"}},{"type":"Feature","geometry":{"type":"Point","coordinates":[-74.14802,40.74774]},"properties":{"prp_name":"Campbell Foundry","label":"Campbell Foundry","address":"2 SUPOR BLVD, Harrison, NJ 07029","county":"Hudson"}},{"type":"Feature","geometry":{"type":"Point","coordinates":[-74.04943,40.87203]},"properties":{"prp_name":"Canning Gum/MacDermid","label":"Canning Gum/MacDermid","address":"11 LEUNING ST, South Hackensack, NJ 07606","county":"Bergen"}},{"type":"Feature","geometry":{"type":"Point","coordinates":[-74.17163,40.74623]},"properties":{"prp_name":"CBS Corporation","label":"CBS Corporation","address":"95 ORANGE ST, Newark, NJ 07102","county":"Essex"}},{"type":"Feature","geometry":{"type":"Point","coordinates":[-74.143056,40.726389]},"properties":{"prp_name":"Celanese","label":"Celanese","address":"SAINT CHARLES ST, Newark, NJ 07101","county":"Essex"}},{"type":"Feature","geometry":{"type":"Point","coordinates":[-74.1325,40.7206]},"properties":{"prp_name":"Chargeurs","label":"Chargeurs","address":"60 Avenue L, Newark, NJ 07105","county":"Essex"}},{"type":"Feature","geometry":{"type":"Point","coordinates":[-74.174184,40.73197]},"properties":{"prp_name":"Chevron/Texaco/TRMI-H","label":"Chevron/Texaco","address":"Doremus Ave, Newark, NJ 07102","county":"Essex"}},{"type":"Feature","geometry":{"type":"Point","coordinates":[-74.195149,40.7234]},"properties":{"prp_name":"City of Newark","label":"City of Newark","address":"Badger Avenue, Newark, NJ 07108","county":"Essex"}},{"type":"Feature","geometry":{"type":"Point","coordinates":[-74.173,40.7404]},"properties":{"prp_name":"Coats & Clark","label":"Coats & Clark","address":"72 University Ave, Newark, NJ 07102","county":"Essex"}},{"type":"Feature","geometry":{"type":"Point","coordinates":[-74.1921,40.707]},"properties":{"prp_name":"Coltec Industries","label":"Coltec Industries","address":"235 East Side Ave, Newark, NJ 07114","county":"Essex"}},{"type":"Feature","geometry":{"type":"Point","coordinates":[-74.157656,40.758964]},"properties":{"prp_name":"Congoleum","label":"Congoleum","address":"195 BELGROVE DR, Kearny, NJ 07032","county":"Hudson"}},{"type":"Feature","geometry":{"type":"Point","coordinates":[-74.03567,40.86161]},"properties":{"prp_name":"Cooper Industries","label":"Cooper Industries","address":"514 S RIVER ST, Hackensack, NJ 07601","county":"Bergen"}},{"type":"Feature","geometry":{"type":"Point","coordinates":[-74.1482,40.7215]},"properties":{"prp_name":"Covanta Essex","label":"Covanta Essex","address":"1 Covanta Way, Newark, NJ 07105","county":"Essex"}},{"type":"Feature","geometry":{"type":"Point","coordinates":[-74.19749,40.63975]},"properties":{"prp_name":"Croda","label":"Croda","address":"534 S FRONT ST, Elizabeth, NJ 07206","county":"Union"}},{"type":"Feature","geometry":{"type":"Point","coordinates":[-74.08816,40.86181]},"properties":{"prp_name":"Curtiss-Wright","label":"Curtiss-Wright","address":"52 PASSAIC ST, Wood-Ridge, NJ 07075","county":"Bergen"}},{"type":"Feature","geometry":{"type":"Point","coordinates":[-74.125627,40.71331]},"properties":{"prp_name":"Darling International","label":"Darling International","address":"825 WILSON AVENUE, Newark, NJ 07105","county":"Essex"}},{"type":"Feature","geometry":{"type":"Point","coordinates":[-74.1705,40.7361]},"properties":{"prp_name":"DII Industries","label":"DII Industries","address":"1-3 McCarter Highway, Newark, NJ 07102","county":"Essex"}},{"type":"Feature","geometry":{"type":"Point","coordinates":[-74.29064,40.65313]},"properties":{"prp_name":"DiLorenzo Properties","label":"DiLorenzo Properties","address":"41 MEEKER AVE, Cranford, NJ 07016","county":"Union"}},{"type":"Feature","geometry":{"type":"Point","coordinates":[-74.13393,40.73876]},"properties":{"prp_name":"Drum Service of Newark","label":"Drum Service of Newark","address":"104 LISTER AVE, Newark, NJ 07105","county":"Essex"}},{"type":"Feature","geometry":{"type":"Point","coordinates":[-74.102394,40.732048]},"properties":{"prp_name":"Eden Wood","label":"Eden Wood","address":"40-43 S HACKENSACK AVE, Kearny, NJ 07032","county":"Hudson"}},{"type":"Feature","geometry":{"type":"Point","coordinates":[-74.1901,40.7043]},"properties":{"prp_name":"E.I. duPont","label":"E.I. duPont","address":"666 Frelinghuysen Ave, Newark, NJ 07114","county":"Essex"}},{"type":"Feature","geometry":{"type":"Point","coordinates":[-74.123333,40.723333]},"properties":{"prp_name":"Elan Chemical","label":"Elan Chemical","address":"268 DOREMUS AVE, Newark, NJ 07105","county":"Essex"}},{"type":"Feature","geometry":{"type":"Point","coordinates":[-74.1456,40.7229]},"properties":{"prp_name":"El Paso Tennessee Pipeline/EPEC","label":"El Paso Tennessee Pipeline","address":"300 Doremus Ave, Newark, NJ 07105","county":"Essex"}},{"type":"Feature","geometry":{"type":"Point","coordinates":[-74.159844,40.847386]},"properties":{"prp_name":"EM Sergeant Pulp & Chemical","label":"EM Sergeant Pulp & Chemical","address":"6 CHELSEA RD, Clifton, NJ 07012","county":"Passaic"}},{"type":"Feature","geometry":{"type":"Point","coordinates":[-74.515197,40.425098]},"properties":{"prp_name":"Essex Chemical","label":"Essex Chemical","address":"167 BLACKHORSE LN, Monmouth Junction, NJ 08852","county":"Middlesex"}},{"type":"Feature","geometry":{"type":"Point","coordinates":[-74.146058,40.720070]},"properties":{"prp_name":"Everett Smith Group","label":"Everett Smith Group","address":"280 Wilson Ave, Newark, NJ 07105","county":"Essex"}},{"type":"Feature","geometry":{"type":"Point","coordinates":[-74.133894,40.825419]},"properties":{"prp_name":"Exelis/ITT","label":"Exelis/ITT","address":"77 RIVER ROAD, Clifton, NJ 07014","county":"Passaic"}},{"type":"Feature","geometry":{"type":"Point","coordinates":[-74.133139,40.737303]},"properties":{"prp_name":"Fiske Brothers Refining","label":"Fiske Brothers Refining","address":"129 LOCKWOOD STREET, Newark, NJ 07105","county":"Essex"}},{"type":"Feature","geometry":{"type":"Point","coordinates":[-74.19233,40.70773]},"properties":{"prp_name":"Flexon Industries","label":"Flexon Industries","address":"366 FRELINGHUYSEN AVE, Newark, NJ 07114","county":"Essex"}},{"type":"Feature","geometry":{"type":"Point","coordinates":[-74.133175,40.728681]},"properties":{"prp_name":"Foundry Street Corp","label":"Foundry Street Corp","address":"RT 1/9 & FOUNDRY ST, Newark, NJ 07114","county":"Essex"}},{"type":"Feature","geometry":{"type":"Point","coordinates":[-74.129,40.714]},"properties":{"prp_name":"Franklin Burlington Plastics","label":"Franklin Burlington Plastics","address":"590 Doremus Ave, Newark, NJ 07105","county":"Essex"}},{"type":"Feature","geometry":{"type":"Point","coordinates":[-74.105967,40.863667]},"properties":{"prp_name":"Garfield Molding","label":"Garfield Molding","address":"10 MIDLAND AVENUE, Garfield, NJ 07026","county":"Bergen"}},{"type":"Feature","geometry":{"type":"Point","coordinates":[-74.19179,40.73083]},"properties":{"prp_name":"General Electric","label":"General Electric","address":"95 BOYD STREET, Newark, NJ 07103","county":"Essex"}},{"type":"Feature","geometry":{"type":"Point","coordinates":[-73.982429,40.880961]},"properties":{"prp_name":"Goodrich","label":"Goodrich","address":"30 VAN NOSTRAND AVE, Englewood, NJ 07631","county":"Bergen"}},{"type":"Feature","geometry":{"type":"Point","coordinates":[-74.164633,40.747227]},"properties":{"prp_name":"Harrison Supply","label":"Harrison Supply","address":"245-419 PASSAIC AVE, East Newark, NJ 07029","county":"Hudson"}},{"type":"Feature","geometry":{"type":"Point","coordinates":[-74.084299,40.880807]},"properties":{"prp_name":"Hexcel","label":"Hexcel","address":"205 MAIN ST, Lodi, NJ 07644","county":"Bergen"}},{"type":"Feature","geometry":{"type":"Point","coordinates":[-74.15432,40.82284]},"properties":{"prp_name":"Hoffman-La Roche","label":"Hoffman-La Roche","address":"340 Kingsland St, Nutley, NJ 07110","county":"Essex"}},{"type":"Feature","geometry":{"type":"Point","coordinates":[-74.098308,40.711939]},"properties":{"prp_name":"Honeywell","label":"Honeywell","address":"441 RT-440 S, Jersey City, NJ 07305","county":"Hudson"}},{"type":"Feature","geometry":{"type":"Point","coordinates":[-74.149659,40.78448]},"properties":{"prp_name":"ISP Chemicals","label":"ISP Chemicals","address":"11 WILLIAM ST, Belleville, NJ 07109","county":"Essex"}},{"type":"Feature","geometry":{"type":"Point","coordinates":[-74.138,40.7206]},"properties":{"prp_name":"KAO USA","label":"KAO USA","address":"215 Doremus Ave, Newark, NJ 07105","county":"Essex"}},{"type":"Feature","geometry":{"type":"Point","coordinates":[-74.142564,40.748682]},"properties":{"prp_name":"Kearny Smelting & Refining","label":"Kearny Smelting & Refining","address":"936 HARRISON AVENUE, Kearny, NJ 07032","county":"Hudson"}},{"type":"Feature","geometry":{"type":"Point","coordinates":[-74.1898,40.7298]},"properties":{"prp_name":"Leemilt's Petroleum","label":"Leemilt's Petroleum","address":"95 S. 19th St, Newark, NJ 07103","county":"Essex"}},{"type":"Feature","geometry":{"type":"Point","coordinates":[-74.33083,40.81728]},"properties":{"prp_name":"Legacy Vulcan","label":"Legacy Vulcan","address":"ONE EISENHOWER PKWY, Roseland, NJ 07068","county":"Essex"}},{"type":"Feature","geometry":{"type":"Point","coordinates":[-74.08488,40.87837]},"properties":{"prp_name":"Mallinckrodt","label":"Mallinckrodt","address":"165 MAIN ST, Lodi, NJ 07644","county":"Bergen"}},{"type":"Feature","geometry":{"type":"Point","coordinates":[-74.130083,40.713232]},"properties":{"prp_name":"McKesson/Safety-Kleen","label":"McKesson/Safety-Kleen","address":"600 DOREMUS ST, Newark, NJ 07105","county":"Essex"}},{"type":"Feature","geometry":{"type":"Point","coordinates":[-74.20089,40.73985]},"properties":{"prp_name":"National-Standard","label":"National-Standard","address":"376 10TH ST N, Newark, NJ 07103","county":"Essex"}},{"type":"Feature","geometry":{"type":"Point","coordinates":[-74.17857,40.73214]},"properties":{"prp_name":"Newark Morning Ledger","label":"Newark Morning Ledger","address":"1 STAR LEDGER PLAZA, Newark, NJ 07101","county":"Essex"}},{"type":"Feature","geometry":{"type":"Point","coordinates":[-74.1392,40.7477]},"properties":{"prp_name":"Newell Rubbermaid","label":"Newell Rubbermaid","address":"One Rubbermaid Plaza, Kearny, NJ 07032","county":"Hudson"}},{"type":"Feature","geometry":{"type":"Point","coordinates":[-74.1659,40.7558]},"properties":{"prp_name":"Novelis","label":"Novelis","address":"180 McCarter Hwy, Newark, NJ 07104","county":"Essex"}},{"type":"Feature","geometry":{"type":"Point","coordinates":[-74.102033,40.750222]},"properties":{"prp_name":"Occidental Chemical (OxyChem)","label":"Occidental Chemical (OxyChem)","address":"Various locations, Kearny, NJ 07032","county":"Hudson"}},{"type":"Feature","geometry":{"type":"Point","coordinates":[-74.161694,40.738457]},"properties":{"prp_name":"Otis Elevator","label":"Otis Elevator","address":"1000 1ST STREET, Harrison, NJ 07029","county":"Hudson"}},{"type":"Feature","geometry":{"type":"Point","coordinates":[-74.210818,40.743364]},"properties":{"prp_name":"Pabst Brewing","label":"Pabst Brewing","address":"400 GROVE ST, Newark, NJ 07103","county":"Essex"}},{"type":"Feature","geometry":{"type":"Point","coordinates":[-74.18143,40.656515]},"properties":{"prp_name":"Palin Enterprises","label":"Palin Enterprises","address":"107 TUMBULL STREET, Elizabeth, NJ 07202","county":"Union"}},{"type":"Feature","geometry":{"type":"Point","coordinates":[-74.109651,40.85617]},"properties":{"prp_name":"Passaic Pioneer Properties","label":"Passaic Pioneer Properties","address":"35 8TH ST, Passaic, NJ 07055","county":"Passaic"}},{"type":"Feature","geometry":{"type":"Point","coordinates":[-74.13016,40.71319]},"properties":{"prp_name":"Passaic Valley Sewerage Commission","label":"Passaic Valley Sewerage Commission","address":"606-644 DOREMUS AVE, Newark, NJ 07105","county":"Essex"}},{"type":"Feature","geometry":{"type":"Point","coordinates":[-74.15824,40.85333]},"properties":{"prp_name":"Pfizer","label":"Pfizer","address":"230 BRIGHTON RD, Clifton, NJ 07012","county":"Passaic"}},{"type":"Feature","geometry":{"type":"Point","coordinates":[-74.272828,40.88752]},"properties":{"prp_name":"Pharmacia/Monsanto","label":"Pharmacia/Monsanto","address":"350-368 PASSAIC AVE, Fairfield, NJ 07004","county":"Essex"}},{"type":"Feature","geometry":{"type":"Point","coordinates":[-74.157137,40.771239]},"properties":{"prp_name":"PMC","label":"PMC","address":"1875 MCCARTER HWY, Newark, NJ 07104","county":"Essex"}},{"type":"Feature","geometry":{"type":"Point","coordinates":[-74.07029,40.70727]},"properties":{"prp_name":"PPG Industries","label":"PPG Industries","address":"70 CARTERET ST, Jersey City, NJ 07304","county":"Hudson"}},{"type":"Feature","geometry":{"type":"Point","coordinates":[-74.031639,40.85578]},"properties":{"prp_name":"PSE&G","label":"PSE&G","address":"97 WATERSIDE DR, Little Ferry, NJ 07643","county":"Bergen"}},{"type":"Feature","geometry":{"type":"Point","coordinates":[-74.08425,40.88015]},"properties":{"prp_name":"Purdue Pharma","label":"Purdue Pharma","address":"199 MAIN STREET, Lodi, NJ 07644","county":"Bergen"}},{"type":"Feature","geometry":{"type":"Point","coordinates":[-74.42945,40.56445]},"properties":{"prp_name":"Quality Carriers","label":"Quality Carriers","address":"3900 S CLINTON AVE, South Plainfield, NJ 07080","county":"Middlesex"}},{"type":"Feature","geometry":{"type":"Point","coordinates":[-74.1543,40.7589]},"properties":{"prp_name":"Revere Smelting & Refining","label":"Revere Smelting & Refining","address":"100 Belgrove Dr, Kearny, NJ 07032","county":"Hudson"}},{"type":"Feature","geometry":{"type":"Point","coordinates":[-74.16495,40.76124]},"properties":{"prp_name":"Roman Asphalt","label":"Roman Asphalt","address":"14 OGDEN ST, Newark, NJ 07104","county":"Essex"}},{"type":"Feature","geometry":{"type":"Point","coordinates":[-74.11336,40.84307]},"properties":{"prp_name":"Royce Associates","label":"Royce Associates","address":"35 CARLTON AVE, East Rutherford, NJ 07073","county":"Bergen"}},{"type":"Feature","geometry":{"type":"Point","coordinates":[-74.11294,40.72151]},"properties":{"prp_name":"RTC Properties","label":"RTC Properties","address":"100 CENTRAL AVENUE, Kearny, NJ 07032","county":"Hudson"}},{"type":"Feature","geometry":{"type":"Point","coordinates":[-74.1325,40.7148]},"properties":{"prp_name":"S&A Realty","label":"S&A Realty","address":"480 Doremus Ave, Newark, NJ 07105","county":"Essex"}},{"type":"Feature","geometry":{"type":"Point","coordinates":[-74.05676,40.73886]},"properties":{"prp_name":"Schieffenhaus/Rock-Tenn","label":"Schieffenhaus/Rock-Tenn","address":"164 LAIDLAW AVE, Jersey City, NJ 07306","county":"Hudson"}},{"type":"Feature","geometry":{"type":"Point","coordinates":[-74.03457,40.89645]},"properties":{"prp_name":"Sequa","label":"Sequa","address":"3 UNIVERSITY PLAZA DR, Hackensack, NJ 07601","county":"Bergen"}},{"type":"Feature","geometry":{"type":"Point","coordinates":[-74.156388,40.778564]},"properties":{"prp_name":"Seton Tanning","label":"Seton Tanning","address":"849 Broadway, Newark, NJ 07104","county":"Essex"}},{"type":"Feature","geometry":{"type":"Point","coordinates":[-74.11221,40.736743]},"properties":{"prp_name":"SpectraServ","label":"SpectraServ","address":"75 JACOBUS AVE, Kearny, NJ 07032","county":"Hudson"}},{"type":"Feature","geometry":{"type":"Point","coordinates":[-74.2887,40.8847]},"properties":{"prp_name":"Stanley Black & Decker","label":"Stanley Black & Decker","address":"55 New Dutch Lane, Fairfield, NJ 07004","county":"Essex"}},{"type":"Feature","geometry":{"type":"Point","coordinates":[-74.72133,40.24114]},"properties":{"prp_name":"STWB","label":"STWB","address":"2144 E STATE ST EXT, Trenton, NJ 08619","county":"Mercer"}},{"type":"Feature","geometry":{"type":"Point","coordinates":[-74.13197,40.72716]},"properties":{"prp_name":"Sun Chemical","label":"Sun Chemical","address":"183 FOUNDRY ST, Newark, NJ 07105","county":"Essex"}},{"type":"Feature","geometry":{"type":"Point","coordinates":[-74.125375,40.719460]},"properties":{"prp_name":"Tate & Lyle","label":"Tate & Lyle","address":"400 Doremus Ave, Newark, NJ 07105","county":"Essex"}},{"type":"Feature","geometry":{"type":"Point","coordinates":[-74.3096,40.704]},"properties":{"prp_name":"Teval","label":"Teval","address":"20 Fadem Rd, Springfield, NJ 07081","county":"Union"}},{"type":"Feature","geometry":{"type":"Point","coordinates":[-74.12655,41.01953]},"properties":{"prp_name":"Teva Pharmaceuticals","label":"Teva Pharmaceuticals","address":"140 HOPPER AVE, Waldwick, NJ 07463","county":"Bergen"}},{"type":"Feature","geometry":{"type":"Point","coordinates":[-74.126056,40.720129]},"properties":{"prp_name":"Textron","label":"Textron","address":"400 DOREMUS AVE, Newark, NJ 07105","county":"Essex"}},{"type":"Feature","geometry":{"type":"Point","coordinates":[-74.072008,40.776329]},"properties":{"prp_name":"Hartz Mountain","label":"Hartz Mountain","address":"105 ENTERPRISE AVE, Secaucus, NJ 07094","county":"Hudson"}},{"type":"Feature","geometry":{"type":"Point","coordinates":[-74.1744,40.7362]},"properties":{"prp_name":"Newark Group","label":"Newark Group","address":"20 Jackson St, Newark, NJ 07102","county":"Essex"}},{"type":"Feature","geometry":{"type":"Point","coordinates":[-74.108074,40.8627]},"properties":{"prp_name":"Okonite","label":"Okonite","address":"1940 PASSAIC ST, Passaic, NJ 07055","county":"Passaic"}},{"type":"Feature","geometry":{"type":"Point","coordinates":[-74.049161,40.839139]},"properties":{"prp_name":"Sherwin-Williams","label":"Sherwin-Williams","address":"185 MOONACHIE RD, Moonachie, NJ 07074","county":"Bergen"}},{"type":"Feature","geometry":{"type":"Point","coordinates":[-74.13655,40.80816]},"properties":{"prp_name":"Three County Volkswagen","label":"Three County Volkswagen","address":"701 RIVERSIDE AVE, Lyndhurst, NJ 07071","county":"Bergen"}},{"type":"Feature","geometry":{"type":"Point","coordinates":[-74.1654,40.78467]},"properties":{"prp_name":"Tiffany & Co.","label":"Tiffany & Co.","address":"820 HIGHLAND AVE, Newark, NJ 07104","county":"Essex"}},{"type":"Feature","geometry":{"type":"Point","coordinates":[-74.149727,40.747884]},"properties":{"prp_name":"Town of Harrison","label":"Town of Harrison","address":"714 HARRISON AVENUE, Harrison, NJ 07029","county":"Hudson"}},{"type":"Feature","geometry":{"type":"Point","coordinates":[-74.108366,40.730183]},"properties":{"prp_name":"Town of Kearny","label":"Town of Kearny","address":"81 OLD LINCOLN HWY, Kearny, NJ 07032","county":"Hudson"}},{"type":"Feature","geometry":{"type":"Point","coordinates":[-74.1421,40.7468]},"properties":{"prp_name":"21st Century Fox","label":"21st Century Fox","address":"580 Harrison Ave, Kearny, NJ 07032","county":"Hudson"}},{"type":"Feature","geometry":{"type":"Point","coordinates":[-74.143796,40.650473]},"properties":{"prp_name":"Vertellus Specialties","label":"Vertellus Specialties","address":"35 AVENUE A, Bayonne, NJ 07002","county":"Hudson"}},{"type":"Feature","geometry":{"type":"Point","coordinates":[-74.14985,40.82844]},"properties":{"prp_name":"Wiggins Plastics","label":"Wiggins Plastics","address":"180 KINGSLAND AVENUE, Nutley, NJ 07110","county":"Essex"}},{"type":"Feature","geometry":{"type":"Point","coordinates":[-74.164428,40.874718]},"properties":{"prp_name":"Wyeth/Shulton","label":"Wyeth/Shulton","address":"697 ROUTE 46, Clifton, NJ 07015","county":"Passaic"}}]}