{
  "features": [
    {
      "type": "Feature",
      "properties": {
        "name": "harrison",
        "label": "Harrison Support Site",
        "c": "site"
      },
      "geometry": {
        "coordinates": [
          [
            [
              -74.156824,
              40.738312
            ],
            [
              -74.160158,
              40.736545
            ],
            [
              -74.1604,
              40.736252
            ],
            [
              -74.1606,
              40.735955
            ],
            [
              -74.160392,
              40.735744
            ],
            [
              -74.159948,
              40.735421
            ],
            [
              -74.15895,
              40.735002
            ],
            [
              -74.158986,
              40.734915
            ],
            [
              -74.157689,
              40.734301
            ],
            [
              -74.157633,
              40.734526
            ],
            [
              -74.158068,
              40.734646
            ],
            [
              -74.158379,
              40.735606
            ],
            [
              -74.15731,
              40.735589
            ],
            [
              -74.155737,
              40.735588
            ],
            [
              -74.155942,
              40.737441
            ],
            [
              -74.155665,
              40.737446
            ],
            [
              -74.155695,
              40.738223
            ],
            [
              -74.156263,
              40.738207
            ],
            [
              -74.156824,
              40.738312
            ]
          ]
        ],
        "type": "Polygon"
      },
      "id": "0f098e6204b75e4a9f535be7735649a9"
    },
    {
      "type": "Feature",
      "properties": {
        "name": "OU4",
        "label": "Upper 9 Miles",
        "type": "corridor"
      },
      "geometry": {
        "coordinates": [
          [
            [
              -74.12762,
              40.88289
            ],
            [
              -74.125302,
              40.882592
            ],
            [
              -74.123685,
              40.881504
            ],
            [
              -74.120596,
              40.879848
            ],
            [
              -74.120239,
              40.878953
            ],
            [
              -74.119681,
              40.877746
            ],
            [
              -74.118364,
              40.876393
            ],
            [
              -74.115699,
              40.874425
            ],
            [
              -74.115571,
              40.872851
            ],
            [
              -74.114973,
              40.871995
            ],
            [
              -74.114849,
              40.870753
            ],
            [
              -74.113937,
              40.869425
            ],
            [
              -74.113076,
              40.868914
            ],
            [
              -74.112299,
              40.867835
            ],
            [
              -74.111637,
              40.865444
            ],
            [
              -74.111324,
              40.865048
            ],
            [
              -74.110835,
              40.864652
            ],
            [
              -74.109534,
              40.864288
            ],
            [
              -74.108117,
              40.863134
            ],
            [
              -74.107872,
              40.862808
            ],
            [
              -74.10745,
              40.861767
            ],
            [
              -74.107323,
              40.860573
            ],
            [
              -74.107459,
              40.860298
            ],
            [
              -74.107632,
              40.858533
            ],
            [
              -74.10797,
              40.857505
            ],
            [
              -74.108722,
              40.856151
            ],
            [
              -74.10949,
              40.855634
            ],
            [
              -74.110123,
              40.85541
            ],
            [
              -74.110942,
              40.85541
            ],
            [
              -74.111694,
              40.855806
            ],
            [
              -74.112048,
              40.856132
            ],
            [
              -74.1122,
              40.856611
            ],
            [
              -74.112167,
              40.858278
            ],
            [
              -74.112251,
              40.858757
            ],
            [
              -74.112487,
              40.858871
            ],
            [
              -74.113045,
              40.859568
            ],
            [
              -74.113543,
              40.859861
            ],
            [
              -74.114674,
              40.860257
            ],
            [
              -74.115932,
              40.860321
            ],
            [
              -74.117317,
              40.860205
            ],
            [
              -74.11866,
              40.859835
            ],
            [
              -74.119259,
              40.859343
            ],
            [
              -74.119614,
              40.858513
            ],
            [
              -74.119994,
              40.856814
            ],
            [
              -74.120408,
              40.855958
            ],
            [
              -74.120467,
              40.855575
            ],
            [
              -74.120137,
              40.854871
            ],
            [
              -74.120078,
              40.854405
            ],
            [
              -74.119918,
              40.854099
            ],
            [
              -74.119893,
              40.85362
            ],
            [
              -74.119715,
              40.852923
            ],
            [
              -74.119721,
              40.851314
            ],
            [
              -74.120951,
              40.848405
            ],
            [
              -74.121595,
              40.847179
            ],
            [
              -74.122028,
              40.845752
            ],
            [
              -74.122674,
              40.842331
            ],
            [
              -74.123357,
              40.841484
            ],
            [
              -74.124151,
              40.840143
            ],
            [
              -74.124526,
              40.839727
            ],
            [
              -74.124685,
              40.83902
            ],
            [
              -74.12459,
              40.838378
            ],
            [
              -74.12412,
              40.83735
            ],
            [
              -74.123675,
              40.836905
            ],
            [
              -74.123307,
              40.836122
            ],
            [
              -74.122643,
              40.834417
            ],
            [
              -74.121443,
              40.832602
            ],
            [
              -74.121413,
              40.830304
            ],
            [
              -74.121825,
              40.828809
            ],
            [
              -74.122366,
              40.827294
            ],
            [
              -74.122651,
              40.826358
            ],
            [
              -74.123149,
              40.825339
            ],
            [
              -74.124541,
              40.822853
            ],
            [
              -74.125564,
              40.822
            ],
            [
              -74.126164,
              40.821542
            ],
            [
              -74.126653,
              40.821272
            ],
            [
              -74.126755,
              40.821132
            ],
            [
              -74.127074,
              40.821026
            ],
            [
              -74.127319,
              40.821016
            ],
            [
              -74.127974,
              40.820801
            ],
            [
              -74.129046,
              40.820551
            ],
            [
              -74.129179,
              40.820375
            ],
            [
              -74.129424,
              40.820326
            ],
            [
              -74.130123,
              40.820428
            ],
            [
              -74.130335,
              40.82052
            ],
            [
              -74.130477,
              40.820979
            ],
            [
              -74.130744,
              40.820917
            ],
            [
              -74.130517,
              40.820414
            ],
            [
              -74.13057,
              40.82034
            ],
            [
              -74.131202,
              40.820217
            ],
            [
              -74.131221,
              40.820051
            ],
            [
              -74.132486,
              40.819747
            ],
            [
              -74.132856,
              40.819868
            ],
            [
              -74.134663,
              40.81944
            ],
            [
              -74.135078,
              40.819224
            ],
            [
              -74.135569,
              40.819029
            ],
            [
              -74.135593,
              40.818911
            ],
            [
              -74.13582,
              40.818824
            ],
            [
              -74.1359,
              40.818892
            ],
            [
              -74.136116,
              40.818789
            ],
            [
              -74.13625,
              40.818802
            ],
            [
              -74.136387,
              40.81874
            ],
            [
              -74.136756,
              40.818473
            ],
            [
              -74.137017,
              40.818233
            ],
            [
              -74.137288,
              40.817912
            ],
            [
              -74.137499,
              40.817576
            ],
            [
              -74.138249,
              40.815532
            ],
            [
              -74.138827,
              40.81399
            ],
            [
              -74.139029,
              40.813192
            ],
            [
              -74.139108,
              40.811797
            ],
            [
              -74.139037,
              40.811783
            ],
            [
              -74.139039,
              40.811424
            ],
            [
              -74.139113,
              40.811049
            ],
            [
              -74.139062,
              40.809739
            ],
            [
              -74.139092,
              40.809082
            ],
            [
              -74.139387,
              40.807258
            ],
            [
              -74.140052,
              40.806267
            ],
            [
              -74.140227,
              40.805473
            ],
            [
              -74.140253,
              40.80436
            ],
            [
              -74.140028,
              40.803298
            ],
            [
              -74.139944,
              40.802914
            ],
            [
              -74.139704,
              40.802379
            ],
            [
              -74.13967,
              40.802182
            ],
            [
              -74.139042,
              40.800735
            ],
            [
              -74.138855,
              40.800212
            ],
            [
              -74.138695,
              40.799419
            ],
            [
              -74.138719,
              40.798988
            ],
            [
              -74.138813,
              40.798706
            ],
            [
              -74.138934,
              40.798335
            ],
            [
              -74.139223,
              40.797774
            ],
            [
              -74.139973,
              40.797095
            ],
            [
              -74.140954,
              40.795846
            ],
            [
              -74.143135,
              40.792841
            ],
            [
              -74.144939,
              40.791245
            ],
            [
              -74.145168,
              40.790963
            ],
            [
              -74.145564,
              40.790292
            ],
            [
              -74.145708,
              40.79022
            ],
            [
              -74.146769,
              40.78833
            ],
            [
              -74.147263,
              40.787686
            ],
            [
              -74.148827,
              40.785198
            ],
            [
              -74.148994,
              40.784514
            ],
            [
              -74.149057,
              40.783792
            ],
            [
              -74.148956,
              40.782267
            ],
            [
              -74.148752,
              40.780423
            ],
            [
              -74.148861,
              40.779547
            ],
            [
              -74.148693,
              40.779524
            ],
            [
              -74.148865,
              40.779081
            ],
            [
              -74.150076,
              40.77756
            ],
            [
              -74.150417,
              40.777264
            ],
            [
              -74.14968,
              40.776576
            ],
            [
              -74.149065,
              40.777173
            ],
            [
              -74.148357,
              40.777921
            ],
            [
              -74.147794,
              40.779099
            ],
            [
              -74.14781,
              40.779962
            ],
            [
              -74.148158,
              40.781744
            ],
            [
              -74.148166,
              40.782332
            ],
            [
              -74.147972,
              40.783234
            ],
            [
              -74.147898,
              40.784063
            ],
            [
              -74.147325,
              40.785903
            ],
            [
              -74.146415,
              40.787278
            ],
            [
              -74.146228,
              40.787365
            ],
            [
              -74.145301,
              40.788868
            ],
            [
              -74.144493,
              40.789873
            ],
            [
              -74.143853,
              40.790461
            ],
            [
              -74.143476,
              40.791084
            ],
            [
              -74.142935,
              40.791454
            ],
            [
              -74.142261,
              40.792171
            ],
            [
              -74.14098,
              40.794049
            ],
            [
              -74.1405,
              40.794948
            ],
            [
              -74.139143,
              40.796727
            ],
            [
              -74.138231,
              40.797391
            ],
            [
              -74.137717,
              40.79826
            ],
            [
              -74.137209,
              40.799928
            ],
            [
              -74.13691,
              40.800011
            ],
            [
              -74.136798,
              40.800309
            ],
            [
              -74.136914,
              40.800355
            ],
            [
              -74.137284,
              40.800323
            ],
            [
              -74.137482,
              40.800701
            ],
            [
              -74.138231,
              40.801635
            ],
            [
              -74.13848,
              40.801996
            ],
            [
              -74.138908,
              40.803535
            ],
            [
              -74.139027,
              40.804428
            ],
            [
              -74.138931,
              40.805286
            ],
            [
              -74.138113,
              40.806675
            ],
            [
              -74.138238,
              40.807455
            ],
            [
              -74.138182,
              40.808688
            ],
            [
              -74.138137,
              40.808913
            ],
            [
              -74.137986,
              40.810833
            ],
            [
              -74.137909,
              40.811029
            ],
            [
              -74.137969,
              40.811429
            ],
            [
              -74.137972,
              40.813068
            ],
            [
              -74.137487,
              40.81358
            ],
            [
              -74.137184,
              40.814844
            ],
            [
              -74.137084,
              40.815563
            ],
            [
              -74.136869,
              40.816104
            ],
            [
              -74.13679,
              40.816592
            ],
            [
              -74.136594,
              40.816984
            ],
            [
              -74.136402,
              40.817202
            ],
            [
              -74.13613,
              40.817422
            ],
            [
              -74.135728,
              40.817665
            ],
            [
              -74.134922,
              40.817969
            ],
            [
              -74.133621,
              40.818656
            ],
            [
              -74.133251,
              40.818771
            ],
            [
              -74.133068,
              40.818699
            ],
            [
              -74.132152,
              40.818982
            ],
            [
              -74.132021,
              40.818939
            ],
            [
              -74.131495,
              40.819126
            ],
            [
              -74.130692,
              40.819327
            ],
            [
              -74.129764,
              40.819549
            ],
            [
              -74.128676,
              40.819693
            ],
            [
              -74.127477,
              40.819935
            ],
            [
              -74.126746,
              40.820138
            ],
            [
              -74.126141,
              40.820401
            ],
            [
              -74.124694,
              40.821326
            ],
            [
              -74.123851,
              40.821926
            ],
            [
              -74.123154,
              40.822611
            ],
            [
              -74.121693,
              40.826766
            ],
            [
              -74.12052,
              40.830747
            ],
            [
              -74.120467,
              40.832081
            ],
            [
              -74.120698,
              40.833067
            ],
            [
              -74.122016,
              40.835143
            ],
            [
              -74.122267,
              40.836033
            ],
            [
              -74.122593,
              40.836683
            ],
            [
              -74.123543,
              40.838099
            ],
            [
              -74.123708,
              40.839286
            ],
            [
              -74.122957,
              40.840653
            ],
            [
              -74.121894,
              40.842151
            ],
            [
              -74.121489,
              40.84325
            ],
            [
              -74.121349,
              40.844609
            ],
            [
              -74.120614,
              40.847171
            ],
            [
              -74.11974,
              40.848744
            ],
            [
              -74.119175,
              40.849892
            ],
            [
              -74.118885,
              40.851405
            ],
            [
              -74.118807,
              40.852539
            ],
            [
              -74.11957,
              40.855426
            ],
            [
              -74.118507,
              40.858829
            ],
            [
              -74.117601,
              40.859474
            ],
            [
              -74.11589,
              40.859718
            ],
            [
              -74.114299,
              40.859554
            ],
            [
              -74.112739,
              40.85825
            ],
            [
              -74.112744,
              40.855931
            ],
            [
              -74.110509,
              40.854811
            ],
            [
              -74.109313,
              40.855031
            ],
            [
              -74.107894,
              40.855716
            ],
            [
              -74.106546,
              40.857096
            ],
            [
              -74.106391,
              40.859455
            ],
            [
              -74.106729,
              40.860349
            ],
            [
              -74.106539,
              40.861913
            ],
            [
              -74.106995,
              40.863341
            ],
            [
              -74.108067,
              40.864213
            ],
            [
              -74.109463,
              40.86475
            ],
            [
              -74.110669,
              40.865257
            ],
            [
              -74.111198,
              40.866352
            ],
            [
              -74.111633,
              40.867905
            ],
            [
              -74.112085,
              40.868913
            ],
            [
              -74.113133,
              40.869808
            ],
            [
              -74.114331,
              40.873222
            ],
            [
              -74.114762,
              40.873967
            ],
            [
              -74.1149,
              40.875043
            ],
            [
              -74.116972,
              40.876196
            ],
            [
              -74.118323,
              40.877462
            ],
            [
              -74.119188,
              40.87817
            ],
            [
              -74.119458,
              40.879916
            ],
            [
              -74.121167,
              40.881485
            ],
            [
              -74.123399,
              40.882209
            ],
            [
              -74.126837,
              40.884109
            ],
            [
              -74.12762,
              40.88289
            ]
          ]
        ],
        "type": "Polygon"
      },
      "id": "1c5b31a646068633c228b729198b7de2"
    },
    {
      "type": "Feature",
      "properties": {
        "name": "riverside",
        "label": "Riverside",
        "type": "superfund"
      },
      "geometry": {
        "coordinates": [
          [
            [
              -74.159846,
              40.764767
            ],
            [
              -74.160688,
              40.765158
            ],
            [
              -74.159507,
              40.766953
            ],
            [
              -74.159401,
              40.766977
            ],
            [
              -74.15829,
              40.767902
            ],
            [
              -74.15768,
              40.767696
            ],
            [
              -74.157754,
              40.767484
            ],
            [
              -74.158909,
              40.765873
            ],
            [
              -74.159386,
              40.765237
            ],
            [
              -74.159846,
              40.764767
            ]
          ]
        ],
        "type": "Polygon"
      },
      "id": "2e5d01ccdb490162fd61b9962671cc49"
    },
    {
      "type": "Feature",
      "properties": {
        "label": "Syncon Resins",
        "type": "superfund",
        "name": "sr"
      },
      "geometry": {
        "coordinates": [
          [
            [
              -74.112124,
              40.736953
            ],
            [
              -74.111798,
              40.738232
            ],
            [
              -74.11647,
              40.738994
            ],
            [
              -74.115903,
              40.73755
            ],
            [
              -74.112124,
              40.736953
            ]
          ]
        ],
        "type": "Polygon"
      },
      "id": "36c3a44d0132b7fef891a6facc216e1a"
    },
    {
      "type": "Feature",
      "properties": {
        "name": "OU3",
        "label": "Newark Bay",
        "type": "corridor"
      },
      "geometry": {
        "coordinates": [
          [
            [
              -74.109532,
              40.71592
            ],
            [
              -74.10646,
              40.714172
            ],
            [
              -74.103845,
              40.712455
            ],
            [
              -74.104385,
              40.712114
            ],
            [
              -74.105182,
              40.712356
            ],
            [
              -74.106773,
              40.712424
            ],
            [
              -74.10762,
              40.711993
            ],
            [
              -74.107491,
              40.711292
            ],
            [
              -74.108012,
              40.709968
            ],
            [
              -74.106648,
              40.709244
            ],
            [
              -74.106525,
              40.703695
            ],
            [
              -74.104608,
              40.704227
            ],
            [
              -74.102243,
              40.702138
            ],
            [
              -74.105283,
              40.698736
            ],
            [
              -74.107675,
              40.698369
            ],
            [
              -74.108611,
              40.696899
            ],
            [
              -74.108101,
              40.695718
            ],
            [
              -74.109007,
              40.694686
            ],
            [
              -74.110401,
              40.694818
            ],
            [
              -74.110162,
              40.693812
            ],
            [
              -74.111568,
              40.690786
            ],
            [
              -74.112563,
              40.690935
            ],
            [
              -74.113546,
              40.689845
            ],
            [
              -74.112574,
              40.688768
            ],
            [
              -74.112878,
              40.68796
            ],
            [
              -74.113108,
              40.687301
            ],
            [
              -74.11223,
              40.686541
            ],
            [
              -74.112522,
              40.686101
            ],
            [
              -74.113858,
              40.686602
            ],
            [
              -74.11942,
              40.680311
            ],
            [
              -74.117651,
              40.679106
            ],
            [
              -74.124225,
              40.672071
            ],
            [
              -74.125857,
              40.672426
            ],
            [
              -74.128196,
              40.668006
            ],
            [
              -74.12794,
              40.666409
            ],
            [
              -74.128716,
              40.665433
            ],
            [
              -74.130911,
              40.666424
            ],
            [
              -74.133478,
              40.66321
            ],
            [
              -74.13213,
              40.66192
            ],
            [
              -74.135616,
              40.657649
            ],
            [
              -74.136821,
              40.657853
            ],
            [
              -74.138734,
              40.655861
            ],
            [
              -74.139813,
              40.656012
            ],
            [
              -74.140655,
              40.65495
            ],
            [
              -74.140285,
              40.65393
            ],
            [
              -74.143017,
              40.650809
            ],
            [
              -74.144295,
              40.651107
            ],
            [
              -74.145072,
              40.648745
            ],
            [
              -74.146299,
              40.646375
            ],
            [
              -74.145555,
              40.644729
            ],
            [
              -74.14365,
              40.643378
            ],
            [
              -74.145167,
              40.639394
            ],
            [
              -74.148949,
              40.638894
            ],
            [
              -74.153861,
              40.637176
            ],
            [
              -74.161942,
              40.638729
            ],
            [
              -74.161515,
              40.640663
            ],
            [
              -74.163476,
              40.641186
            ],
            [
              -74.171813,
              40.642486
            ],
            [
              -74.173466,
              40.645206
            ],
            [
              -74.175213,
              40.645282
            ],
            [
              -74.175803,
              40.644693
            ],
            [
              -74.175605,
              40.64358
            ],
            [
              -74.178579,
              40.642747
            ],
            [
              -74.179281,
              40.645321
            ],
            [
              -74.18571,
              40.644121
            ],
            [
              -74.195924,
              40.635435
            ],
            [
              -74.198327,
              40.636718
            ],
            [
              -74.192833,
              40.641739
            ],
            [
              -74.185943,
              40.646768
            ],
            [
              -74.180351,
              40.647465
            ],
            [
              -74.17936,
              40.648913
            ],
            [
              -74.174115,
              40.649663
            ],
            [
              -74.168644,
              40.653161
            ],
            [
              -74.167604,
              40.654665
            ],
            [
              -74.163692,
              40.654995
            ],
            [
              -74.16464,
              40.655779
            ],
            [
              -74.156721,
              40.662592
            ],
            [
              -74.148751,
              40.659415
            ],
            [
              -74.138631,
              40.673595
            ],
            [
              -74.160337,
              40.687313
            ],
            [
              -74.158889,
              40.689269
            ],
            [
              -74.144163,
              40.679931
            ],
            [
              -74.135907,
              40.689043
            ],
            [
              -74.140395,
              40.693779
            ],
            [
              -74.154249,
              40.698579
            ],
            [
              -74.153174,
              40.700196
            ],
            [
              -74.138333,
              40.695022
            ],
            [
              -74.131884,
              40.688127
            ],
            [
              -74.125535,
              40.695414
            ],
            [
              -74.125938,
              40.696163
            ],
            [
              -74.127252,
              40.696555
            ],
            [
              -74.126221,
              40.697171
            ],
            [
              -74.124836,
              40.697037
            ],
            [
              -74.12449,
              40.697588
            ],
            [
              -74.125063,
              40.697864
            ],
            [
              -74.124311,
              40.698264
            ],
            [
              -74.123753,
              40.697878
            ],
            [
              -74.122035,
              40.701323
            ],
            [
              -74.122672,
              40.701447
            ],
            [
              -74.122066,
              40.702537
            ],
            [
              -74.121335,
              40.702803
            ],
            [
              -74.120924,
              40.703772
            ],
            [
              -74.120031,
              40.704749
            ],
            [
              -74.113964,
              40.711584
            ],
            [
              -74.109532,
              40.71592
            ]
          ]
        ],
        "type": "Polygon"
      },
      "id": "64047f9345b5b7d27d703e94424c4ec5"
    },
    {
      "type": "Feature",
      "properties": {
        "label": "Diamond Head Oil",
        "name": "dho",
        "type": "superfund"
      },
      "geometry": {
        "coordinates": [
          [
            [
              -74.133961,
              40.749732
            ],
            [
              -74.13414,
              40.746173
            ],
            [
              -74.134429,
              40.745973
            ],
            [
              -74.136133,
              40.745402
            ],
            [
              -74.136199,
              40.745295
            ],
            [
              -74.134415,
              40.745878
            ],
            [
              -74.13109,
              40.747147
            ],
            [
              -74.128894,
              40.748245
            ],
            [
              -74.124609,
              40.750224
            ],
            [
              -74.128166,
              40.750366
            ],
            [
              -74.130897,
              40.75016
            ],
            [
              -74.133961,
              40.749732
            ]
          ]
        ],
        "type": "Polygon"
      },
      "id": "6b4ec5342408219f56477629e0466f23"
    },
    {
      "type": "Feature",
      "properties": {
        "label": "PVSC (Upland Processing Facility)",
        "name": "PVSC",
        "type": "site"
      },
      "geometry": {
        "coordinates": [
          [
            [
              -74.122932,
              40.711474
            ],
            [
              -74.121985,
              40.709262
            ],
            [
              -74.125903,
              40.710498
            ],
            [
              -74.126554,
              40.709354
            ],
            [
              -74.127699,
              40.709728
            ],
            [
              -74.127426,
              40.710275
            ],
            [
              -74.131647,
              40.710243
            ],
            [
              -74.130733,
              40.711684
            ],
            [
              -74.129614,
              40.711661
            ],
            [
              -74.128718,
              40.711255
            ],
            [
              -74.128059,
              40.711298
            ],
            [
              -74.127875,
              40.711266
            ],
            [
              -74.122932,
              40.711474
            ]
          ]
        ],
        "type": "Polygon"
      },
      "id": "6f9160232c672f03cb3c0356212be5f6"
    },
    {
      "type": "Feature",
      "properties": {
        "name": "OU2",
        "label": "Lower 8.3 Miles",
        "type": "corridor"
      },
      "geometry": {
        "coordinates": [
          [
            [
              -74.120729,
              40.706394
            ],
            [
              -74.122821,
              40.711489
            ],
            [
              -74.123237,
              40.715373
            ],
            [
              -74.1233,
              40.718034
            ],
            [
              -74.12289,
              40.720177
            ],
            [
              -74.121183,
              40.72534
            ],
            [
              -74.120415,
              40.727904
            ],
            [
              -74.120057,
              40.729318
            ],
            [
              -74.119277,
              40.730502
            ],
            [
              -74.11861,
              40.7337
            ],
            [
              -74.118556,
              40.735256
            ],
            [
              -74.118276,
              40.736961
            ],
            [
              -74.118255,
              40.73783
            ],
            [
              -74.11847,
              40.738703
            ],
            [
              -74.119201,
              40.739487
            ],
            [
              -74.120037,
              40.740111
            ],
            [
              -74.122611,
              40.741044
            ],
            [
              -74.124259,
              40.74091
            ],
            [
              -74.124251,
              40.741074
            ],
            [
              -74.126229,
              40.741454
            ],
            [
              -74.126958,
              40.741319
            ],
            [
              -74.127482,
              40.741468
            ],
            [
              -74.128201,
              40.741388
            ],
            [
              -74.128328,
              40.741225
            ],
            [
              -74.128541,
              40.741157
            ],
            [
              -74.129577,
              40.741181
            ],
            [
              -74.129954,
              40.741121
            ],
            [
              -74.130617,
              40.741248
            ],
            [
              -74.13283,
              40.741058
            ],
            [
              -74.133689,
              40.740904
            ],
            [
              -74.133721,
              40.741037
            ],
            [
              -74.138706,
              40.740391
            ],
            [
              -74.140105,
              40.739865
            ],
            [
              -74.14203,
              40.738472
            ],
            [
              -74.144513,
              40.734962
            ],
            [
              -74.145088,
              40.7345
            ],
            [
              -74.145913,
              40.734124
            ],
            [
              -74.146803,
              40.733657
            ],
            [
              -74.147586,
              40.733415
            ],
            [
              -74.148649,
              40.7331
            ],
            [
              -74.149399,
              40.732958
            ],
            [
              -74.150228,
              40.732996
            ],
            [
              -74.152369,
              40.733252
            ],
            [
              -74.154932,
              40.733176
            ],
            [
              -74.155871,
              40.733152
            ],
            [
              -74.157137,
              40.73328
            ],
            [
              -74.159038,
              40.733748
            ],
            [
              -74.160701,
              40.734542
            ],
            [
              -74.16205,
              40.735634
            ],
            [
              -74.16292,
              40.736605
            ],
            [
              -74.163569,
              40.737586
            ],
            [
              -74.16418,
              40.739189
            ],
            [
              -74.164476,
              40.740312
            ],
            [
              -74.165699,
              40.742931
            ],
            [
              -74.166329,
              40.74477
            ],
            [
              -74.166444,
              40.745656
            ],
            [
              -74.166505,
              40.746531
            ],
            [
              -74.166447,
              40.747629
            ],
            [
              -74.16636,
              40.748751
            ],
            [
              -74.166046,
              40.749802
            ],
            [
              -74.165526,
              40.752371
            ],
            [
              -74.16506,
              40.755778
            ],
            [
              -74.164849,
              40.757514
            ],
            [
              -74.164532,
              40.758619
            ],
            [
              -74.163342,
              40.760661
            ],
            [
              -74.162699,
              40.761597
            ],
            [
              -74.162092,
              40.762282
            ],
            [
              -74.161041,
              40.763504
            ],
            [
              -74.159512,
              40.765073
            ],
            [
              -74.158351,
              40.766612
            ],
            [
              -74.15772,
              40.767499
            ],
            [
              -74.157221,
              40.768849
            ],
            [
              -74.157106,
              40.769518
            ],
            [
              -74.157266,
              40.769816
            ],
            [
              -74.157268,
              40.769965
            ],
            [
              -74.156979,
              40.770604
            ],
            [
              -74.155953,
              40.772105
            ],
            [
              -74.155005,
              40.773215
            ],
            [
              -74.153036,
              40.775044
            ],
            [
              -74.150446,
              40.777185
            ],
            [
              -74.149738,
              40.776552
            ],
            [
              -74.150483,
              40.775587
            ],
            [
              -74.151302,
              40.774864
            ],
            [
              -74.153193,
              40.773072
            ],
            [
              -74.155263,
              40.769171
            ],
            [
              -74.156398,
              40.767107
            ],
            [
              -74.15676,
              40.766436
            ],
            [
              -74.157105,
              40.766027
            ],
            [
              -74.158352,
              40.764542
            ],
            [
              -74.159797,
              40.762972
            ],
            [
              -74.161246,
              40.761415
            ],
            [
              -74.161978,
              40.76052
            ],
            [
              -74.162169,
              40.760236
            ],
            [
              -74.162153,
              40.760165
            ],
            [
              -74.162425,
              40.759792
            ],
            [
              -74.162928,
              40.758288
            ],
            [
              -74.163168,
              40.757629
            ],
            [
              -74.163263,
              40.757138
            ],
            [
              -74.163416,
              40.756808
            ],
            [
              -74.16355,
              40.756773
            ],
            [
              -74.163784,
              40.755599
            ],
            [
              -74.164623,
              40.751297
            ],
            [
              -74.165109,
              40.748897
            ],
            [
              -74.16511,
              40.748275
            ],
            [
              -74.165176,
              40.746823
            ],
            [
              -74.165135,
              40.745385
            ],
            [
              -74.164539,
              40.743672
            ],
            [
              -74.163818,
              40.742062
            ],
            [
              -74.163373,
              40.741059
            ],
            [
              -74.162931,
              40.739939
            ],
            [
              -74.161968,
              40.73811
            ],
            [
              -74.161196,
              40.736675
            ],
            [
              -74.161042,
              40.736773
            ],
            [
              -74.160465,
              40.736198
            ],
            [
              -74.160611,
              40.735952
            ],
            [
              -74.160372,
              40.735711
            ],
            [
              -74.160021,
              40.735438
            ],
            [
              -74.158968,
              40.734979
            ],
            [
              -74.158998,
              40.734894
            ],
            [
              -74.158229,
              40.734545
            ],
            [
              -74.157667,
              40.734252
            ],
            [
              -74.156772,
              40.734205
            ],
            [
              -74.154847,
              40.734317
            ],
            [
              -74.153936,
              40.734765
            ],
            [
              -74.151805,
              40.734889
            ],
            [
              -74.151348,
              40.734901
            ],
            [
              -74.15071,
              40.734569
            ],
            [
              -74.14913,
              40.734725
            ],
            [
              -74.147389,
              40.735179
            ],
            [
              -74.145735,
              40.736194
            ],
            [
              -74.14495,
              40.737161
            ],
            [
              -74.144771,
              40.737685
            ],
            [
              -74.144087,
              40.737982
            ],
            [
              -74.144171,
              40.738163
            ],
            [
              -74.143729,
              40.739046
            ],
            [
              -74.142902,
              40.739608
            ],
            [
              -74.141204,
              40.740751
            ],
            [
              -74.139815,
              40.741397
            ],
            [
              -74.138716,
              40.741595
            ],
            [
              -74.137597,
              40.742109
            ],
            [
              -74.136657,
              40.74223
            ],
            [
              -74.136638,
              40.742015
            ],
            [
              -74.136381,
              40.742133
            ],
            [
              -74.133935,
              40.742488
            ],
            [
              -74.127355,
              40.74311
            ],
            [
              -74.122545,
              40.743014
            ],
            [
              -74.119584,
              40.742092
            ],
            [
              -74.117294,
              40.740765
            ],
            [
              -74.117354,
              40.740335
            ],
            [
              -74.116581,
              40.740233
            ],
            [
              -74.116729,
              40.739341
            ],
            [
              -74.116531,
              40.739062
            ],
            [
              -74.115985,
              40.737688
            ],
            [
              -74.116888,
              40.731686
            ],
            [
              -74.117976,
              40.727013
            ],
            [
              -74.11979,
              40.722316
            ],
            [
              -74.118548,
              40.72197
            ],
            [
              -74.118579,
              40.720288
            ],
            [
              -74.116095,
              40.717057
            ],
            [
              -74.113789,
              40.717503
            ],
            [
              -74.113354,
              40.717254
            ],
            [
              -74.113174,
              40.717385
            ],
            [
              -74.113487,
              40.717619
            ],
            [
              -74.113438,
              40.717953
            ],
            [
              -74.112206,
              40.718298
            ],
            [
              -74.111915,
              40.718648
            ],
            [
              -74.110765,
              40.719079
            ],
            [
              -74.109416,
              40.719392
            ],
            [
              -74.106974,
              40.719105
            ],
            [
              -74.106625,
              40.719178
            ],
            [
              -74.106657,
              40.719013
            ],
            [
              -74.106698,
              40.718868
            ],
            [
              -74.113921,
              40.711673
            ],
            [
              -74.120771,
              40.704108
            ],
            [
              -74.12064,
              40.704652
            ],
            [
              -74.120756,
              40.70506
            ],
            [
              -74.120602,
              40.705536
            ],
            [
              -74.120729,
              40.706394
            ]
          ]
        ],
        "type": "Polygon"
      },
      "id": "8f21d7445428276cd6eb93f15e305011"
    },
    {
      "type": "Feature",
      "properties": {
        "label": "Pierson's Creek",
        "name": "pc",
        "type": "superfund"
      },
      "geometry": {
        "coordinates": [
          [
            [
              -74.145525,
              40.71796
            ],
            [
              -74.143974,
              40.71744
            ],
            [
              -74.144329,
              40.716734
            ],
            [
              -74.144947,
              40.716256
            ],
            [
              -74.145196,
              40.716083
            ],
            [
              -74.145793,
              40.714896
            ],
            [
              -74.145987,
              40.714498
            ],
            [
              -74.145194,
              40.714157
            ],
            [
              -74.146911,
              40.712643
            ],
            [
              -74.147744,
              40.712916
            ],
            [
              -74.148194,
              40.712445
            ],
            [
              -74.148437,
              40.712507
            ],
            [
              -74.15043,
              40.711368
            ],
            [
              -74.152816,
              40.709207
            ],
            [
              -74.153035,
              40.708538
            ],
            [
              -74.154199,
              40.708415
            ],
            [
              -74.154925,
              40.707287
            ],
            [
              -74.154572,
              40.70717
            ],
            [
              -74.152515,
              40.703852
            ],
            [
              -74.154899,
              40.699918
            ],
            [
              -74.153705,
              40.699478
            ],
            [
              -74.153767,
              40.69939
            ],
            [
              -74.154067,
              40.699483
            ],
            [
              -74.155078,
              40.699871
            ],
            [
              -74.152683,
              40.703824
            ],
            [
              -74.154608,
              40.70709
            ],
            [
              -74.155085,
              40.707271
            ],
            [
              -74.154285,
              40.708518
            ],
            [
              -74.153125,
              40.708632
            ],
            [
              -74.152939,
              40.709254
            ],
            [
              -74.150531,
              40.711457
            ],
            [
              -74.148582,
              40.712547
            ],
            [
              -74.148767,
              40.712652
            ],
            [
              -74.148524,
              40.712716
            ],
            [
              -74.146497,
              40.714157
            ],
            [
              -74.145451,
              40.716078
            ],
            [
              -74.14629,
              40.716651
            ],
            [
              -74.145525,
              40.71796
            ]
          ]
        ],
        "type": "Polygon"
      },
      "id": "9473278b5e686e49da491b5da364d7e6"
    },
    {
      "type": "Feature",
      "properties": {
        "name": "OU1",
        "label": "Diamond Alkali Co.",
        "type": "superfund"
      },
      "geometry": {
        "coordinates": [
          [
            [
              -74.137232,
              40.740534
            ],
            [
              -74.1365,
              40.738701
            ],
            [
              -74.133093,
              40.738845
            ],
            [
              -74.133225,
              40.73938
            ],
            [
              -74.13305,
              40.739919
            ],
            [
              -74.132687,
              40.740837
            ],
            [
              -74.132717,
              40.741054
            ],
            [
              -74.133704,
              40.740885
            ],
            [
              -74.133733,
              40.740986
            ],
            [
              -74.135132,
              40.740846
            ],
            [
              -74.137232,
              40.740534
            ]
          ]
        ],
        "type": "Polygon"
      },
      "id": "97f7ff3f12e7465668ef87899d41f44c"
    },
    {
      "type": "Feature",
      "properties": {
        "label": "Givaudan Corporation",
        "name": "gc",
        "type": "site"
      },
      "geometry": {
        "coordinates": [
          [
            [
              -74.130654,
              40.829524
            ],
            [
              -74.129839,
              40.830473
            ],
            [
              -74.127318,
              40.829195
            ],
            [
              -74.128141,
              40.828247
            ],
            [
              -74.130654,
              40.829524
            ]
          ]
        ],
        "type": "Polygon"
      },
      "id": "d87a9125f055cc1ee4bf6729203ddb9a"
    }
  ],
  "type": "FeatureCollection"
}