{"type": "FeatureCollection", "features": [{"type": "Feature", "geometry": {"type": "Point", "coordinates": [-74.133819, 40.742067]}, "properties": {"id": "10B-TPRB-P5", "name": "PR5", "stream_mile": null}}, {"type": "Feature", "geometry": {"type": "Point", "coordinates": [-74.141722, 40.83002]}, "properties": {"id": "10B-T3R2-P1", "name": "Third River HOT", "stream_mile": null}}, {"type": "Feature", "geometry": {"type": "Point", "coordinates": [-74.121976, 40.741808]}, "properties": {"id": "10B-TPRB-P6", "name": "PR6", "stream_mile": null}}, {"type": "Feature", "geometry": {"type": "Point", "coordinates": [-74.13303, 40.825976]}, "properties": {"id": "10B-T3R1-P1", "name": "Third River Road", "stream_mile": null}}, {"type": "Feature", "geometry": {"type": "Point", "coordinates": [-74.124572, 40.69179]}, "properties": {"id": "10B-TNBB-P5", "name": "NB5", "stream_mile": null}}, {"type": "Feature", "geometry": {"type": "Point", "coordinates": [-74.122664, 40.841262]}, "properties": {"id": "10B-T130-P1", "name": "Union Ave", "stream_mile": null}}, {"type": "Feature", "geometry": {"type": "Point", "coordinates": [-74.138239, 40.810985]}, "properties": {"id": "10B-T104-P1", "name": "Park Ave", "stream_mile": null}}, {"type": "Feature", "geometry": {"type": "Point", "coordinates": [-74.148997, 40.649143]}, "properties": {"id": "10B-TNBB-P6", "name": "NB6", "stream_mile": null}}, {"type": "Feature", "geometry": {"type": "Point", "coordinates": [-74.165517, 40.745171]}, "properties": {"id": "10B-T054-P1", "name": "Bridge Street", "stream_mile": null}}, {"type": "Feature", "geometry": {"type": "Point", "coordinates": [-74.119721, 40.879754]}, "properties": {"id": "10B-T169-P1", "name": "Ackerman Ave", "stream_mile": null}}, {"type": "Feature", "geometry": {"type": "Point", "coordinates": [-74.081724, 40.888966]}, "properties": {"id": "10B-TSR3-P1", "name": "Saddle River HOT", "stream_mile": null}}, {"type": "Feature", "geometry": {"type": "Point", "coordinates": [-74.101625, 40.864144]}, "properties": {"id": "10B-TSR1-P1", "name": "Saddle River Ave", "stream_mile": null}}, {"type": "Feature", "geometry": {"type": "Point", "coordinates": [-74.128958, 40.684642]}, "properties": {"id": "10B-E01-C101", "name": "1.01", "stream_mile": null}}, {"type": "Feature", "geometry": {"type": "Point", "coordinates": [-74.125115, 40.68997]}, "properties": {"id": "10B-TNBB-P1", "name": "NB1", "stream_mile": null}}, {"type": "Feature", "geometry": {"type": "Point", "coordinates": [-74.125181, 40.689998]}, "properties": {"id": "10B-E01-C102", "name": "1.02", "stream_mile": null}}, {"type": "Feature", "geometry": {"type": "Point", "coordinates": [-74.119516, 40.698699]}, "properties": {"id": "10B-E01-C103", "name": "1.03", "stream_mile": null}}, {"type": "Feature", "geometry": {"type": "Point", "coordinates": [-74.119886, 40.706354]}, "properties": {"id": "10B-E01-C104", "name": "1.04", "stream_mile": null}}, {"type": "Feature", "geometry": {"type": "Point", "coordinates": [-74.119856, 40.706271]}, "properties": {"id": "10B-TNBB-P2", "name": "NB 2", "stream_mile": null}}, {"type": "Feature", "geometry": {"type": "Point", "coordinates": [-74.12253, 40.714518]}, "properties": {"id": "10B-E01-C105", "name": "1.05", "stream_mile": null}}, {"type": "Feature", "geometry": {"type": "Point", "coordinates": [-74.121023, 40.722435]}, "properties": {"id": "10B-E01-C106", "name": "1.06", "stream_mile": null}}, {"type": "Feature", "geometry": {"type": "Point", "coordinates": [-74.121067, 40.722354]}, "properties": {"id": "10B-TNBB-P3", "name": "NB 3", "stream_mile": null}}, {"type": "Feature", "geometry": {"type": "Point", "coordinates": [-74.118568, 40.729199]}, "properties": {"id": "10B-E01-C107", "name": "1.07", "stream_mile": null}}, {"type": "Feature", "geometry": {"type": "Point", "coordinates": [-74.117125, 40.737189]}, "properties": {"id": "10B-E01-C108", "name": "1.08", "stream_mile": null}}, {"type": "Feature", "geometry": {"type": "Point", "coordinates": [-74.117119, 40.73711]}, "properties": {"id": "10B-TNBB-P4", "name": "NB4", "stream_mile": null}}, {"type": "Feature", "geometry": {"type": "Point", "coordinates": [-74.124054, 40.742177]}, "properties": {"id": "10B-E01-C109", "name": "1.09", "stream_mile": null}}, {"type": "Feature", "geometry": {"type": "Point", "coordinates": [-74.134965, 40.741507]}, "properties": {"id": "10B-E01-C110", "name": "1.10", "stream_mile": null}}, {"type": "Feature", "geometry": {"type": "Point", "coordinates": [-74.135009, 40.741506]}, "properties": {"id": "10B-TPRB-P1", "name": "PR1", "stream_mile": null}}, {"type": "Feature", "geometry": {"type": "Point", "coordinates": [-74.144394, 40.736514]}, "properties": {"id": "10B-E01-C111", "name": "1.11", "stream_mile": null}}, {"type": "Feature", "geometry": {"type": "Point", "coordinates": [-74.154049, 40.733719]}, "properties": {"id": "10B-E01-C112", "name": "1.12", "stream_mile": null}}, {"type": "Feature", "geometry": {"type": "Point", "coordinates": [-74.165307, 40.74454]}, "properties": {"id": "10B-E01-C113", "name": "1.13", "stream_mile": null}}, {"type": "Feature", "geometry": {"type": "Point", "coordinates": [-74.165396, 40.744454]}, "properties": {"id": "10B-TPRB-P2", "name": "PR2", "stream_mile": null}}, {"type": "Feature", "geometry": {"type": "Point", "coordinates": [-74.17253, 40.788914]}, "properties": {"id": "10B-T2R2-P1", "name": "Second HOT", "stream_mile": null}}, {"type": "Feature", "geometry": {"type": "Point", "coordinates": [-74.165382, 40.744448]}, "properties": {"id": "10B-E02-C201", "name": "2.01", "stream_mile": null}}, {"type": "Feature", "geometry": {"type": "Point", "coordinates": [-74.154341, 40.781256]}, "properties": {"id": "10B-T2R1-P1", "name": "Second River Washington Ave", "stream_mile": null}}, {"type": "Feature", "geometry": {"type": "Point", "coordinates": [-74.161005, 40.734858]}, "properties": {"id": "10B-E02-C202", "name": "2.02", "stream_mile": null}}, {"type": "Feature", "geometry": {"type": "Point", "coordinates": [-74.160893, 40.735288]}, "properties": {"id": "10B-TPRB-P3", "name": "PR3", "stream_mile": null}}, {"type": "Feature", "geometry": {"type": "Point", "coordinates": [-74.151761, 40.733605]}, "properties": {"id": "10B-E02-C203", "name": "2.03", "stream_mile": null}}, {"type": "Feature", "geometry": {"type": "Point", "coordinates": [-74.151693, 40.733495]}, "properties": {"id": "10B-TPRB-P4", "name": "PR4", "stream_mile": null}}, {"type": "Feature", "geometry": {"type": "Point", "coordinates": [-74.142646, 40.73858]}, "properties": {"id": "10B-E02-C204", "name": "2.04", "stream_mile": null}}, {"type": "Feature", "geometry": {"type": "Point", "coordinates": [-74.133799, 40.742085]}, "properties": {"id": "10B-E02-C205", "name": "2.05", "stream_mile": null}}, {"type": "Feature", "geometry": {"type": "Point", "coordinates": [-74.122218, 40.741716]}, "properties": {"id": "10B-E02-C206", "name": "2.06", "stream_mile": null}}, {"type": "Feature", "geometry": {"type": "Point", "coordinates": [-74.117372, 40.734231]}, "properties": {"id": "10B-E02-C207", "name": "2.07", "stream_mile": null}}, {"type": "Feature", "geometry": {"type": "Point", "coordinates": [-74.11943, 40.726116]}, "properties": {"id": "10B-E02-C208", "name": "2.08", "stream_mile": null}}, {"type": "Feature", "geometry": {"type": "Point", "coordinates": [-74.122511, 40.717837]}, "properties": {"id": "10B-E02-C209", "name": "2.09", "stream_mile": null}}, {"type": "Feature", "geometry": {"type": "Point", "coordinates": [-74.122332, 40.712636]}, "properties": {"id": "10B-E02-C210", "name": "2.10", "stream_mile": null}}, {"type": "Feature", "geometry": {"type": "Point", "coordinates": [-74.121192, 40.708942]}, "properties": {"id": "10B-E02-C211", "name": "2.11", "stream_mile": null}}, {"type": "Feature", "geometry": {"type": "Point", "coordinates": [-74.119696, 40.700702]}, "properties": {"id": "10B-E02-C212", "name": "2.12", "stream_mile": null}}, {"type": "Feature", "geometry": {"type": "Point", "coordinates": [-74.124734, 40.691648]}, "properties": {"id": "10B-E02-C213", "name": "2.13", "stream_mile": null}}, {"type": "Feature", "geometry": {"type": "Point", "coordinates": [-74.130338, 40.683883]}, "properties": {"id": "10B-E02-C214", "name": "2.14", "stream_mile": null}}, {"type": "Feature", "geometry": {"type": "Point", "coordinates": [-74.133708, 40.674745]}, "properties": {"id": "10B-E02-C215", "name": "2.15", "stream_mile": null}}, {"type": "Feature", "geometry": {"type": "Point", "coordinates": [-74.141504, 40.661751]}, "properties": {"id": "10B-E02-C216", "name": "2.16", "stream_mile": null}}, {"type": "Feature", "geometry": {"type": "Point", "coordinates": [-74.148849, 40.649439]}, "properties": {"id": "10B-E02-C217", "name": "2.17", "stream_mile": null}}, {"type": "Feature", "geometry": {"type": "Point", "coordinates": [-74.120376, 40.697465]}, "properties": {"id": "10B-E03-C301", "name": "3.01", "stream_mile": null}}, {"type": "Feature", "geometry": {"type": "Point", "coordinates": [-74.119647, 40.706433]}, "properties": {"id": "10B-E03-C302", "name": "3.02", "stream_mile": null}}, {"type": "Feature", "geometry": {"type": "Point", "coordinates": [-74.122537, 40.711736]}, "properties": {"id": "10B-E03-C303", "name": "3.03", "stream_mile": null}}, {"type": "Feature", "geometry": {"type": "Point", "coordinates": [-74.122316, 40.71584]}, "properties": {"id": "10B-E03-C304", "name": "3.04", "stream_mile": null}}, {"type": "Feature", "geometry": {"type": "Point", "coordinates": [-74.121997, 40.719827]}, "properties": {"id": "10B-E03-C305", "name": "3.05", "stream_mile": null}}, {"type": "Feature", "geometry": {"type": "Point", "coordinates": [-74.1191, 40.727964]}, "properties": {"id": "10B-E03-C306", "name": "3.06", "stream_mile": null}}, {"type": "Feature", "geometry": {"type": "Point", "coordinates": [-74.117499, 40.734806]}, "properties": {"id": "10B-E03-C307", "name": "3.07", "stream_mile": null}}, {"type": "Feature", "geometry": {"type": "Point", "coordinates": [-74.125646, 40.742575]}, "properties": {"id": "10B-E03-C308", "name": "3.08", "stream_mile": null}}, {"type": "Feature", "geometry": {"type": "Point", "coordinates": [-74.135892, 40.741916]}, "properties": {"id": "10B-E03-C309", "name": "3.09", "stream_mile": null}}, {"type": "Feature", "geometry": {"type": "Point", "coordinates": [-74.144069, 40.736704]}, "properties": {"id": "10B-E03-C310", "name": "3.10", "stream_mile": null}}, {"type": "Feature", "geometry": {"type": "Point", "coordinates": [-74.153705, 40.733818]}, "properties": {"id": "10B-E03-C311", "name": "3.11", "stream_mile": null}}, {"type": "Feature", "geometry": {"type": "Point", "coordinates": [-74.16336, 40.73805]}, "properties": {"id": "10B-E03-C312", "name": "3.12", "stream_mile": null}}, {"type": "Feature", "geometry": {"type": "Point", "coordinates": [-74.184032, 40.64681]}, "properties": {"id": "N01-E01-TARK-P1", "name": "N01-TARK-P1", "stream_mile": null}}, {"type": "Feature", "geometry": {"type": "Point", "coordinates": [-74.128574, 40.644227]}, "properties": {"id": "N01-E01-TKVK-P1", "name": "N01-TKVK-P1", "stream_mile": null}}, {"type": "Feature", "geometry": {"type": "Point", "coordinates": [-74.147665, 40.655394]}, "properties": {"id": "N01-E01-TNBS-P1", "name": "N01-TNBS-P1", "stream_mile": null}}, {"type": "Feature", "geometry": {"type": "Point", "coordinates": [-74.124561, 40.693099]}, "properties": {"id": "N01-E01-TNBN-P1", "name": "N01-TNBN-P1", "stream_mile": null}}, {"type": "Feature", "geometry": {"type": "Point", "coordinates": [-74.090924, 40.73831]}, "properties": {"id": "N01-E01-THKN-P1", "name": "N01-THKN-P1", "stream_mile": null}}, {"type": "Feature", "geometry": {"type": "Point", "coordinates": [-74.153084, 40.733503]}, "properties": {"id": "10A-E01-T042-P1", "name": "10A-T042-P1", "stream_mile": null}}, {"type": "Feature", "geometry": {"type": "Point", "coordinates": [-74.118034, 40.730467]}, "properties": {"id": "10A-E01-T014-P3", "name": "10A-T014-P3", "stream_mile": null}}, {"type": "Feature", "geometry": {"type": "Point", "coordinates": [-74.138793, 40.808791]}, "properties": {"id": "10A-E01-T102-P1", "name": "10A-T102-P1", "stream_mile": null}}, {"type": "Feature", "geometry": {"type": "Point", "coordinates": [-74.160656, 40.762494]}, "properties": {"id": "10A-E01-T067-P3", "name": "10A-T067-P3", "stream_mile": null}}, {"type": "Feature", "geometry": {"type": "Point", "coordinates": [-74.130015, 40.884515]}, "properties": {"id": "10A-E02-T175-P1", "name": "10A-T175-P1", "stream_mile": null}}, {"type": "Feature", "geometry": {"type": "Point", "coordinates": [-74.129727, 40.885004]}, "properties": {"id": "10A-E02-T175-P2", "name": "10A-T175-P2", "stream_mile": null}}, {"type": "Feature", "geometry": {"type": "Point", "coordinates": [-74.12929, 40.885463]}, "properties": {"id": "10A-E02-T175-P3", "name": "10A-T175-P3", "stream_mile": null}}, {"type": "Feature", "geometry": {"type": "Point", "coordinates": [-74.129148, 40.885598]}, "properties": {"id": "10A-E02-T175-P4", "name": "10A-T175-P4", "stream_mile": null}}, {"type": "Feature", "geometry": {"type": "Point", "coordinates": [-74.120118, 40.848671]}, "properties": {"id": "10A-E01-T135-P3", "name": "10A-T135-P3", "stream_mile": null}}, {"type": "Feature", "geometry": {"type": "Point", "coordinates": [-74.124589, 40.693113]}, "properties": {"id": "N01-E04-TNBN-P1", "name": "N01-TNBN-P1", "stream_mile": null}}, {"type": "Feature", "geometry": {"type": "Point", "coordinates": [-74.120604, 40.848823]}, "properties": {"id": "10A-E04-T135-P1", "name": "10A-T135-P1", "stream_mile": null}}, {"type": "Feature", "geometry": {"type": "Point", "coordinates": [-74.090645, 40.737885]}, "properties": {"id": "N01-E04-THKN-P2", "name": "N01-THKN-P2", "stream_mile": null}}, {"type": "Feature", "geometry": {"type": "Point", "coordinates": [-74.120865, 40.691709]}, "properties": {"id": "N01-E04-TNBN-P2", "name": "N01-TNBN-P2", "stream_mile": null}}, {"type": "Feature", "geometry": {"type": "Point", "coordinates": [-74.12035, 40.84879]}, "properties": {"id": "10A-E04-T135-P2", "name": "10A-T135-P2", "stream_mile": null}}, {"type": "Feature", "geometry": {"type": "Point", "coordinates": [-74.090165, 40.737389]}, "properties": {"id": "N01-E04-THKN-P3", "name": "N01-THKN-P3", "stream_mile": null}}, {"type": "Feature", "geometry": {"type": "Point", "coordinates": [-74.1172, 40.690427]}, "properties": {"id": "N01-E04-TNBN-P3", "name": "N01-TNBN-P3", "stream_mile": null}}, {"type": "Feature", "geometry": {"type": "Point", "coordinates": [-74.120208, 40.848673]}, "properties": {"id": "10A-E04-T135-P3", "name": "10A-T135-P3", "stream_mile": null}}, {"type": "Feature", "geometry": {"type": "Point", "coordinates": [-74.147692, 40.655447]}, "properties": {"id": "N01-E04-TNBS-P1", "name": "N01-TNBS-P1", "stream_mile": null}}, {"type": "Feature", "geometry": {"type": "Point", "coordinates": [-74.118732, 40.73062]}, "properties": {"id": "10A-E04-T014-P1", "name": "10A-T014-P1", "stream_mile": null}}, {"type": "Feature", "geometry": {"type": "Point", "coordinates": [-74.13888, 40.80879]}, "properties": {"id": "10A-E04-T102-P1", "name": "10A-T102-P1", "stream_mile": null}}, {"type": "Feature", "geometry": {"type": "Point", "coordinates": [-74.14572, 40.654694]}, "properties": {"id": "N01-E04-TNBS-P2", "name": "N01-TNBS-P2", "stream_mile": null}}, {"type": "Feature", "geometry": {"type": "Point", "coordinates": [-74.118329, 40.730543]}, "properties": {"id": "10A-E04-T014-P2", "name": "10A-T014-P2", "stream_mile": null}}, {"type": "Feature", "geometry": {"type": "Point", "coordinates": [-74.138625, 40.808747]}, "properties": {"id": "10A-E04-T102-P3", "name": "10A-T102-P3", "stream_mile": null}}, {"type": "Feature", "geometry": {"type": "Point", "coordinates": [-74.143583, 40.654048]}, "properties": {"id": "N01-E04-TNBS-P3", "name": "N01-TNBS-P3", "stream_mile": null}}, {"type": "Feature", "geometry": {"type": "Point", "coordinates": [-74.138666, 40.808734]}, "properties": {"id": "10A-E04-T102-P2", "name": "10A-T102-P2", "stream_mile": null}}, {"type": "Feature", "geometry": {"type": "Point", "coordinates": [-74.118006, 40.73049]}, "properties": {"id": "10A-E04-T014-P3", "name": "10A-T014-P3", "stream_mile": null}}, {"type": "Feature", "geometry": {"type": "Point", "coordinates": [-74.12865, 40.644163]}, "properties": {"id": "N01-E04-TKVK-P1", "name": "N01-TKVK-P1", "stream_mile": null}}, {"type": "Feature", "geometry": {"type": "Point", "coordinates": [-74.153062, 40.733548]}, "properties": {"id": "10A-E04-T042-P1", "name": "10A-T042-P1", "stream_mile": null}}, {"type": "Feature", "geometry": {"type": "Point", "coordinates": [-74.153171, 40.733794]}, "properties": {"id": "10A-E04-T042-P2", "name": "10A-T042-P2", "stream_mile": null}}, {"type": "Feature", "geometry": {"type": "Point", "coordinates": [-74.128723, 40.643039]}, "properties": {"id": "N01-E04-TKVK-P2", "name": "N01-TKVK-P2", "stream_mile": null}}, {"type": "Feature", "geometry": {"type": "Point", "coordinates": [-74.153224, 40.733909]}, "properties": {"id": "10A-E04-T042-P3", "name": "10A-T042-P3", "stream_mile": null}}, {"type": "Feature", "geometry": {"type": "Point", "coordinates": [-74.160952, 40.76272]}, "properties": {"id": "10A-E04-T067-P1", "name": "10A-T067-P1", "stream_mile": null}}, {"type": "Feature", "geometry": {"type": "Point", "coordinates": [-74.12869, 40.642095]}, "properties": {"id": "N01-E04-TKVK-P3", "name": "N01-TKVK-P3", "stream_mile": null}}, {"type": "Feature", "geometry": {"type": "Point", "coordinates": [-74.160769, 40.762546]}, "properties": {"id": "10A-E04-T067-P2", "name": "10A-T067-P2", "stream_mile": null}}, {"type": "Feature", "geometry": {"type": "Point", "coordinates": [-74.160551, 40.762399]}, "properties": {"id": "10A-E04-T067-P3", "name": "10A-T067-P3", "stream_mile": null}}, {"type": "Feature", "geometry": {"type": "Point", "coordinates": [-74.184093, 40.646811]}, "properties": {"id": "N01-E04-TARK-P1", "name": "N01-TARK-P1", "stream_mile": null}}, {"type": "Feature", "geometry": {"type": "Point", "coordinates": [-74.183733, 40.645844]}, "properties": {"id": "N01-E04-TARK-P2", "name": "N01-TARK-P2", "stream_mile": null}}, {"type": "Feature", "geometry": {"type": "Point", "coordinates": [-74.183505, 40.645116]}, "properties": {"id": "N01-E04-TARK-P3", "name": "N01-TARK-P3", "stream_mile": null}}, {"type": "Feature", "geometry": {"type": "Point", "coordinates": [-74.090936, 40.738404]}, "properties": {"id": "N01-E03-THKN-P1", "name": "N01-THKN-P1", "stream_mile": null}}, {"type": "Feature", "geometry": {"type": "Point", "coordinates": [-74.124623, 40.693134]}, "properties": {"id": "N01-E03-TNBN-P1", "name": "N01-TNBN-P1", "stream_mile": null}}, {"type": "Feature", "geometry": {"type": "Point", "coordinates": [-74.090603, 40.737964]}, "properties": {"id": "N01-E03-THKN-P2", "name": "N01-THKN-P2", "stream_mile": null}}, {"type": "Feature", "geometry": {"type": "Point", "coordinates": [-74.120145, 40.848706]}, "properties": {"id": "10A-E03-T135-P3", "name": "10A-T135-P3", "stream_mile": null}}, {"type": "Feature", "geometry": {"type": "Point", "coordinates": [-74.090249, 40.737385]}, "properties": {"id": "N01-E03-THKN-P3", "name": "N01-THKN-P3", "stream_mile": null}}, {"type": "Feature", "geometry": {"type": "Point", "coordinates": [-74.12096, 40.69179]}, "properties": {"id": "N01-E03-TNBN-P2", "name": "N01-TNBN-P2", "stream_mile": null}}, {"type": "Feature", "geometry": {"type": "Point", "coordinates": [-74.120381, 40.848728]}, "properties": {"id": "10A-E03-T135-P2", "name": "10A-T135-P2", "stream_mile": null}}, {"type": "Feature", "geometry": {"type": "Point", "coordinates": [-74.11714, 40.690459]}, "properties": {"id": "N01-E03-TNBN-P3", "name": "N01-TNBN-P3", "stream_mile": null}}, {"type": "Feature", "geometry": {"type": "Point", "coordinates": [-74.120634, 40.848766]}, "properties": {"id": "10A-E03-T135-P1", "name": "10A-T135-P1", "stream_mile": null}}, {"type": "Feature", "geometry": {"type": "Point", "coordinates": [-74.118645, 40.730687]}, "properties": {"id": "10A-E03-T014-P1", "name": "10A-T014-P1", "stream_mile": null}}, {"type": "Feature", "geometry": {"type": "Point", "coordinates": [-74.138791, 40.808848]}, "properties": {"id": "10A-E03-T102-P1", "name": "10A-T102-P1", "stream_mile": null}}, {"type": "Feature", "geometry": {"type": "Point", "coordinates": [-74.147603, 40.655446]}, "properties": {"id": "N01-E03-TNBS-P1", "name": "N01-TNBS-P1", "stream_mile": null}}, {"type": "Feature", "geometry": {"type": "Point", "coordinates": [-74.11826, 40.730466]}, "properties": {"id": "10A-E03-T014-P2", "name": "10A-T014-P2", "stream_mile": null}}, {"type": "Feature", "geometry": {"type": "Point", "coordinates": [-74.138593, 40.808799]}, "properties": {"id": "10A-E03-T102-P2", "name": "10A-T102-P2", "stream_mile": null}}, {"type": "Feature", "geometry": {"type": "Point", "coordinates": [-74.117987, 40.730372]}, "properties": {"id": "10A-E03-T014-P3", "name": "10A-T014-P3", "stream_mile": null}}, {"type": "Feature", "geometry": {"type": "Point", "coordinates": [-74.145607, 40.654642]}, "properties": {"id": "N01-E03-TNBS-P2", "name": "N01-TNBS-P2", "stream_mile": null}}, {"type": "Feature", "geometry": {"type": "Point", "coordinates": [-74.138488, 40.808744]}, "properties": {"id": "10A-E03-T102-P3", "name": "10A-T102-P3", "stream_mile": null}}, {"type": "Feature", "geometry": {"type": "Point", "coordinates": [-74.143625, 40.653991]}, "properties": {"id": "N01-E03-TNBS-P3", "name": "N01-TNBS-P3", "stream_mile": null}}, {"type": "Feature", "geometry": {"type": "Point", "coordinates": [-74.153147, 40.733507]}, "properties": {"id": "10A-E03-T042-P1", "name": "10A-T042-P1", "stream_mile": null}}, {"type": "Feature", "geometry": {"type": "Point", "coordinates": [-74.153148, 40.733782]}, "properties": {"id": "10A-E03-T042-P2", "name": "10A-T042-P2", "stream_mile": null}}, {"type": "Feature", "geometry": {"type": "Point", "coordinates": [-74.12868, 40.644248]}, "properties": {"id": "N01-E03-TKVK-P1", "name": "N01-TKVK-P1", "stream_mile": null}}, {"type": "Feature", "geometry": {"type": "Point", "coordinates": [-74.153128, 40.733877]}, "properties": {"id": "10A-E03-T042-P3", "name": "10A-T042-P3", "stream_mile": null}}, {"type": "Feature", "geometry": {"type": "Point", "coordinates": [-74.161068, 40.762652]}, "properties": {"id": "10A-E03-T067-P1", "name": "10A-T067-P1", "stream_mile": null}}, {"type": "Feature", "geometry": {"type": "Point", "coordinates": [-74.128614, 40.643068]}, "properties": {"id": "N01-E03-TKVK-P2", "name": "N01-TKVK-P2", "stream_mile": null}}, {"type": "Feature", "geometry": {"type": "Point", "coordinates": [-74.128728, 40.64209]}, "properties": {"id": "N01-E03-TKVK-P3", "name": "N01-TKVK-P3", "stream_mile": null}}, {"type": "Feature", "geometry": {"type": "Point", "coordinates": [-74.160842, 40.762643]}, "properties": {"id": "10A-E03-T067-P2", "name": "10A-T067-P2", "stream_mile": null}}, {"type": "Feature", "geometry": {"type": "Point", "coordinates": [-74.160614, 40.762471]}, "properties": {"id": "10A-E03-T067-P3", "name": "10A-T067-P3", "stream_mile": null}}, {"type": "Feature", "geometry": {"type": "Point", "coordinates": [-74.184127, 40.646733]}, "properties": {"id": "N01-E03-TARK-P1", "name": "N01-TARK-P1", "stream_mile": null}}, {"type": "Feature", "geometry": {"type": "Point", "coordinates": [-74.183839, 40.645839]}, "properties": {"id": "N01-E03-TARK-P2", "name": "N01-TARK-P2", "stream_mile": null}}, {"type": "Feature", "geometry": {"type": "Point", "coordinates": [-74.183552, 40.645154]}, "properties": {"id": "N01-E03-TARK-P3", "name": "N01-TARK-P3", "stream_mile": null}}, {"type": "Feature", "geometry": {"type": "Point", "coordinates": [-74.090995, 40.738341]}, "properties": {"id": "N01-E04-THKN-P1", "name": "N01-THKN-P1", "stream_mile": null}}, {"type": "Feature", "geometry": {"type": "Point", "coordinates": [-74.124589, 40.69314]}, "properties": {"id": "N01-E09-TNBN-P1", "name": "N01-TNBN-P1", "stream_mile": null}}, {"type": "Feature", "geometry": {"type": "Point", "coordinates": [-74.124486, 40.693128]}, "properties": {"id": "N01-E05-TNBN-P1", "name": "N01-TNBN-P1", "stream_mile": null}}, {"type": "Feature", "geometry": {"type": "Point", "coordinates": [-74.090914, 40.738263]}, "properties": {"id": "N01-E09-THKN-P1", "name": "N01-THKN-P1", "stream_mile": null}}, {"type": "Feature", "geometry": {"type": "Point", "coordinates": [-74.184003, 40.646677]}, "properties": {"id": "N01-E05-TARK-P1", "name": "N01-TARK-P1", "stream_mile": null}}, {"type": "Feature", "geometry": {"type": "Point", "coordinates": [-74.184047, 40.646722]}, "properties": {"id": "N01-E09-TARK-P1", "name": "N01-TARK-P1", "stream_mile": null}}, {"type": "Feature", "geometry": {"type": "Point", "coordinates": [-74.090918, 40.738296]}, "properties": {"id": "N01-E05-THKN-P1", "name": "N01-THKN-P1", "stream_mile": null}}, {"type": "Feature", "geometry": {"type": "Point", "coordinates": [-74.147631, 40.655497]}, "properties": {"id": "N01-E09-TNBS-P1", "name": "N01-TNBS-P1", "stream_mile": null}}, {"type": "Feature", "geometry": {"type": "Point", "coordinates": [-74.128698, 40.644269]}, "properties": {"id": "N01-E05-TKVK-P1", "name": "N01-TKVK-P1", "stream_mile": null}}, {"type": "Feature", "geometry": {"type": "Point", "coordinates": [-74.128706, 40.644213]}, "properties": {"id": "N01-E09-TKVK-P1", "name": "N01-TKVK-P1", "stream_mile": null}}, {"type": "Feature", "geometry": {"type": "Point", "coordinates": [-74.147613, 40.655446]}, "properties": {"id": "N01-E05-TNBS-P1", "name": "N01-TNBS-P1", "stream_mile": null}}, {"type": "Feature", "geometry": {"type": "Point", "coordinates": [-74.138848, 40.808744]}, "properties": {"id": "10A-E09-T102-P1", "name": "10A-T102-P1", "stream_mile": null}}, {"type": "Feature", "geometry": {"type": "Point", "coordinates": [-74.160562, 40.762384]}, "properties": {"id": "10A-E05-T067-P3", "name": "10A-T067-P3", "stream_mile": null}}, {"type": "Feature", "geometry": {"type": "Point", "coordinates": [-74.160631, 40.762512]}, "properties": {"id": "10A-E09-T067-P3", "name": "10A-T067-P3", "stream_mile": null}}, {"type": "Feature", "geometry": {"type": "Point", "coordinates": [-74.120198, 40.848705]}, "properties": {"id": "10A-E05-T135-P3", "name": "10A-T135-P3", "stream_mile": null}}, {"type": "Feature", "geometry": {"type": "Point", "coordinates": [-74.120153, 40.848722]}, "properties": {"id": "10A-E09-T135-P3", "name": "10A-T135-P3", "stream_mile": null}}, {"type": "Feature", "geometry": {"type": "Point", "coordinates": [-74.138761, 40.808721]}, "properties": {"id": "10A-E05-T102-P1", "name": "10A-T102-P1", "stream_mile": null}}, {"type": "Feature", "geometry": {"type": "Point", "coordinates": [-74.15322, 40.733506]}, "properties": {"id": "10A-E09-T042-P1", "name": "10A-T042-P1", "stream_mile": null}}, {"type": "Feature", "geometry": {"type": "Point", "coordinates": [-74.118045, 40.730412]}, "properties": {"id": "10A-E05-T014-P3", "name": "10A-T014-P3", "stream_mile": null}}, {"type": "Feature", "geometry": {"type": "Point", "coordinates": [-74.118011, 40.730438]}, "properties": {"id": "10A-E09-T014-P3", "name": "10A-T014-P3", "stream_mile": null}}, {"type": "Feature", "geometry": {"type": "Point", "coordinates": [-74.153088, 40.733593]}, "properties": {"id": "10A-E05-T042-P1", "name": "10A-T042-P1", "stream_mile": null}}, {"type": "Feature", "geometry": {"type": "Point", "coordinates": [-74.120684, 40.848787]}, "properties": {"id": "10A-E08-T135-P1", "name": "10A-T135-P1", "stream_mile": null}}, {"type": "Feature", "geometry": {"type": "Point", "coordinates": [-74.124517, 40.693127]}, "properties": {"id": "N01-E08-TNBN-P1", "name": "N01-TNBN-P1", "stream_mile": null}}, {"type": "Feature", "geometry": {"type": "Point", "coordinates": [-74.120396, 40.848774]}, "properties": {"id": "10A-E08-T135-P2", "name": "10A-T135-P2", "stream_mile": null}}, {"type": "Feature", "geometry": {"type": "Point", "coordinates": [-74.120135, 40.848654]}, "properties": {"id": "10A-E08-T135-P3", "name": "10A-T135-P3", "stream_mile": null}}, {"type": "Feature", "geometry": {"type": "Point", "coordinates": [-74.120878, 40.691666]}, "properties": {"id": "N01-E08-TNBN-P2", "name": "N01-TNBN-P2", "stream_mile": null}}, {"type": "Feature", "geometry": {"type": "Point", "coordinates": [-74.090965, 40.738412]}, "properties": {"id": "N01-E08-THKN-P1", "name": "N01-THKN-P1", "stream_mile": null}}, {"type": "Feature", "geometry": {"type": "Point", "coordinates": [-74.117114, 40.690436]}, "properties": {"id": "N01-E08-TNBN-P3", "name": "N01-TNBN-P3", "stream_mile": null}}, {"type": "Feature", "geometry": {"type": "Point", "coordinates": [-74.090634, 40.737912]}, "properties": {"id": "N01-E08-THKN-P2", "name": "N01-THKN-P2", "stream_mile": null}}, {"type": "Feature", "geometry": {"type": "Point", "coordinates": [-74.138783, 40.808761]}, "properties": {"id": "10A-E08-T102-P1", "name": "10A-T102-P1", "stream_mile": null}}, {"type": "Feature", "geometry": {"type": "Point", "coordinates": [-74.138687, 40.808815]}, "properties": {"id": "10A-E08-T102-P2", "name": "10A-T102-P2", "stream_mile": null}}, {"type": "Feature", "geometry": {"type": "Point", "coordinates": [-74.090209, 40.737486]}, "properties": {"id": "N01-E08-THKN-P3", "name": "N01-THKN-P3", "stream_mile": null}}, {"type": "Feature", "geometry": {"type": "Point", "coordinates": [-74.147638, 40.655439]}, "properties": {"id": "N01-E08-TNBS-P1", "name": "N01-TNBS-P1", "stream_mile": null}}, {"type": "Feature", "geometry": {"type": "Point", "coordinates": [-74.138484, 40.808863]}, "properties": {"id": "10A-E08-T102-P3", "name": "10A-T102-P3", "stream_mile": null}}, {"type": "Feature", "geometry": {"type": "Point", "coordinates": [-74.145699, 40.654711]}, "properties": {"id": "N01-E08-TNBS-P2", "name": "N01-TNBS-P2", "stream_mile": null}}, {"type": "Feature", "geometry": {"type": "Point", "coordinates": [-74.14361, 40.653961]}, "properties": {"id": "N01-E08-TNBS-P3", "name": "N01-TNBS-P3", "stream_mile": null}}, {"type": "Feature", "geometry": {"type": "Point", "coordinates": [-74.118675, 40.730642]}, "properties": {"id": "10A-E08-T014-P1", "name": "10A-T014-P1", "stream_mile": null}}, {"type": "Feature", "geometry": {"type": "Point", "coordinates": [-74.161002, 40.762752]}, "properties": {"id": "10A-E08-T067-P1", "name": "10A-T067-P1", "stream_mile": null}}, {"type": "Feature", "geometry": {"type": "Point", "coordinates": [-74.118229, 40.730524]}, "properties": {"id": "10A-E08-T014-P2", "name": "10A-T014-P2", "stream_mile": null}}, {"type": "Feature", "geometry": {"type": "Point", "coordinates": [-74.118054, 40.730327]}, "properties": {"id": "10A-E08-T014-P3", "name": "10A-T014-P3", "stream_mile": null}}, {"type": "Feature", "geometry": {"type": "Point", "coordinates": [-74.128705, 40.644287]}, "properties": {"id": "N01-E08-TKVK-P1", "name": "N01-TKVK-P1", "stream_mile": null}}, {"type": "Feature", "geometry": {"type": "Point", "coordinates": [-74.160877, 40.762633]}, "properties": {"id": "10A-E08-T067-P2", "name": "10A-T067-P2", "stream_mile": null}}, {"type": "Feature", "geometry": {"type": "Point", "coordinates": [-74.160595, 40.762473]}, "properties": {"id": "10A-E08-T067-P3", "name": "10A-T067-P3", "stream_mile": null}}, {"type": "Feature", "geometry": {"type": "Point", "coordinates": [-74.128611, 40.643046]}, "properties": {"id": "N01-E08-TKVK-P2", "name": "N01-TKVK-P2", "stream_mile": null}}, {"type": "Feature", "geometry": {"type": "Point", "coordinates": [-74.153137, 40.733467]}, "properties": {"id": "10A-E08-T042-P1", "name": "10A-T042-P1", "stream_mile": null}}, {"type": "Feature", "geometry": {"type": "Point", "coordinates": [-74.15322, 40.733697]}, "properties": {"id": "10A-E08-T042-P2", "name": "10A-T042-P2", "stream_mile": null}}, {"type": "Feature", "geometry": {"type": "Point", "coordinates": [-74.128721, 40.64205]}, "properties": {"id": "N01-E08-TKVK-P3", "name": "N01-TKVK-P3", "stream_mile": null}}, {"type": "Feature", "geometry": {"type": "Point", "coordinates": [-74.153207, 40.733978]}, "properties": {"id": "10A-E08-T042-P3", "name": "10A-T042-P3", "stream_mile": null}}, {"type": "Feature", "geometry": {"type": "Point", "coordinates": [-74.18403, 40.646731]}, "properties": {"id": "N01-E08-TARK-P1", "name": "N01-TARK-P1", "stream_mile": null}}, {"type": "Feature", "geometry": {"type": "Point", "coordinates": [-74.183815, 40.645898]}, "properties": {"id": "N01-E08-TARK-P2", "name": "N01-TARK-P2", "stream_mile": null}}, {"type": "Feature", "geometry": {"type": "Point", "coordinates": [-74.183417, 40.645076]}, "properties": {"id": "N01-E08-TARK-P3", "name": "N01-TARK-P3", "stream_mile": null}}, {"type": "Feature", "geometry": {"type": "Point", "coordinates": [-74.120531, 40.848779]}, "properties": {"id": "10A-E07-T135-P1", "name": "10A-T135-P1", "stream_mile": null}}, {"type": "Feature", "geometry": {"type": "Point", "coordinates": [-74.120391, 40.848657]}, "properties": {"id": "10A-E07-T135-P2", "name": "10A-T135-P2", "stream_mile": null}}, {"type": "Feature", "geometry": {"type": "Point", "coordinates": [-74.120165, 40.848606]}, "properties": {"id": "10A-E07-T135-P3", "name": "10A-T135-P3", "stream_mile": null}}, {"type": "Feature", "geometry": {"type": "Point", "coordinates": [-74.124618, 40.69306]}, "properties": {"id": "N01-E07-TNBN-P1", "name": "N01-TNBN-P1", "stream_mile": null}}, {"type": "Feature", "geometry": {"type": "Point", "coordinates": [-74.118731, 40.730572]}, "properties": {"id": "10A-E07-T014-P1", "name": "10A-T014-P1", "stream_mile": null}}, {"type": "Feature", "geometry": {"type": "Point", "coordinates": [-74.090918, 40.738336]}, "properties": {"id": "N01-E07-THKN-P1", "name": "N01-THKN-P1", "stream_mile": null}}, {"type": "Feature", "geometry": {"type": "Point", "coordinates": [-74.118237, 40.730424]}, "properties": {"id": "10A-E07-T014-P2", "name": "10A-T014-P2", "stream_mile": null}}, {"type": "Feature", "geometry": {"type": "Point", "coordinates": [-74.138758, 40.808752]}, "properties": {"id": "10A-E07-T102-P1", "name": "10A-T102-P1", "stream_mile": null}}, {"type": "Feature", "geometry": {"type": "Point", "coordinates": [-74.117997, 40.730455]}, "properties": {"id": "10A-E07-T014-P3", "name": "10A-T014-P3", "stream_mile": null}}, {"type": "Feature", "geometry": {"type": "Point", "coordinates": [-74.090655, 40.737925]}, "properties": {"id": "N01-E07-THKN-P2", "name": "N01-THKN-P2", "stream_mile": null}}, {"type": "Feature", "geometry": {"type": "Point", "coordinates": [-74.138585, 40.808717]}, "properties": {"id": "10A-E07-T102-P2", "name": "10A-T102-P2", "stream_mile": null}}, {"type": "Feature", "geometry": {"type": "Point", "coordinates": [-74.12094, 40.69175]}, "properties": {"id": "N01-E07-TNBN-P2", "name": "N01-TNBN-P2", "stream_mile": null}}, {"type": "Feature", "geometry": {"type": "Point", "coordinates": [-74.090206, 40.737333]}, "properties": {"id": "N01-E07-THKN-P3", "name": "N01-THKN-P3", "stream_mile": null}}, {"type": "Feature", "geometry": {"type": "Point", "coordinates": [-74.138493, 40.808741]}, "properties": {"id": "10A-E07-T102-P3", "name": "10A-T102-P3", "stream_mile": null}}, {"type": "Feature", "geometry": {"type": "Point", "coordinates": [-74.117162, 40.690337]}, "properties": {"id": "N01-E07-TNBN-P3", "name": "N01-TNBN-P3", "stream_mile": null}}, {"type": "Feature", "geometry": {"type": "Point", "coordinates": [-74.153174, 40.733572]}, "properties": {"id": "10A-E07-T042-P1", "name": "10A-T042-P1", "stream_mile": null}}, {"type": "Feature", "geometry": {"type": "Point", "coordinates": [-74.153154, 40.733696]}, "properties": {"id": "10A-E07-T042-P2", "name": "10A-T042-P2", "stream_mile": null}}, {"type": "Feature", "geometry": {"type": "Point", "coordinates": [-74.153186, 40.733914]}, "properties": {"id": "10A-E07-T042-P3", "name": "10A-T042-P3", "stream_mile": null}}, {"type": "Feature", "geometry": {"type": "Point", "coordinates": [-74.161032, 40.762677]}, "properties": {"id": "10A-E07-T067-P1", "name": "10A-T067-P1", "stream_mile": null}}, {"type": "Feature", "geometry": {"type": "Point", "coordinates": [-74.147671, 40.655431]}, "properties": {"id": "N01-E07-TNBS-P1", "name": "N01-TNBS-P1", "stream_mile": null}}, {"type": "Feature", "geometry": {"type": "Point", "coordinates": [-74.160803, 40.762627]}, "properties": {"id": "10A-E07-T067-P2", "name": "10A-T067-P2", "stream_mile": null}}, {"type": "Feature", "geometry": {"type": "Point", "coordinates": [-74.160646, 40.762446]}, "properties": {"id": "10A-E07-T067-P3", "name": "10A-T067-P3", "stream_mile": null}}, {"type": "Feature", "geometry": {"type": "Point", "coordinates": [-74.143525, 40.653938]}, "properties": {"id": "N01-E07-TNBS-P3", "name": "N01-TNBS-P3", "stream_mile": null}}, {"type": "Feature", "geometry": {"type": "Point", "coordinates": [-74.14556, 40.654699]}, "properties": {"id": "N01-E07-TNBS-P2", "name": "N01-TNBS-P2", "stream_mile": null}}, {"type": "Feature", "geometry": {"type": "Point", "coordinates": [-74.12868, 40.644203]}, "properties": {"id": "N01-E07-TKVK-P1", "name": "N01-TKVK-P1", "stream_mile": null}}, {"type": "Feature", "geometry": {"type": "Point", "coordinates": [-74.128604, 40.643105]}, "properties": {"id": "N01-E07-TKVK-P2", "name": "N01-TKVK-P2", "stream_mile": null}}, {"type": "Feature", "geometry": {"type": "Point", "coordinates": [-74.128611, 40.642095]}, "properties": {"id": "N01-E07-TKVK-P3", "name": "N01-TKVK-P3", "stream_mile": null}}, {"type": "Feature", "geometry": {"type": "Point", "coordinates": [-74.183982, 40.646812]}, "properties": {"id": "N01-E07-TARK-P1", "name": "N01-TARK-P1", "stream_mile": null}}, {"type": "Feature", "geometry": {"type": "Point", "coordinates": [-74.183722, 40.645864]}, "properties": {"id": "N01-E07-TARK-P2", "name": "N01-TARK-P2", "stream_mile": null}}, {"type": "Feature", "geometry": {"type": "Point", "coordinates": [-74.183497, 40.645053]}, "properties": {"id": "N01-E07-TARK-P3", "name": "N01-TARK-P3", "stream_mile": null}}, {"type": "Feature", "geometry": {"type": "Point", "coordinates": [-74.129886, 40.884446]}, "properties": {"id": "10A-E06-T175-P1", "name": "10A-T175-P1", "stream_mile": null}}, {"type": "Feature", "geometry": {"type": "Point", "coordinates": [-74.129748, 40.884984]}, "properties": {"id": "10A-E06-T175-P2", "name": "10A-T175-P2", "stream_mile": null}}, {"type": "Feature", "geometry": {"type": "Point", "coordinates": [-74.129331, 40.885346]}, "properties": {"id": "10A-E06-T175-P3", "name": "10A-T175-P3", "stream_mile": null}}, {"type": "Feature", "geometry": {"type": "Point", "coordinates": [-74.129075, 40.885589]}, "properties": {"id": "10A-E06-T175-P4", "name": "10A-T175-P4", "stream_mile": null}}, {"type": "Feature", "geometry": {"type": "Point", "coordinates": [-74.129804, 40.884985]}, "properties": {"id": "10A-E05-T175-P2", "name": "10A-T175-P2", "stream_mile": null}}, {"type": "Feature", "geometry": {"type": "Point", "coordinates": [-74.132988, 40.825942]}, "properties": {"id": "10C-T3R1-P1", "name": "Third River Road", "stream_mile": null}}, {"type": "Feature", "geometry": {"type": "Point", "coordinates": [-74.154439, 40.781233]}, "properties": {"id": "10C-T2R1-P1", "name": "Second River Washington Ave", "stream_mile": null}}, {"type": "Feature", "geometry": {"type": "Point", "coordinates": [-74.119757, 40.879685]}, "properties": {"id": "10C-T169-P2", "name": null, "stream_mile": null}}, {"type": "Feature", "geometry": {"type": "Point", "coordinates": [-74.119803, 40.879806]}, "properties": {"id": "10C-T169-P1", "name": "Ackerman Ave", "stream_mile": null}}, {"type": "Feature", "geometry": {"type": "Point", "coordinates": [-74.089067, 40.873571]}, "properties": {"id": "10C-TSR2-P1", "name": null, "stream_mile": null}}, {"type": "Feature", "geometry": {"type": "Point", "coordinates": [-74.138833, 40.808816]}, "properties": {"id": "10A-E14-T102-P1", "name": "10A-T102-P1", "stream_mile": null}}, {"type": "Feature", "geometry": {"type": "Point", "coordinates": [-74.160623, 40.762414]}, "properties": {"id": "10A-E10-T067-P3", "name": "10A-T067-P3", "stream_mile": null}}, {"type": "Feature", "geometry": {"type": "Point", "coordinates": [-74.16066, 40.762426]}, "properties": {"id": "10A-E14-T067-P3", "name": "10A-T067-P3", "stream_mile": null}}, {"type": "Feature", "geometry": {"type": "Point", "coordinates": [-74.120193, 40.848612]}, "properties": {"id": "10A-E10-T135-P3", "name": "10A-T135-P3", "stream_mile": null}}, {"type": "Feature", "geometry": {"type": "Point", "coordinates": [-74.120163, 40.848729]}, "properties": {"id": "10A-E14-T135-P3", "name": "10A-T135-P3", "stream_mile": null}}, {"type": "Feature", "geometry": {"type": "Point", "coordinates": [-74.138814, 40.808848]}, "properties": {"id": "10A-E10-T102-P1", "name": "10A-T102-P1", "stream_mile": null}}, {"type": "Feature", "geometry": {"type": "Point", "coordinates": [-74.118001, 40.730411]}, "properties": {"id": "10A-E10-T014-P3", "name": "10A-T014-P3", "stream_mile": null}}, {"type": "Feature", "geometry": {"type": "Point", "coordinates": [-74.117876, 40.730536]}, "properties": {"id": "10A-E14-T014-P3", "name": "10A-T014-P3", "stream_mile": null}}, {"type": "Feature", "geometry": {"type": "Point", "coordinates": [-74.153163, 40.733558]}, "properties": {"id": "10A-E10-T042-P1", "name": "10A-T042-P1", "stream_mile": null}}, {"type": "Feature", "geometry": {"type": "Point", "coordinates": [-74.153122, 40.733517]}, "properties": {"id": "10A-E14-T042-P1", "name": "10A-T042-P1", "stream_mile": null}}, {"type": "Feature", "geometry": {"type": "Point", "coordinates": [-74.147611, 40.655404]}, "properties": {"id": "N01-E14-TNBS-P1", "name": "N01-TNBS-P1", "stream_mile": null}}, {"type": "Feature", "geometry": {"type": "Point", "coordinates": [-74.184063, 40.646746]}, "properties": {"id": "N01-E10-TARK-P1", "name": "N01-TARK-P1", "stream_mile": null}}, {"type": "Feature", "geometry": {"type": "Point", "coordinates": [-74.18406, 40.646807]}, "properties": {"id": "N01-E14-TARK-P1", "name": "N01-TARK-P1", "stream_mile": null}}, {"type": "Feature", "geometry": {"type": "Point", "coordinates": [-74.14759, 40.655407]}, "properties": {"id": "N01-E10-TNBS-P1", "name": "N01-TNBS-P1", "stream_mile": null}}, {"type": "Feature", "geometry": {"type": "Point", "coordinates": [-74.124502, 40.693134]}, "properties": {"id": "N01-E14-TNBN-P1", "name": "N01-TNBN-P1", "stream_mile": null}}, {"type": "Feature", "geometry": {"type": "Point", "coordinates": [-74.128697, 40.644201]}, "properties": {"id": "N01-E10-TKVK-P1", "name": "N01-TKVK-P1", "stream_mile": null}}, {"type": "Feature", "geometry": {"type": "Point", "coordinates": [-74.128608, 40.644222]}, "properties": {"id": "N01-E14-TKVK-P1", "name": "N01-TKVK-P1", "stream_mile": null}}, {"type": "Feature", "geometry": {"type": "Point", "coordinates": [-74.124598, 40.693033]}, "properties": {"id": "N01-E10-TNBN-P1", "name": "N01-TNBN-P1", "stream_mile": null}}, {"type": "Feature", "geometry": {"type": "Point", "coordinates": [-74.090879, 40.738264]}, "properties": {"id": "N01-E10-THKN-P1", "name": "N01-THKN-P1", "stream_mile": null}}, {"type": "Feature", "geometry": {"type": "Point", "coordinates": [-74.090961, 40.738318]}, "properties": {"id": "N01-E14-THKN-P1", "name": "N01-THKN-P1", "stream_mile": null}}, {"type": "Feature", "geometry": {"type": "Point", "coordinates": [-74.124572, 40.693065]}, "properties": {"id": "N01-E13-TNBN-P1", "name": "N01-TNBN-P1", "stream_mile": null}}, {"type": "Feature", "geometry": {"type": "Point", "coordinates": [-74.120925, 40.691677]}, "properties": {"id": "N01-E13-TNBN-P2", "name": "N01-TNBN-P2", "stream_mile": null}}, {"type": "Feature", "geometry": {"type": "Point", "coordinates": [-74.117215, 40.690352]}, "properties": {"id": "N01-E13-TNBN-P3", "name": "N01-TNBN-P3", "stream_mile": null}}, {"type": "Feature", "geometry": {"type": "Point", "coordinates": [-74.12058, 40.848817]}, "properties": {"id": "10A-E12-T135-P1", "name": "10A-T135-P1", "stream_mile": null}}, {"type": "Feature", "geometry": {"type": "Point", "coordinates": [-74.120369, 40.848654]}, "properties": {"id": "10A-E12-T135-P2", "name": "10A-T135-P2", "stream_mile": null}}, {"type": "Feature", "geometry": {"type": "Point", "coordinates": [-74.091046, 40.738349]}, "properties": {"id": "N01-E13-THKN-P1", "name": "N01-THKN-P1", "stream_mile": null}}, {"type": "Feature", "geometry": {"type": "Point", "coordinates": [-74.120224, 40.848606]}, "properties": {"id": "10A-E12-T135-P3", "name": "10A-T135-P3", "stream_mile": null}}, {"type": "Feature", "geometry": {"type": "Point", "coordinates": [-74.090683, 40.737921]}, "properties": {"id": "N01-E13-THKN-P2", "name": "N01-THKN-P2", "stream_mile": null}}, {"type": "Feature", "geometry": {"type": "Point", "coordinates": [-74.090209, 40.73745]}, "properties": {"id": "N01-E13-THKN-P3", "name": "N01-THKN-P3", "stream_mile": null}}, {"type": "Feature", "geometry": {"type": "Point", "coordinates": [-74.147591, 40.655418]}, "properties": {"id": "N01-E13-TNBS-P1", "name": "N01-TNBS-P1", "stream_mile": null}}, {"type": "Feature", "geometry": {"type": "Point", "coordinates": [-74.145667, 40.65476]}, "properties": {"id": "N01-E13-TNBS-P2", "name": "N01-TNBS-P2", "stream_mile": null}}, {"type": "Feature", "geometry": {"type": "Point", "coordinates": [-74.143541, 40.653969]}, "properties": {"id": "N01-E13-TNBS-P3", "name": "N01-TNBS-P3", "stream_mile": null}}, {"type": "Feature", "geometry": {"type": "Point", "coordinates": [-74.138847, 40.808803]}, "properties": {"id": "10A-E12-T102-P1", "name": "10A-T102-P1", "stream_mile": null}}, {"type": "Feature", "geometry": {"type": "Point", "coordinates": [-74.138602, 40.80885]}, "properties": {"id": "10A-E12-T102-P2", "name": "10A-T102-P2", "stream_mile": null}}, {"type": "Feature", "geometry": {"type": "Point", "coordinates": [-74.138446, 40.808835]}, "properties": {"id": "10A-E12-T102-P3", "name": "10A-T102-P3", "stream_mile": null}}, {"type": "Feature", "geometry": {"type": "Point", "coordinates": [-74.118669, 40.730572]}, "properties": {"id": "10A-E13-T014-P1", "name": "10A-T014-P1", "stream_mile": null}}, {"type": "Feature", "geometry": {"type": "Point", "coordinates": [-74.128623, 40.644172]}, "properties": {"id": "N01-E13-TKVK-P1", "name": "N01-TKVK-P1", "stream_mile": null}}, {"type": "Feature", "geometry": {"type": "Point", "coordinates": [-74.118274, 40.730536]}, "properties": {"id": "10A-E13-T014-P2", "name": "10A-T014-P2", "stream_mile": null}}, {"type": "Feature", "geometry": {"type": "Point", "coordinates": [-74.117988, 40.730477]}, "properties": {"id": "10A-E13-T014-P3", "name": "10A-T014-P3", "stream_mile": null}}, {"type": "Feature", "geometry": {"type": "Point", "coordinates": [-74.128677, 40.643065]}, "properties": {"id": "N01-E13-TKVK-P2", "name": "N01-TKVK-P2", "stream_mile": null}}, {"type": "Feature", "geometry": {"type": "Point", "coordinates": [-74.128683, 40.64199]}, "properties": {"id": "N01-E13-TKVK-P3", "name": "N01-TKVK-P3", "stream_mile": null}}, {"type": "Feature", "geometry": {"type": "Point", "coordinates": [-74.161063, 40.762676]}, "properties": {"id": "10A-E12-T067-P1", "name": "10A-T067-P1", "stream_mile": null}}, {"type": "Feature", "geometry": {"type": "Point", "coordinates": [-74.160796, 40.762646]}, "properties": {"id": "10A-E12-T067-P2", "name": "10A-T067-P2", "stream_mile": null}}, {"type": "Feature", "geometry": {"type": "Point", "coordinates": [-74.16056, 40.762373]}, "properties": {"id": "10A-E12-T067-P3", "name": "10A-T067-P3", "stream_mile": null}}, {"type": "Feature", "geometry": {"type": "Point", "coordinates": [-74.183999, 40.646707]}, "properties": {"id": "N01-E13-TARK-P1", "name": "N01-TARK-P1", "stream_mile": null}}, {"type": "Feature", "geometry": {"type": "Point", "coordinates": [-74.153175, 40.733427]}, "properties": {"id": "10A-E13-T042-P1", "name": "10A-T042-P1", "stream_mile": null}}, {"type": "Feature", "geometry": {"type": "Point", "coordinates": [-74.153204, 40.733765]}, "properties": {"id": "10A-E13-T042-P2", "name": "10A-T042-P2", "stream_mile": null}}, {"type": "Feature", "geometry": {"type": "Point", "coordinates": [-74.183694, 40.645908]}, "properties": {"id": "N01-E13-TARK-P2", "name": "N01-TARK-P2", "stream_mile": null}}, {"type": "Feature", "geometry": {"type": "Point", "coordinates": [-74.183428, 40.645159]}, "properties": {"id": "N01-E13-TARK-P3", "name": "N01-TARK-P3", "stream_mile": null}}, {"type": "Feature", "geometry": {"type": "Point", "coordinates": [-74.153163, 40.733883]}, "properties": {"id": "10A-E13-T042-P3", "name": "10A-T042-P3", "stream_mile": null}}, {"type": "Feature", "geometry": {"type": "Point", "coordinates": [-74.12457, 40.693166]}, "properties": {"id": "N01-E12-TNBN-P1", "name": "N01-TNBN-P1", "stream_mile": null}}, {"type": "Feature", "geometry": {"type": "Point", "coordinates": [-74.090959, 40.738443]}, "properties": {"id": "N01-E12-THKN-P1", "name": "N01-THKN-P1", "stream_mile": null}}, {"type": "Feature", "geometry": {"type": "Point", "coordinates": [-74.120948, 40.691671]}, "properties": {"id": "N01-E12-TNBN-P2", "name": "N01-TNBN-P2", "stream_mile": null}}, {"type": "Feature", "geometry": {"type": "Point", "coordinates": [-74.117166, 40.690478]}, "properties": {"id": "N01-E12-TNBN-P3", "name": "N01-TNBN-P3", "stream_mile": null}}, {"type": "Feature", "geometry": {"type": "Point", "coordinates": [-74.090666, 40.737817]}, "properties": {"id": "N01-E12-THKN-P2", "name": "N01-THKN-P2", "stream_mile": null}}, {"type": "Feature", "geometry": {"type": "Point", "coordinates": [-74.090256, 40.737454]}, "properties": {"id": "N01-E12-THKN-P3", "name": "N01-THKN-P3", "stream_mile": null}}, {"type": "Feature", "geometry": {"type": "Point", "coordinates": [-74.147556, 40.655544]}, "properties": {"id": "N01-E12-TNBS-P1", "name": "N01-TNBS-P1", "stream_mile": null}}, {"type": "Feature", "geometry": {"type": "Point", "coordinates": [-74.145569, 40.654667]}, "properties": {"id": "N01-E12-TNBS-P2", "name": "N01-TNBS-P2", "stream_mile": null}}, {"type": "Feature", "geometry": {"type": "Point", "coordinates": [-74.143601, 40.653951]}, "properties": {"id": "N01-E12-TNBS-P3", "name": "N01-TNBS-P3", "stream_mile": null}}, {"type": "Feature", "geometry": {"type": "Point", "coordinates": [-74.118741, 40.730685]}, "properties": {"id": "10A-E12-T014-P1", "name": "10A-T014-P1", "stream_mile": null}}, {"type": "Feature", "geometry": {"type": "Point", "coordinates": [-74.128638, 40.64426]}, "properties": {"id": "N01-E12-TKVK-P1", "name": "N01-TKVK-P1", "stream_mile": null}}, {"type": "Feature", "geometry": {"type": "Point", "coordinates": [-74.118359, 40.730527]}, "properties": {"id": "10A-E12-T014-P2", "name": "10A-T014-P2", "stream_mile": null}}, {"type": "Feature", "geometry": {"type": "Point", "coordinates": [-74.118027, 40.730374]}, "properties": {"id": "10A-E12-T014-P3", "name": "10A-T014-P3", "stream_mile": null}}, {"type": "Feature", "geometry": {"type": "Point", "coordinates": [-74.128615, 40.643041]}, "properties": {"id": "N01-E12-TKVK-P2", "name": "N01-TKVK-P2", "stream_mile": null}}, {"type": "Feature", "geometry": {"type": "Point", "coordinates": [-74.128701, 40.642068]}, "properties": {"id": "N01-E12-TKVK-P3", "name": "N01-TKVK-P3", "stream_mile": null}}, {"type": "Feature", "geometry": {"type": "Point", "coordinates": [-74.184068, 40.646744]}, "properties": {"id": "N01-E12-TARK-P1", "name": "N01-TARK-P1", "stream_mile": null}}, {"type": "Feature", "geometry": {"type": "Point", "coordinates": [-74.153215, 40.733517]}, "properties": {"id": "10A-E12-T042-P1", "name": "10A-T042-P1", "stream_mile": null}}, {"type": "Feature", "geometry": {"type": "Point", "coordinates": [-74.18378, 40.645822]}, "properties": {"id": "N01-E12-TARK-P2", "name": "N01-TARK-P2", "stream_mile": null}}, {"type": "Feature", "geometry": {"type": "Point", "coordinates": [-74.153245, 40.733682]}, "properties": {"id": "10A-E12-T042-P2", "name": "10A-T042-P2", "stream_mile": null}}, {"type": "Feature", "geometry": {"type": "Point", "coordinates": [-74.18342, 40.645117]}, "properties": {"id": "N01-E12-TARK-P3", "name": "N01-TARK-P3", "stream_mile": null}}, {"type": "Feature", "geometry": {"type": "Point", "coordinates": [-74.153224, 40.73401]}, "properties": {"id": "10A-E12-T042-P3", "name": "10A-T042-P3", "stream_mile": null}}, {"type": "Feature", "geometry": {"type": "Point", "coordinates": [-74.120573, 40.848762]}, "properties": {"id": "10A-E13-T135-P1", "name": "10A-T135-P1", "stream_mile": null}}, {"type": "Feature", "geometry": {"type": "Point", "coordinates": [-74.120276, 40.848698]}, "properties": {"id": "10A-E13-T135-P2", "name": "10A-T135-P2", "stream_mile": null}}, {"type": "Feature", "geometry": {"type": "Point", "coordinates": [-74.120104, 40.84864]}, "properties": {"id": "10A-E13-T135-P3", "name": "10A-T135-P3", "stream_mile": null}}, {"type": "Feature", "geometry": {"type": "Point", "coordinates": [-74.138759, 40.8088]}, "properties": {"id": "10A-E13-T102-P1", "name": "10A-T102-P1", "stream_mile": null}}, {"type": "Feature", "geometry": {"type": "Point", "coordinates": [-74.138706, 40.808842]}, "properties": {"id": "10A-E13-T102-P2", "name": "10A-T102-P2", "stream_mile": null}}, {"type": "Feature", "geometry": {"type": "Point", "coordinates": [-74.138362, 40.808793]}, "properties": {"id": "10A-E13-T102-P3", "name": "10A-T102-P3", "stream_mile": null}}, {"type": "Feature", "geometry": {"type": "Point", "coordinates": [-74.161027, 40.762782]}, "properties": {"id": "10A-E13-T067-P1", "name": "10A-T067-P1", "stream_mile": null}}, {"type": "Feature", "geometry": {"type": "Point", "coordinates": [-74.160733, 40.762648]}, "properties": {"id": "10A-E13-T067-P2", "name": "10A-T067-P2", "stream_mile": null}}, {"type": "Feature", "geometry": {"type": "Point", "coordinates": [-74.160559, 40.762391]}, "properties": {"id": "10A-E13-T067-P3", "name": "10A-T067-P3", "stream_mile": null}}, {"type": "Feature", "geometry": {"type": "Point", "coordinates": [-74.129841, 40.885063]}, "properties": {"id": "10A-E10-T175-P2", "name": "10A-T175-P2", "stream_mile": null}}, {"type": "Feature", "geometry": {"type": "Point", "coordinates": [-74.129896, 40.884408]}, "properties": {"id": "10A-E11-T175-P1", "name": "10A-T175-P1", "stream_mile": null}}, {"type": "Feature", "geometry": {"type": "Point", "coordinates": [-74.129779, 40.884954]}, "properties": {"id": "10A-E11-T175-P2", "name": "10A-T175-P2", "stream_mile": null}}, {"type": "Feature", "geometry": {"type": "Point", "coordinates": [-74.129258, 40.885445]}, "properties": {"id": "10A-E11-T175-P3", "name": "10A-T175-P3", "stream_mile": null}}, {"type": "Feature", "geometry": {"type": "Point", "coordinates": [-74.129016, 40.885564]}, "properties": {"id": "10A-E11-T175-P4", "name": "10A-T175-P4", "stream_mile": null}}, {"type": "Feature", "geometry": {"type": "Point", "coordinates": [-74.138774, 40.808868]}, "properties": {"id": "10A-E19-T102-P1", "name": "10A-T102-P1", "stream_mile": null}}, {"type": "Feature", "geometry": {"type": "Point", "coordinates": [-74.160617, 40.762448]}, "properties": {"id": "10A-E15-T067-P3", "name": "10A-T067-P3", "stream_mile": null}}, {"type": "Feature", "geometry": {"type": "Point", "coordinates": [-74.160561, 40.76246]}, "properties": {"id": "10A-E19-T067-P3", "name": "10A-T067-P3", "stream_mile": null}}, {"type": "Feature", "geometry": {"type": "Point", "coordinates": [-74.120132, 40.848644]}, "properties": {"id": "10A-E15-T135-P3", "name": "10A-T135-P3", "stream_mile": null}}, {"type": "Feature", "geometry": {"type": "Point", "coordinates": [-74.120195, 40.848737]}, "properties": {"id": "10A-E19-T135-P3", "name": "10A-T135-P3", "stream_mile": null}}, {"type": "Feature", "geometry": {"type": "Point", "coordinates": [-74.13875, 40.808886]}, "properties": {"id": "10A-E15-T102-P1", "name": "10A-T102-P1", "stream_mile": null}}, {"type": "Feature", "geometry": {"type": "Point", "coordinates": [-74.153219, 40.733506]}, "properties": {"id": "10A-E19-T042-P1", "name": "10A-T042-P1", "stream_mile": null}}, {"type": "Feature", "geometry": {"type": "Point", "coordinates": [-74.117981, 40.73046]}, "properties": {"id": "10A-E15-T014-P3", "name": "10A-T014-P3", "stream_mile": null}}, {"type": "Feature", "geometry": {"type": "Point", "coordinates": [-74.117988, 40.730479]}, "properties": {"id": "10A-E19-T014-P3", "name": "10A-T014-P3", "stream_mile": null}}, {"type": "Feature", "geometry": {"type": "Point", "coordinates": [-74.153154, 40.73354]}, "properties": {"id": "10A-E15-T042-P1", "name": "10A-T042-P1", "stream_mile": null}}, {"type": "Feature", "geometry": {"type": "Point", "coordinates": [-74.147666, 40.655516]}, "properties": {"id": "N01-E19-TNBS-P1", "name": "N01-TNBS-P1", "stream_mile": null}}, {"type": "Feature", "geometry": {"type": "Point", "coordinates": [-74.183992, 40.646758]}, "properties": {"id": "N01-E15-TARK-P1", "name": "N01-TARK-P1", "stream_mile": null}}, {"type": "Feature", "geometry": {"type": "Point", "coordinates": [-74.184053, 40.646821]}, "properties": {"id": "N01-E19-TARK-P1", "name": "N01-TARK-P1", "stream_mile": null}}, {"type": "Feature", "geometry": {"type": "Point", "coordinates": [-74.147616, 40.655475]}, "properties": {"id": "N01-E15-TNBS-P1", "name": "N01-TNBS-P1", "stream_mile": null}}, {"type": "Feature", "geometry": {"type": "Point", "coordinates": [-74.124579, 40.693157]}, "properties": {"id": "N01-E19-TNBN-P1", "name": "N01-TNBN-P1", "stream_mile": null}}, {"type": "Feature", "geometry": {"type": "Point", "coordinates": [-74.128645, 40.64422]}, "properties": {"id": "N01-E15-TKVK-P1", "name": "N01-TKVK-P1", "stream_mile": null}}, {"type": "Feature", "geometry": {"type": "Point", "coordinates": [-74.12865, 40.644249]}, "properties": {"id": "N01-E19-TKVK-P1", "name": "N01-TKVK-P1", "stream_mile": null}}, {"type": "Feature", "geometry": {"type": "Point", "coordinates": [-74.124533, 40.693106]}, "properties": {"id": "N01-E15-TNBN-P1", "name": "N01-TNBN-P1", "stream_mile": null}}, {"type": "Feature", "geometry": {"type": "Point", "coordinates": [-74.129764, 40.885053]}, "properties": {"id": "10A-E15-T175-P2", "name": "10A-T175-P2", "stream_mile": null}}, {"type": "Feature", "geometry": {"type": "Point", "coordinates": [-74.129958, 40.88442]}, "properties": {"id": "10A-E16-T175-P1", "name": "10A-T175-P1", "stream_mile": null}}, {"type": "Feature", "geometry": {"type": "Point", "coordinates": [-74.129794, 40.884977]}, "properties": {"id": "10A-E16-T175-P2", "name": "10A-T175-P2", "stream_mile": null}}, {"type": "Feature", "geometry": {"type": "Point", "coordinates": [-74.129217, 40.885338]}, "properties": {"id": "10A-E16-T175-P3", "name": "10A-T175-P3", "stream_mile": null}}, {"type": "Feature", "geometry": {"type": "Point", "coordinates": [-74.1291, 40.885628]}, "properties": {"id": "10A-E16-T175-P4", "name": "10A-T175-P4", "stream_mile": null}}, {"type": "Feature", "geometry": {"type": "Point", "coordinates": [-74.090982, 40.738405]}, "properties": {"id": "N01-E15-THKN-P1", "name": "N01-THKN-P1", "stream_mile": null}}, {"type": "Feature", "geometry": {"type": "Point", "coordinates": [-74.09087, 40.738402]}, "properties": {"id": "N01-E19-THKN-P1", "name": "N01-THKN-P1", "stream_mile": null}}, {"type": "Feature", "geometry": {"type": "Point", "coordinates": [-74.124586, 40.693092]}, "properties": {"id": "N01-E18-TNBN-P1", "name": "N01-TNBN-P1", "stream_mile": null}}, {"type": "Feature", "geometry": {"type": "Point", "coordinates": [-74.120567, 40.848833]}, "properties": {"id": "10A-E18-T135-P1", "name": "10A-T135-P1", "stream_mile": null}}, {"type": "Feature", "geometry": {"type": "Point", "coordinates": [-74.091064, 40.738345]}, "properties": {"id": "N01-E18-THKN-P1", "name": "N01-THKN-P1", "stream_mile": null}}, {"type": "Feature", "geometry": {"type": "Point", "coordinates": [-74.120925, 40.69166]}, "properties": {"id": "N01-E18-TNBN-P2", "name": "N01-TNBN-P2", "stream_mile": null}}, {"type": "Feature", "geometry": {"type": "Point", "coordinates": [-74.120275, 40.848701]}, "properties": {"id": "10A-E18-T135-P2", "name": "10A-T135-P2", "stream_mile": null}}, {"type": "Feature", "geometry": {"type": "Point", "coordinates": [-74.090651, 40.73785]}, "properties": {"id": "N01-E18-THKN-P2", "name": "N01-THKN-P2", "stream_mile": null}}, {"type": "Feature", "geometry": {"type": "Point", "coordinates": [-74.11723, 40.690411]}, "properties": {"id": "N01-E18-TNBN-P3", "name": "N01-TNBN-P3", "stream_mile": null}}, {"type": "Feature", "geometry": {"type": "Point", "coordinates": [-74.120198, 40.848671]}, "properties": {"id": "10A-E18-T135-P3", "name": "10A-T135-P3", "stream_mile": null}}, {"type": "Feature", "geometry": {"type": "Point", "coordinates": [-74.090197, 40.737418]}, "properties": {"id": "N01-E18-THKN-P3", "name": "N01-THKN-P3", "stream_mile": null}}, {"type": "Feature", "geometry": {"type": "Point", "coordinates": [-74.138874, 40.808812]}, "properties": {"id": "10A-E18-T102-P1", "name": "10A-T102-P1", "stream_mile": null}}, {"type": "Feature", "geometry": {"type": "Point", "coordinates": [-74.14768, 40.655499]}, "properties": {"id": "N01-E18-TNBS-P1", "name": "N01-TNBS-P1", "stream_mile": null}}, {"type": "Feature", "geometry": {"type": "Point", "coordinates": [-74.138664, 40.808823]}, "properties": {"id": "10A-E18-T102-P2", "name": "10A-T102-P2", "stream_mile": null}}, {"type": "Feature", "geometry": {"type": "Point", "coordinates": [-74.145618, 40.654757]}, "properties": {"id": "N01-E18-TNBS-P2", "name": "N01-TNBS-P2", "stream_mile": null}}, {"type": "Feature", "geometry": {"type": "Point", "coordinates": [-74.138448, 40.808746]}, "properties": {"id": "10A-E18-T102-P3", "name": "10A-T102-P3", "stream_mile": null}}, {"type": "Feature", "geometry": {"type": "Point", "coordinates": [-74.143612, 40.653942]}, "properties": {"id": "N01-E18-TNBS-P3", "name": "N01-TNBS-P3", "stream_mile": null}}, {"type": "Feature", "geometry": {"type": "Point", "coordinates": [-74.128672, 40.644204]}, "properties": {"id": "N01-E18-TKVK-P1", "name": "N01-TKVK-P1", "stream_mile": null}}, {"type": "Feature", "geometry": {"type": "Point", "coordinates": [-74.128716, 40.643022]}, "properties": {"id": "N01-E18-TKVK-P2", "name": "N01-TKVK-P2", "stream_mile": null}}, {"type": "Feature", "geometry": {"type": "Point", "coordinates": [-74.16098, 40.762716]}, "properties": {"id": "10A-E18-T067-P1", "name": "10A-T067-P1", "stream_mile": null}}, {"type": "Feature", "geometry": {"type": "Point", "coordinates": [-74.128596, 40.642053]}, "properties": {"id": "N01-E18-TKVK-P3", "name": "N01-TKVK-P3", "stream_mile": null}}, {"type": "Feature", "geometry": {"type": "Point", "coordinates": [-74.160762, 40.762594]}, "properties": {"id": "10A-E18-T067-P2", "name": "10A-T067-P2", "stream_mile": null}}, {"type": "Feature", "geometry": {"type": "Point", "coordinates": [-74.16066, 40.762461]}, "properties": {"id": "10A-E18-T067-P3", "name": "10A-T067-P3", "stream_mile": null}}, {"type": "Feature", "geometry": {"type": "Point", "coordinates": [-74.184132, 40.646783]}, "properties": {"id": "N01-E18-TARK-P1", "name": "N01-TARK-P1", "stream_mile": null}}, {"type": "Feature", "geometry": {"type": "Point", "coordinates": [-74.183772, 40.645938]}, "properties": {"id": "N01-E18-TARK-P2", "name": "N01-TARK-P2", "stream_mile": null}}, {"type": "Feature", "geometry": {"type": "Point", "coordinates": [-74.183443, 40.645081]}, "properties": {"id": "N01-E18-TARK-P3", "name": "N01-TARK-P3", "stream_mile": null}}, {"type": "Feature", "geometry": {"type": "Point", "coordinates": [-74.153169, 40.733486]}, "properties": {"id": "10A-E18-T042-P1", "name": "10A-T042-P1", "stream_mile": null}}, {"type": "Feature", "geometry": {"type": "Point", "coordinates": [-74.153161, 40.733802]}, "properties": {"id": "10A-E18-T042-P2", "name": "10A-T042-P2", "stream_mile": null}}, {"type": "Feature", "geometry": {"type": "Point", "coordinates": [-74.153141, 40.733981]}, "properties": {"id": "10A-E18-T042-P3", "name": "10A-T042-P3", "stream_mile": null}}, {"type": "Feature", "geometry": {"type": "Point", "coordinates": [-74.11873, 40.730686]}, "properties": {"id": "10A-E18-T014-P1", "name": "10A-T014-P1", "stream_mile": null}}, {"type": "Feature", "geometry": {"type": "Point", "coordinates": [-74.118339, 40.73045]}, "properties": {"id": "10A-E18-T014-P2", "name": "10A-T014-P2", "stream_mile": null}}, {"type": "Feature", "geometry": {"type": "Point", "coordinates": [-74.11798, 40.730396]}, "properties": {"id": "10A-E18-T014-P3", "name": "10A-T014-P3", "stream_mile": null}}, {"type": "Feature", "geometry": {"type": "Point", "coordinates": [-74.124522, 40.693076]}, "properties": {"id": "N01-E17-TNBN-P1", "name": "N01-TNBN-P1", "stream_mile": null}}, {"type": "Feature", "geometry": {"type": "Point", "coordinates": [-74.120953, 40.691638]}, "properties": {"id": "N01-E17-TNBN-P2", "name": "N01-TNBN-P2", "stream_mile": null}}, {"type": "Feature", "geometry": {"type": "Point", "coordinates": [-74.120674, 40.848815]}, "properties": {"id": "10A-E17-T135-P1", "name": "10A-T135-P1", "stream_mile": null}}, {"type": "Feature", "geometry": {"type": "Point", "coordinates": [-74.091073, 40.738369]}, "properties": {"id": "N01-E17-THKN-P1", "name": "N01-THKN-P1", "stream_mile": null}}, {"type": "Feature", "geometry": {"type": "Point", "coordinates": [-74.120301, 40.848745]}, "properties": {"id": "10A-E17-T135-P2", "name": "10A-T135-P2", "stream_mile": null}}, {"type": "Feature", "geometry": {"type": "Point", "coordinates": [-74.120162, 40.848711]}, "properties": {"id": "10A-E17-T135-P3", "name": "10A-T135-P3", "stream_mile": null}}, {"type": "Feature", "geometry": {"type": "Point", "coordinates": [-74.117113, 40.690443]}, "properties": {"id": "N01-E17-TNBN-P3", "name": "N01-TNBN-P3", "stream_mile": null}}, {"type": "Feature", "geometry": {"type": "Point", "coordinates": [-74.09058, 40.737975]}, "properties": {"id": "N01-E17-THKN-P2", "name": "N01-THKN-P2", "stream_mile": null}}, {"type": "Feature", "geometry": {"type": "Point", "coordinates": [-74.090305, 40.73747]}, "properties": {"id": "N01-E17-THKN-P3", "name": "N01-THKN-P3", "stream_mile": null}}, {"type": "Feature", "geometry": {"type": "Point", "coordinates": [-74.138748, 40.808737]}, "properties": {"id": "10A-E17-T102-P1", "name": "10A-T102-P1", "stream_mile": null}}, {"type": "Feature", "geometry": {"type": "Point", "coordinates": [-74.138603, 40.808818]}, "properties": {"id": "10A-E17-T102-P2", "name": "10A-T102-P2", "stream_mile": null}}, {"type": "Feature", "geometry": {"type": "Point", "coordinates": [-74.138373, 40.808781]}, "properties": {"id": "10A-E17-T102-P3", "name": "10A-T102-P3", "stream_mile": null}}, {"type": "Feature", "geometry": {"type": "Point", "coordinates": [-74.147678, 40.655538]}, "properties": {"id": "N01-E17-TNBS-P1", "name": "N01-TNBS-P1", "stream_mile": null}}, {"type": "Feature", "geometry": {"type": "Point", "coordinates": [-74.145681, 40.654704]}, "properties": {"id": "N01-E17-TNBS-P2", "name": "N01-TNBS-P2", "stream_mile": null}}, {"type": "Feature", "geometry": {"type": "Point", "coordinates": [-74.118688, 40.730682]}, "properties": {"id": "10A-E17-T014-P1", "name": "10A-T014-P1", "stream_mile": null}}, {"type": "Feature", "geometry": {"type": "Point", "coordinates": [-74.14353, 40.654009]}, "properties": {"id": "N01-E17-TNBS-P3", "name": "N01-TNBS-P3", "stream_mile": null}}, {"type": "Feature", "geometry": {"type": "Point", "coordinates": [-74.118305, 40.73055]}, "properties": {"id": "10A-E17-T014-P2", "name": "10A-T014-P2", "stream_mile": null}}, {"type": "Feature", "geometry": {"type": "Point", "coordinates": [-74.160971, 40.762645]}, "properties": {"id": "10A-E17-T067-P1", "name": "10A-T067-P1", "stream_mile": null}}, {"type": "Feature", "geometry": {"type": "Point", "coordinates": [-74.118012, 40.730495]}, "properties": {"id": "10A-E17-T014-P3", "name": "10A-T014-P3", "stream_mile": null}}, {"type": "Feature", "geometry": {"type": "Point", "coordinates": [-74.160869, 40.762596]}, "properties": {"id": "10A-E17-T067-P2", "name": "10A-T067-P2", "stream_mile": null}}, {"type": "Feature", "geometry": {"type": "Point", "coordinates": [-74.160559, 40.762369]}, "properties": {"id": "10A-E17-T067-P3", "name": "10A-T067-P3", "stream_mile": null}}, {"type": "Feature", "geometry": {"type": "Point", "coordinates": [-74.128677, 40.644219]}, "properties": {"id": "N01-E17-TKVK-P1", "name": "N01-TKVK-P1", "stream_mile": null}}, {"type": "Feature", "geometry": {"type": "Point", "coordinates": [-74.128649, 40.643014]}, "properties": {"id": "N01-E17-TKVK-P2", "name": "N01-TKVK-P2", "stream_mile": null}}, {"type": "Feature", "geometry": {"type": "Point", "coordinates": [-74.128684, 40.642009]}, "properties": {"id": "N01-E17-TKVK-P3", "name": "N01-TKVK-P3", "stream_mile": null}}, {"type": "Feature", "geometry": {"type": "Point", "coordinates": [-74.153118, 40.733502]}, "properties": {"id": "10A-E17-T042-P1", "name": "10A-T042-P1", "stream_mile": null}}, {"type": "Feature", "geometry": {"type": "Point", "coordinates": [-74.153201, 40.733704]}, "properties": {"id": "10A-E17-T042-P2", "name": "10A-T042-P2", "stream_mile": null}}, {"type": "Feature", "geometry": {"type": "Point", "coordinates": [-74.153226, 40.733952]}, "properties": {"id": "10A-E17-T042-P3", "name": "10A-T042-P3", "stream_mile": null}}, {"type": "Feature", "geometry": {"type": "Point", "coordinates": [-74.184061, 40.646789]}, "properties": {"id": "N01-E17-TARK-P1", "name": "N01-TARK-P1", "stream_mile": null}}, {"type": "Feature", "geometry": {"type": "Point", "coordinates": [-74.1838, 40.645856]}, "properties": {"id": "N01-E17-TARK-P2", "name": "N01-TARK-P2", "stream_mile": null}}, {"type": "Feature", "geometry": {"type": "Point", "coordinates": [-74.183448, 40.645065]}, "properties": {"id": "N01-E17-TARK-P3", "name": "N01-TARK-P3", "stream_mile": null}}, {"type": "Feature", "geometry": {"type": "Point", "coordinates": [-74.124589, 40.693121]}, "properties": {"id": "N01-E22-TNBN-P1", "name": "N01-TNBN-P1", "stream_mile": null}}, {"type": "Feature", "geometry": {"type": "Point", "coordinates": [-74.120934, 40.691734]}, "properties": {"id": "N01-E22-TNBN-P2", "name": "N01-TNBN-P2", "stream_mile": null}}, {"type": "Feature", "geometry": {"type": "Point", "coordinates": [-74.091007, 40.738373]}, "properties": {"id": "N01-E22-THKN-P1", "name": "N01-THKN-P1", "stream_mile": null}}, {"type": "Feature", "geometry": {"type": "Point", "coordinates": [-74.117218, 40.690459]}, "properties": {"id": "N01-E22-TNBN-P3", "name": "N01-TNBN-P3", "stream_mile": null}}, {"type": "Feature", "geometry": {"type": "Point", "coordinates": [-74.090683, 40.737921]}, "properties": {"id": "N01-E22-THKN-P2", "name": "N01-THKN-P2", "stream_mile": null}}, {"type": "Feature", "geometry": {"type": "Point", "coordinates": [-74.090248, 40.73743]}, "properties": {"id": "N01-E22-THKN-P3", "name": "N01-THKN-P3", "stream_mile": null}}, {"type": "Feature", "geometry": {"type": "Point", "coordinates": [-74.120639, 40.848788]}, "properties": {"id": "10A-E22-T135-P1", "name": "10A-T135-P1", "stream_mile": null}}, {"type": "Feature", "geometry": {"type": "Point", "coordinates": [-74.120323, 40.848726]}, "properties": {"id": "10A-E22-T135-P2", "name": "10A-T135-P2", "stream_mile": null}}, {"type": "Feature", "geometry": {"type": "Point", "coordinates": [-74.120189, 40.848634]}, "properties": {"id": "10A-E22-T135-P3", "name": "10A-T135-P3", "stream_mile": null}}, {"type": "Feature", "geometry": {"type": "Point", "coordinates": [-74.147624, 40.655506]}, "properties": {"id": "N01-E22-TNBS-P1", "name": "N01-TNBS-P1", "stream_mile": null}}, {"type": "Feature", "geometry": {"type": "Point", "coordinates": [-74.145613, 40.654672]}, "properties": {"id": "N01-E22-TNBS-P2", "name": "N01-TNBS-P2", "stream_mile": null}}, {"type": "Feature", "geometry": {"type": "Point", "coordinates": [-74.118739, 40.730679]}, "properties": {"id": "10A-E22-T014-P1", "name": "10A-T014-P1", "stream_mile": null}}, {"type": "Feature", "geometry": {"type": "Point", "coordinates": [-74.143509, 40.653926]}, "properties": {"id": "N01-E22-TNBS-P3", "name": "N01-TNBS-P3", "stream_mile": null}}, {"type": "Feature", "geometry": {"type": "Point", "coordinates": [-74.118293, 40.730482]}, "properties": {"id": "10A-E22-T014-P2", "name": "10A-T014-P2", "stream_mile": null}}, {"type": "Feature", "geometry": {"type": "Point", "coordinates": [-74.138869, 40.808723]}, "properties": {"id": "10A-E22-T102-P1", "name": "10A-T102-P1", "stream_mile": null}}, {"type": "Feature", "geometry": {"type": "Point", "coordinates": [-74.118012, 40.730454]}, "properties": {"id": "10A-E22-T014-P3", "name": "10A-T014-P3", "stream_mile": null}}, {"type": "Feature", "geometry": {"type": "Point", "coordinates": [-74.138668, 40.808796]}, "properties": {"id": "10A-E22-T102-P2", "name": "10A-T102-P2", "stream_mile": null}}, {"type": "Feature", "geometry": {"type": "Point", "coordinates": [-74.138378, 40.808744]}, "properties": {"id": "10A-E22-T102-P3", "name": "10A-T102-P3", "stream_mile": null}}, {"type": "Feature", "geometry": {"type": "Point", "coordinates": [-74.128611, 40.644214]}, "properties": {"id": "N01-E22-TKVK-P1", "name": "N01-TKVK-P1", "stream_mile": null}}, {"type": "Feature", "geometry": {"type": "Point", "coordinates": [-74.128699, 40.643075]}, "properties": {"id": "N01-E22-TKVK-P2", "name": "N01-TKVK-P2", "stream_mile": null}}, {"type": "Feature", "geometry": {"type": "Point", "coordinates": [-74.153137, 40.733452]}, "properties": {"id": "10A-E22-T042-P1", "name": "10A-T042-P1", "stream_mile": null}}, {"type": "Feature", "geometry": {"type": "Point", "coordinates": [-74.153186, 40.733727]}, "properties": {"id": "10A-E22-T042-P2", "name": "10A-T042-P2", "stream_mile": null}}, {"type": "Feature", "geometry": {"type": "Point", "coordinates": [-74.128696, 40.642025]}, "properties": {"id": "N01-E22-TKVK-P3", "name": "N01-TKVK-P3", "stream_mile": null}}, {"type": "Feature", "geometry": {"type": "Point", "coordinates": [-74.15318, 40.733979]}, "properties": {"id": "10A-E22-T042-P3", "name": "10A-T042-P3", "stream_mile": null}}, {"type": "Feature", "geometry": {"type": "Point", "coordinates": [-74.160976, 40.762774]}, "properties": {"id": "10A-E22-T067-P1", "name": "10A-T067-P1", "stream_mile": null}}, {"type": "Feature", "geometry": {"type": "Point", "coordinates": [-74.160841, 40.762627]}, "properties": {"id": "10A-E22-T067-P2", "name": "10A-T067-P2", "stream_mile": null}}, {"type": "Feature", "geometry": {"type": "Point", "coordinates": [-74.160684, 40.762444]}, "properties": {"id": "10A-E22-T067-P3", "name": "10A-T067-P3", "stream_mile": null}}, {"type": "Feature", "geometry": {"type": "Point", "coordinates": [-74.184119, 40.646826]}, "properties": {"id": "N01-E22-TARK-P1", "name": "N01-TARK-P1", "stream_mile": null}}, {"type": "Feature", "geometry": {"type": "Point", "coordinates": [-74.183805, 40.645892]}, "properties": {"id": "N01-E22-TARK-P2", "name": "N01-TARK-P2", "stream_mile": null}}, {"type": "Feature", "geometry": {"type": "Point", "coordinates": [-74.183444, 40.645092]}, "properties": {"id": "N01-E22-TARK-P3", "name": "N01-TARK-P3", "stream_mile": null}}, {"type": "Feature", "geometry": {"type": "Point", "coordinates": [-74.124559, 40.693107]}, "properties": {"id": "N01-E21-TNBN-P1", "name": "N01-TNBN-P1", "stream_mile": null}}, {"type": "Feature", "geometry": {"type": "Point", "coordinates": [-74.120951, 40.69169]}, "properties": {"id": "N01-E21-TNBN-P2", "name": "N01-TNBN-P2", "stream_mile": null}}, {"type": "Feature", "geometry": {"type": "Point", "coordinates": [-74.117195, 40.690476]}, "properties": {"id": "N01-E21-TNBN-P3", "name": "N01-TNBN-P3", "stream_mile": null}}, {"type": "Feature", "geometry": {"type": "Point", "coordinates": [-74.120644, 40.848899]}, "properties": {"id": "10A-E21-T135-P1", "name": "10A-T135-P1", "stream_mile": null}}, {"type": "Feature", "geometry": {"type": "Point", "coordinates": [-74.090991, 40.738395]}, "properties": {"id": "N01-E21-THKN-P1", "name": "N01-THKN-P1", "stream_mile": null}}, {"type": "Feature", "geometry": {"type": "Point", "coordinates": [-74.120272, 40.848672]}, "properties": {"id": "10A-E21-T135-P2", "name": "10A-T135-P2", "stream_mile": null}}, {"type": "Feature", "geometry": {"type": "Point", "coordinates": [-74.120199, 40.848648]}, "properties": {"id": "10A-E21-T135-P3", "name": "10A-T135-P3", "stream_mile": null}}, {"type": "Feature", "geometry": {"type": "Point", "coordinates": [-74.090672, 40.737901]}, "properties": {"id": "N01-E21-THKN-P2", "name": "N01-THKN-P2", "stream_mile": null}}, {"type": "Feature", "geometry": {"type": "Point", "coordinates": [-74.090286, 40.737378]}, "properties": {"id": "N01-E21-THKN-P3", "name": "N01-THKN-P3", "stream_mile": null}}, {"type": "Feature", "geometry": {"type": "Point", "coordinates": [-74.147585, 40.655491]}, "properties": {"id": "N01-E21-TNBS-P1", "name": "N01-TNBS-P1", "stream_mile": null}}, {"type": "Feature", "geometry": {"type": "Point", "coordinates": [-74.145629, 40.654754]}, "properties": {"id": "N01-E21-TNBS-P2", "name": "N01-TNBS-P2", "stream_mile": null}}, {"type": "Feature", "geometry": {"type": "Point", "coordinates": [-74.138835, 40.808726]}, "properties": {"id": "10A-E21-T102-P1", "name": "10A-T102-P1", "stream_mile": null}}, {"type": "Feature", "geometry": {"type": "Point", "coordinates": [-74.143546, 40.654007]}, "properties": {"id": "N01-E21-TNBS-P3", "name": "N01-TNBS-P3", "stream_mile": null}}, {"type": "Feature", "geometry": {"type": "Point", "coordinates": [-74.138586, 40.808846]}, "properties": {"id": "10A-E21-T102-P2", "name": "10A-T102-P2", "stream_mile": null}}, {"type": "Feature", "geometry": {"type": "Point", "coordinates": [-74.118725, 40.730673]}, "properties": {"id": "10A-E21-T014-P1", "name": "10A-T014-P1", "stream_mile": null}}, {"type": "Feature", "geometry": {"type": "Point", "coordinates": [-74.138439, 40.808766]}, "properties": {"id": "10A-E21-T102-P3", "name": "10A-T102-P3", "stream_mile": null}}, {"type": "Feature", "geometry": {"type": "Point", "coordinates": [-74.118239, 40.730497]}, "properties": {"id": "10A-E21-T014-P2", "name": "10A-T014-P2", "stream_mile": null}}, {"type": "Feature", "geometry": {"type": "Point", "coordinates": [-74.128728, 40.644231]}, "properties": {"id": "N01-E21-TKVK-P1", "name": "N01-TKVK-P1", "stream_mile": null}}, {"type": "Feature", "geometry": {"type": "Point", "coordinates": [-74.118008, 40.730456]}, "properties": {"id": "10A-E21-T014-P3", "name": "10A-T014-P3", "stream_mile": null}}, {"type": "Feature", "geometry": {"type": "Point", "coordinates": [-74.128641, 40.642981]}, "properties": {"id": "N01-E21-TKVK-P2", "name": "N01-TKVK-P2", "stream_mile": null}}, {"type": "Feature", "geometry": {"type": "Point", "coordinates": [-74.128647, 40.642064]}, "properties": {"id": "N01-E21-TKVK-P3", "name": "N01-TKVK-P3", "stream_mile": null}}, {"type": "Feature", "geometry": {"type": "Point", "coordinates": [-74.153097, 40.733499]}, "properties": {"id": "10A-E21-T042-P1", "name": "10A-T042-P1", "stream_mile": null}}, {"type": "Feature", "geometry": {"type": "Point", "coordinates": [-73.777378, 40.731984]}, "properties": {"id": "10A-E21-T042-P2", "name": "10A-T042-P2", "stream_mile": null}}, {"type": "Feature", "geometry": {"type": "Point", "coordinates": [-74.161024, 40.762699]}, "properties": {"id": "10A-E21-T067-P1", "name": "10A-T067-P1", "stream_mile": null}}, {"type": "Feature", "geometry": {"type": "Point", "coordinates": [-74.153215, 40.733892]}, "properties": {"id": "10A-E21-T042-P3", "name": "10A-T042-P3", "stream_mile": null}}, {"type": "Feature", "geometry": {"type": "Point", "coordinates": [-74.184055, 40.646785]}, "properties": {"id": "N01-E21-TARK-P1", "name": "N01-TARK-P1", "stream_mile": null}}, {"type": "Feature", "geometry": {"type": "Point", "coordinates": [-74.160871, 40.762584]}, "properties": {"id": "10A-E21-T067-P2", "name": "10A-T067-P2", "stream_mile": null}}, {"type": "Feature", "geometry": {"type": "Point", "coordinates": [-74.183811, 40.645877]}, "properties": {"id": "N01-E21-TARK-P2", "name": "N01-TARK-P2", "stream_mile": null}}, {"type": "Feature", "geometry": {"type": "Point", "coordinates": [-74.183403, 40.645176]}, "properties": {"id": "N01-E21-TARK-P3", "name": "N01-TARK-P3", "stream_mile": null}}, {"type": "Feature", "geometry": {"type": "Point", "coordinates": [-74.16067, 40.76246]}, "properties": {"id": "10A-E21-T067-P3", "name": "10A-T067-P3", "stream_mile": null}}, {"type": "Feature", "geometry": {"type": "Point", "coordinates": [-74.117951, 40.730447]}, "properties": {"id": "10A-E23-T014-P3", "name": "10A-T014-P3", "stream_mile": null}}, {"type": "Feature", "geometry": {"type": "Point", "coordinates": [-74.153193, 40.733462]}, "properties": {"id": "10A-E23-T042-P1", "name": "10A-T042-P1", "stream_mile": null}}, {"type": "Feature", "geometry": {"type": "Point", "coordinates": [-74.129932, 40.884425]}, "properties": {"id": "10A-E20-T175-P1", "name": "10A-T175-P1", "stream_mile": null}}, {"type": "Feature", "geometry": {"type": "Point", "coordinates": [-74.129867, 40.885]}, "properties": {"id": "10A-E20-T175-P2", "name": "10A-T175-P2", "stream_mile": null}}, {"type": "Feature", "geometry": {"type": "Point", "coordinates": [-74.129216, 40.885361]}, "properties": {"id": "10A-E20-T175-P3", "name": "10A-T175-P3", "stream_mile": null}}, {"type": "Feature", "geometry": {"type": "Point", "coordinates": [-74.129064, 40.885667]}, "properties": {"id": "10A-E20-T175-P4", "name": "10A-T175-P4", "stream_mile": null}}, {"type": "Feature", "geometry": {"type": "Point", "coordinates": [-74.160623, 40.762484]}, "properties": {"id": "10A-E23-T067-P3", "name": "10A-T067-P3", "stream_mile": null}}, {"type": "Feature", "geometry": {"type": "Point", "coordinates": [-74.138778, 40.808851]}, "properties": {"id": "10A-E23-T102-P1", "name": "10A-T102-P1", "stream_mile": null}}, {"type": "Feature", "geometry": {"type": "Point", "coordinates": [-74.12018, 40.848634]}, "properties": {"id": "10A-E23-T135-P3", "name": "10A-T135-P3", "stream_mile": null}}, {"type": "Feature", "geometry": {"type": "Point", "coordinates": [-74.12453, 40.693138]}, "properties": {"id": "N01-E23-TNBN-P1", "name": "N01-TNBN-P1", "stream_mile": null}}, {"type": "Feature", "geometry": {"type": "Point", "coordinates": [-74.184034, 40.646801]}, "properties": {"id": "N01-E23-TARK-P1", "name": "N01-TARK-P1", "stream_mile": null}}, {"type": "Feature", "geometry": {"type": "Point", "coordinates": [-74.147642, 40.655469]}, "properties": {"id": "N01-E23-TNBS-P1", "name": "N01-TNBS-P1", "stream_mile": null}}, {"type": "Feature", "geometry": {"type": "Point", "coordinates": [-74.128598, 40.644185]}, "properties": {"id": "N01-E23-TKVK-P1", "name": "N01-TKVK-P1", "stream_mile": null}}, {"type": "Feature", "geometry": {"type": "Point", "coordinates": [-74.090858, 40.738394]}, "properties": {"id": "N01-E23-THKN-P1", "name": "N01-THKN-P1", "stream_mile": null}}]}