{"type": "FeatureCollection", "features": [{"type": "Feature", "geometry": {"type": "Point", "coordinates": [-74.133881, 40.742125]}, "properties": {"id": "10B-TPRB-P5", "name": "PR5", "stream_mile": null}}, {"type": "Feature", "geometry": {"type": "Point", "coordinates": [-74.141688, 40.83003]}, "properties": {"id": "10B-T3R2-P1", "name": "Third River HOT", "stream_mile": null}}, {"type": "Feature", "geometry": {"type": "Point", "coordinates": [-74.121969, 40.74179]}, "properties": {"id": "10B-TPRB-P6", "name": "PR6", "stream_mile": null}}, {"type": "Feature", "geometry": {"type": "Point", "coordinates": [-74.133019, 40.826007]}, "properties": {"id": "10B-T3R1-P1", "name": "Third River Road", "stream_mile": null}}, {"type": "Feature", "geometry": {"type": "Point", "coordinates": [-74.124607, 40.691804]}, "properties": {"id": "10B-TNBB-P5", "name": "NB5", "stream_mile": null}}, {"type": "Feature", "geometry": {"type": "Point", "coordinates": [-74.122651, 40.841326]}, "properties": {"id": "10B-T130-P1", "name": "Union Ave", "stream_mile": null}}, {"type": "Feature", "geometry": {"type": "Point", "coordinates": [-74.138301, 40.810934]}, "properties": {"id": "10B-T104-P1", "name": "Park Ave", "stream_mile": null}}, {"type": "Feature", "geometry": {"type": "Point", "coordinates": [-74.148975, 40.649121]}, "properties": {"id": "10B-TNBB-P6", "name": "NB6", "stream_mile": null}}, {"type": "Feature", "geometry": {"type": "Point", "coordinates": [-74.165445, 40.745112]}, "properties": {"id": "10B-T054-P1", "name": "Bridge Street", "stream_mile": null}}, {"type": "Feature", "geometry": {"type": "Point", "coordinates": [-74.119786, 40.87977]}, "properties": {"id": "10B-T169-P1", "name": "Ackerman Ave", "stream_mile": null}}, {"type": "Feature", "geometry": {"type": "Point", "coordinates": [-74.08166, 40.888919]}, "properties": {"id": "10B-TSR3-P1", "name": "Saddle River HOT", "stream_mile": null}}, {"type": "Feature", "geometry": {"type": "Point", "coordinates": [-74.101594, 40.864082]}, "properties": {"id": "10B-TSR1-P1", "name": "Saddle River Ave", "stream_mile": null}}, {"type": "Feature", "geometry": {"type": "Point", "coordinates": [-74.128916, 40.684659]}, "properties": {"id": "10B-E01-C101", "name": "1.01", "stream_mile": null}}, {"type": "Feature", "geometry": {"type": "Point", "coordinates": [-74.125147, 40.689958]}, "properties": {"id": "10B-TNBB-P1", "name": "NB1", "stream_mile": null}}, {"type": "Feature", "geometry": {"type": "Point", "coordinates": [-74.125147, 40.689958]}, "properties": {"id": "10B-E01-C102", "name": "1.02", "stream_mile": null}}, {"type": "Feature", "geometry": {"type": "Point", "coordinates": [-74.119566, 40.698691]}, "properties": {"id": "10B-E01-C103", "name": "1.03", "stream_mile": null}}, {"type": "Feature", "geometry": {"type": "Point", "coordinates": [-74.119897, 40.706376]}, "properties": {"id": "10B-E01-C104", "name": "1.04", "stream_mile": null}}, {"type": "Feature", "geometry": {"type": "Point", "coordinates": [-74.119829, 40.706312]}, "properties": {"id": "10B-TNBB-P2", "name": "NB 2", "stream_mile": null}}, {"type": "Feature", "geometry": {"type": "Point", "coordinates": [-74.122581, 40.714576]}, "properties": {"id": "10B-E01-C105", "name": "1.05", "stream_mile": null}}, {"type": "Feature", "geometry": {"type": "Point", "coordinates": [-74.121, 40.722443]}, "properties": {"id": "10B-E01-C106", "name": "1.06", "stream_mile": null}}, {"type": "Feature", "geometry": {"type": "Point", "coordinates": [-74.121004, 40.722399]}, "properties": {"id": "10B-TNBB-P3", "name": "NB 3", "stream_mile": null}}, {"type": "Feature", "geometry": {"type": "Point", "coordinates": [-74.118515, 40.729141]}, "properties": {"id": "10B-E01-C107", "name": "1.07", "stream_mile": null}}, {"type": "Feature", "geometry": {"type": "Point", "coordinates": [-74.117149, 40.737157]}, "properties": {"id": "10B-E01-C108", "name": "1.08", "stream_mile": null}}, {"type": "Feature", "geometry": {"type": "Point", "coordinates": [-74.117156, 40.737171]}, "properties": {"id": "10B-TNBB-P4", "name": "NB4", "stream_mile": null}}, {"type": "Feature", "geometry": {"type": "Point", "coordinates": [-74.124031, 40.742225]}, "properties": {"id": "10B-E01-C109", "name": "1.09", "stream_mile": null}}, {"type": "Feature", "geometry": {"type": "Point", "coordinates": [-74.135032, 40.741476]}, "properties": {"id": "10B-E01-C110", "name": "1.10", "stream_mile": null}}, {"type": "Feature", "geometry": {"type": "Point", "coordinates": [-74.135057, 40.741495]}, "properties": {"id": "10B-TPRB-P1", "name": "PR1", "stream_mile": null}}, {"type": "Feature", "geometry": {"type": "Point", "coordinates": [-74.144333, 40.736575]}, "properties": {"id": "10B-E01-C111", "name": "1.11", "stream_mile": null}}, {"type": "Feature", "geometry": {"type": "Point", "coordinates": [-74.154034, 40.73379]}, "properties": {"id": "10B-E01-C112", "name": "1.12", "stream_mile": null}}, {"type": "Feature", "geometry": {"type": "Point", "coordinates": [-74.165282, 40.744526]}, "properties": {"id": "10B-E01-C113", "name": "1.13", "stream_mile": null}}, {"type": "Feature", "geometry": {"type": "Point", "coordinates": [-74.165329, 40.744513]}, "properties": {"id": "10B-TPRB-P2", "name": "PR2", "stream_mile": null}}, {"type": "Feature", "geometry": {"type": "Point", "coordinates": [-74.17251, 40.788934]}, "properties": {"id": "10B-T2R2-P1", "name": "Second HOT", "stream_mile": null}}, {"type": "Feature", "geometry": {"type": "Point", "coordinates": [-74.165347, 40.744474]}, "properties": {"id": "10B-E02-C201", "name": "2.01", "stream_mile": null}}, {"type": "Feature", "geometry": {"type": "Point", "coordinates": [-74.154376, 40.781209]}, "properties": {"id": "10B-T2R1-P1", "name": "Second River Washington Ave", "stream_mile": null}}, {"type": "Feature", "geometry": {"type": "Point", "coordinates": [-74.161015, 40.73486]}, "properties": {"id": "10B-E02-C202", "name": "2.02", "stream_mile": null}}, {"type": "Feature", "geometry": {"type": "Point", "coordinates": [-74.16085, 40.735235]}, "properties": {"id": "10B-TPRB-P3", "name": "PR3", "stream_mile": null}}, {"type": "Feature", "geometry": {"type": "Point", "coordinates": [-74.151733, 40.733558]}, "properties": {"id": "10B-E02-C203", "name": "2.03", "stream_mile": null}}, {"type": "Feature", "geometry": {"type": "Point", "coordinates": [-74.151714, 40.733567]}, "properties": {"id": "10B-TPRB-P4", "name": "PR4", "stream_mile": null}}, {"type": "Feature", "geometry": {"type": "Point", "coordinates": [-74.142648, 40.738609]}, "properties": {"id": "10B-E02-C204", "name": "2.04", "stream_mile": null}}, {"type": "Feature", "geometry": {"type": "Point", "coordinates": [-74.133866, 40.742125]}, "properties": {"id": "10B-E02-C205", "name": "2.05", "stream_mile": null}}, {"type": "Feature", "geometry": {"type": "Point", "coordinates": [-74.122182, 40.741709]}, "properties": {"id": "10B-E02-C206", "name": "2.06", "stream_mile": null}}, {"type": "Feature", "geometry": {"type": "Point", "coordinates": [-74.117414, 40.734276]}, "properties": {"id": "10B-E02-C207", "name": "2.07", "stream_mile": null}}, {"type": "Feature", "geometry": {"type": "Point", "coordinates": [-74.119431, 40.726174]}, "properties": {"id": "10B-E02-C208", "name": "2.08", "stream_mile": null}}, {"type": "Feature", "geometry": {"type": "Point", "coordinates": [-74.122498, 40.717858]}, "properties": {"id": "10B-E02-C209", "name": "2.09", "stream_mile": null}}, {"type": "Feature", "geometry": {"type": "Point", "coordinates": [-74.122397, 40.712692]}, "properties": {"id": "10B-E02-C210", "name": "2.10", "stream_mile": null}}, {"type": "Feature", "geometry": {"type": "Point", "coordinates": [-74.121249, 40.70901]}, "properties": {"id": "10B-E02-C211", "name": "2.11", "stream_mile": null}}, {"type": "Feature", "geometry": {"type": "Point", "coordinates": [-74.119731, 40.700685]}, "properties": {"id": "10B-E02-C212", "name": "2.12", "stream_mile": null}}, {"type": "Feature", "geometry": {"type": "Point", "coordinates": [-74.124716, 40.691675]}, "properties": {"id": "10B-E02-C213", "name": "2.13", "stream_mile": null}}, {"type": "Feature", "geometry": {"type": "Point", "coordinates": [-74.130316, 40.683826]}, "properties": {"id": "10B-E02-C214", "name": "2.14", "stream_mile": null}}, {"type": "Feature", "geometry": {"type": "Point", "coordinates": [-74.133698, 40.674792]}, "properties": {"id": "10B-E02-C215", "name": "2.15", "stream_mile": null}}, {"type": "Feature", "geometry": {"type": "Point", "coordinates": [-74.141515, 40.661775]}, "properties": {"id": "10B-E02-C216", "name": "2.16", "stream_mile": null}}, {"type": "Feature", "geometry": {"type": "Point", "coordinates": [-74.148782, 40.649491]}, "properties": {"id": "10B-E02-C217", "name": "2.17", "stream_mile": null}}, {"type": "Feature", "geometry": {"type": "Point", "coordinates": [-74.120366, 40.697475]}, "properties": {"id": "10B-E03-C301", "name": "3.01", "stream_mile": null}}, {"type": "Feature", "geometry": {"type": "Point", "coordinates": [-74.119698, 40.706391]}, "properties": {"id": "10B-E03-C302", "name": "3.02", "stream_mile": null}}, {"type": "Feature", "geometry": {"type": "Point", "coordinates": [-74.122467, 40.711808]}, "properties": {"id": "10B-E03-C303", "name": "3.03", "stream_mile": null}}, {"type": "Feature", "geometry": {"type": "Point", "coordinates": [-74.122315, 40.715774]}, "properties": {"id": "10B-E03-C304", "name": "3.04", "stream_mile": null}}, {"type": "Feature", "geometry": {"type": "Point", "coordinates": [-74.122, 40.719808]}, "properties": {"id": "10B-E03-C305", "name": "3.05", "stream_mile": null}}, {"type": "Feature", "geometry": {"type": "Point", "coordinates": [-74.11915, 40.727976]}, "properties": {"id": "10B-E03-C306", "name": "3.06", "stream_mile": null}}, {"type": "Feature", "geometry": {"type": "Point", "coordinates": [-74.117433, 40.734825]}, "properties": {"id": "10B-E03-C307", "name": "3.07", "stream_mile": null}}, {"type": "Feature", "geometry": {"type": "Point", "coordinates": [-74.125581, 40.742609]}, "properties": {"id": "10B-E03-C308", "name": "3.08", "stream_mile": null}}, {"type": "Feature", "geometry": {"type": "Point", "coordinates": [-74.13595, 40.741959]}, "properties": {"id": "10B-E03-C309", "name": "3.09", "stream_mile": null}}, {"type": "Feature", "geometry": {"type": "Point", "coordinates": [-74.144048, 40.736692]}, "properties": {"id": "10B-E03-C310", "name": "3.10", "stream_mile": null}}, {"type": "Feature", "geometry": {"type": "Point", "coordinates": [-74.153633, 40.733841]}, "properties": {"id": "10B-E03-C311", "name": "3.11", "stream_mile": null}}, {"type": "Feature", "geometry": {"type": "Point", "coordinates": [-74.163315, 40.738075]}, "properties": {"id": "10B-E03-C312", "name": "3.12", "stream_mile": null}}, {"type": "Feature", "geometry": {"type": "Point", "coordinates": [-74.184069, 40.646788]}, "properties": {"id": "N01-E01-TARK-P1", "name": "N01-TARK-P1", "stream_mile": null}}, {"type": "Feature", "geometry": {"type": "Point", "coordinates": [-74.128603, 40.644187]}, "properties": {"id": "N01-E01-TKVK-P1", "name": "N01-TKVK-P1", "stream_mile": null}}, {"type": "Feature", "geometry": {"type": "Point", "coordinates": [-74.147652, 40.655461]}, "properties": {"id": "N01-E01-TNBS-P1", "name": "N01-TNBS-P1", "stream_mile": null}}, {"type": "Feature", "geometry": {"type": "Point", "coordinates": [-74.124562, 40.693109]}, "properties": {"id": "N01-E01-TNBN-P1", "name": "N01-TNBN-P1", "stream_mile": null}}, {"type": "Feature", "geometry": {"type": "Point", "coordinates": [-74.090948, 40.738353]}, "properties": {"id": "N01-E01-THKN-P1", "name": "N01-THKN-P1", "stream_mile": null}}, {"type": "Feature", "geometry": {"type": "Point", "coordinates": [-74.153152, 40.733524]}, "properties": {"id": "10A-E01-T042-P1", "name": "10A-T042-P1", "stream_mile": null}}, {"type": "Feature", "geometry": {"type": "Point", "coordinates": [-74.117988, 40.730465]}, "properties": {"id": "10A-E01-T014-P3", "name": "10A-T014-P3", "stream_mile": null}}, {"type": "Feature", "geometry": {"type": "Point", "coordinates": [-74.138786, 40.808784]}, "properties": {"id": "10A-E01-T102-P1", "name": "10A-T102-P1", "stream_mile": null}}, {"type": "Feature", "geometry": {"type": "Point", "coordinates": [-74.160586, 40.762435]}, "properties": {"id": "10A-E01-T067-P3", "name": "10A-T067-P3", "stream_mile": null}}, {"type": "Feature", "geometry": {"type": "Point", "coordinates": [-74.129956, 40.884472]}, "properties": {"id": "10A-E02-T175-P1", "name": "10A-T175-P1", "stream_mile": null}}, {"type": "Feature", "geometry": {"type": "Point", "coordinates": [-74.12977, 40.884976]}, "properties": {"id": "10A-E02-T175-P2", "name": "10A-T175-P2", "stream_mile": null}}, {"type": "Feature", "geometry": {"type": "Point", "coordinates": [-74.129247, 40.885446]}, "properties": {"id": "10A-E02-T175-P3", "name": "10A-T175-P3", "stream_mile": null}}, {"type": "Feature", "geometry": {"type": "Point", "coordinates": [-74.129096, 40.885625]}, "properties": {"id": "10A-E02-T175-P4", "name": "10A-T175-P4", "stream_mile": null}}, {"type": "Feature", "geometry": {"type": "Point", "coordinates": [-74.120142, 40.848659]}, "properties": {"id": "10A-E01-T135-P3", "name": "10A-T135-P3", "stream_mile": null}}, {"type": "Feature", "geometry": {"type": "Point", "coordinates": [-74.124572, 40.693122]}, "properties": {"id": "N01-E04-TNBN-P1", "name": "N01-TNBN-P1", "stream_mile": null}}, {"type": "Feature", "geometry": {"type": "Point", "coordinates": [-74.120617, 40.84883]}, "properties": {"id": "10A-E04-T135-P1", "name": "10A-T135-P1", "stream_mile": null}}, {"type": "Feature", "geometry": {"type": "Point", "coordinates": [-74.090582, 40.737886]}, "properties": {"id": "N01-E04-THKN-P2", "name": "N01-THKN-P2", "stream_mile": null}}, {"type": "Feature", "geometry": {"type": "Point", "coordinates": [-74.120897, 40.691717]}, "properties": {"id": "N01-E04-TNBN-P2", "name": "N01-TNBN-P2", "stream_mile": null}}, {"type": "Feature", "geometry": {"type": "Point", "coordinates": [-74.120341, 40.848732]}, "properties": {"id": "10A-E04-T135-P2", "name": "10A-T135-P2", "stream_mile": null}}, {"type": "Feature", "geometry": {"type": "Point", "coordinates": [-74.090234, 40.737428]}, "properties": {"id": "N01-E04-THKN-P3", "name": "N01-THKN-P3", "stream_mile": null}}, {"type": "Feature", "geometry": {"type": "Point", "coordinates": [-74.11718, 40.690389]}, "properties": {"id": "N01-E04-TNBN-P3", "name": "N01-TNBN-P3", "stream_mile": null}}, {"type": "Feature", "geometry": {"type": "Point", "coordinates": [-74.120168, 40.848654]}, "properties": {"id": "10A-E04-T135-P3", "name": "10A-T135-P3", "stream_mile": null}}, {"type": "Feature", "geometry": {"type": "Point", "coordinates": [-74.147641, 40.655495]}, "properties": {"id": "N01-E04-TNBS-P1", "name": "N01-TNBS-P1", "stream_mile": null}}, {"type": "Feature", "geometry": {"type": "Point", "coordinates": [-74.118728, 40.730636]}, "properties": {"id": "10A-E04-T014-P1", "name": "10A-T014-P1", "stream_mile": null}}, {"type": "Feature", "geometry": {"type": "Point", "coordinates": [-74.138819, 40.808788]}, "properties": {"id": "10A-E04-T102-P1", "name": "10A-T102-P1", "stream_mile": null}}, {"type": "Feature", "geometry": {"type": "Point", "coordinates": [-74.145663, 40.654706]}, "properties": {"id": "N01-E04-TNBS-P2", "name": "N01-TNBS-P2", "stream_mile": null}}, {"type": "Feature", "geometry": {"type": "Point", "coordinates": [-74.118323, 40.730506]}, "properties": {"id": "10A-E04-T014-P2", "name": "10A-T014-P2", "stream_mile": null}}, {"type": "Feature", "geometry": {"type": "Point", "coordinates": [-74.138622, 40.808793]}, "properties": {"id": "10A-E04-T102-P3", "name": "10A-T102-P3", "stream_mile": null}}, {"type": "Feature", "geometry": {"type": "Point", "coordinates": [-74.143559, 40.653995]}, "properties": {"id": "N01-E04-TNBS-P3", "name": "N01-TNBS-P3", "stream_mile": null}}, {"type": "Feature", "geometry": {"type": "Point", "coordinates": [-74.138622, 40.808793]}, "properties": {"id": "10A-E04-T102-P2", "name": "10A-T102-P2", "stream_mile": null}}, {"type": "Feature", "geometry": {"type": "Point", "coordinates": [-74.117977, 40.730437]}, "properties": {"id": "10A-E04-T014-P3", "name": "10A-T014-P3", "stream_mile": null}}, {"type": "Feature", "geometry": {"type": "Point", "coordinates": [-74.128683, 40.644228]}, "properties": {"id": "N01-E04-TKVK-P1", "name": "N01-TKVK-P1", "stream_mile": null}}, {"type": "Feature", "geometry": {"type": "Point", "coordinates": [-74.153132, 40.733518]}, "properties": {"id": "10A-E04-T042-P1", "name": "10A-T042-P1", "stream_mile": null}}, {"type": "Feature", "geometry": {"type": "Point", "coordinates": [-74.153194, 40.733747]}, "properties": {"id": "10A-E04-T042-P2", "name": "10A-T042-P2", "stream_mile": null}}, {"type": "Feature", "geometry": {"type": "Point", "coordinates": [-74.128677, 40.64307]}, "properties": {"id": "N01-E04-TKVK-P2", "name": "N01-TKVK-P2", "stream_mile": null}}, {"type": "Feature", "geometry": {"type": "Point", "coordinates": [-74.153206, 40.733945]}, "properties": {"id": "10A-E04-T042-P3", "name": "10A-T042-P3", "stream_mile": null}}, {"type": "Feature", "geometry": {"type": "Point", "coordinates": [-74.161015, 40.762709]}, "properties": {"id": "10A-E04-T067-P1", "name": "10A-T067-P1", "stream_mile": null}}, {"type": "Feature", "geometry": {"type": "Point", "coordinates": [-74.12866, 40.642031]}, "properties": {"id": "N01-E04-TKVK-P3", "name": "N01-TKVK-P3", "stream_mile": null}}, {"type": "Feature", "geometry": {"type": "Point", "coordinates": [-74.160812, 40.762581]}, "properties": {"id": "10A-E04-T067-P2", "name": "10A-T067-P2", "stream_mile": null}}, {"type": "Feature", "geometry": {"type": "Point", "coordinates": [-74.160616, 40.762438]}, "properties": {"id": "10A-E04-T067-P3", "name": "10A-T067-P3", "stream_mile": null}}, {"type": "Feature", "geometry": {"type": "Point", "coordinates": [-74.18403, 40.646788]}, "properties": {"id": "N01-E04-TARK-P1", "name": "N01-TARK-P1", "stream_mile": null}}, {"type": "Feature", "geometry": {"type": "Point", "coordinates": [-74.183756, 40.645869]}, "properties": {"id": "N01-E04-TARK-P2", "name": "N01-TARK-P2", "stream_mile": null}}, {"type": "Feature", "geometry": {"type": "Point", "coordinates": [-74.183442, 40.645114]}, "properties": {"id": "N01-E04-TARK-P3", "name": "N01-TARK-P3", "stream_mile": null}}, {"type": "Feature", "geometry": {"type": "Point", "coordinates": [-74.090938, 40.73835]}, "properties": {"id": "N01-E03-THKN-P1", "name": "N01-THKN-P1", "stream_mile": null}}, {"type": "Feature", "geometry": {"type": "Point", "coordinates": [-74.124588, 40.693133]}, "properties": {"id": "N01-E03-TNBN-P1", "name": "N01-TNBN-P1", "stream_mile": null}}, {"type": "Feature", "geometry": {"type": "Point", "coordinates": [-74.090642, 40.737915]}, "properties": {"id": "N01-E03-THKN-P2", "name": "N01-THKN-P2", "stream_mile": null}}, {"type": "Feature", "geometry": {"type": "Point", "coordinates": [-74.120168, 40.848654]}, "properties": {"id": "10A-E03-T135-P3", "name": "10A-T135-P3", "stream_mile": null}}, {"type": "Feature", "geometry": {"type": "Point", "coordinates": [-74.090225, 40.737422]}, "properties": {"id": "N01-E03-THKN-P3", "name": "N01-THKN-P3", "stream_mile": null}}, {"type": "Feature", "geometry": {"type": "Point", "coordinates": [-74.120931, 40.691725]}, "properties": {"id": "N01-E03-TNBN-P2", "name": "N01-TNBN-P2", "stream_mile": null}}, {"type": "Feature", "geometry": {"type": "Point", "coordinates": [-74.120345, 40.848725]}, "properties": {"id": "10A-E03-T135-P2", "name": "10A-T135-P2", "stream_mile": null}}, {"type": "Feature", "geometry": {"type": "Point", "coordinates": [-74.117194, 40.690388]}, "properties": {"id": "N01-E03-TNBN-P3", "name": "N01-TNBN-P3", "stream_mile": null}}, {"type": "Feature", "geometry": {"type": "Point", "coordinates": [-74.120612, 40.848828]}, "properties": {"id": "10A-E03-T135-P1", "name": "10A-T135-P1", "stream_mile": null}}, {"type": "Feature", "geometry": {"type": "Point", "coordinates": [-74.118713, 40.730629]}, "properties": {"id": "10A-E03-T014-P1", "name": "10A-T014-P1", "stream_mile": null}}, {"type": "Feature", "geometry": {"type": "Point", "coordinates": [-74.138838, 40.808795]}, "properties": {"id": "10A-E03-T102-P1", "name": "10A-T102-P1", "stream_mile": null}}, {"type": "Feature", "geometry": {"type": "Point", "coordinates": [-74.147634, 40.655471]}, "properties": {"id": "N01-E03-TNBS-P1", "name": "N01-TNBS-P1", "stream_mile": null}}, {"type": "Feature", "geometry": {"type": "Point", "coordinates": [-74.118271, 40.730518]}, "properties": {"id": "10A-E03-T014-P2", "name": "10A-T014-P2", "stream_mile": null}}, {"type": "Feature", "geometry": {"type": "Point", "coordinates": [-74.13864, 40.808797]}, "properties": {"id": "10A-E03-T102-P2", "name": "10A-T102-P2", "stream_mile": null}}, {"type": "Feature", "geometry": {"type": "Point", "coordinates": [-74.117957, 40.730438]}, "properties": {"id": "10A-E03-T014-P3", "name": "10A-T014-P3", "stream_mile": null}}, {"type": "Feature", "geometry": {"type": "Point", "coordinates": [-74.145622, 40.65469]}, "properties": {"id": "N01-E03-TNBS-P2", "name": "N01-TNBS-P2", "stream_mile": null}}, {"type": "Feature", "geometry": {"type": "Point", "coordinates": [-74.138423, 40.808786]}, "properties": {"id": "10A-E03-T102-P3", "name": "10A-T102-P3", "stream_mile": null}}, {"type": "Feature", "geometry": {"type": "Point", "coordinates": [-74.143572, 40.653968]}, "properties": {"id": "N01-E03-TNBS-P3", "name": "N01-TNBS-P3", "stream_mile": null}}, {"type": "Feature", "geometry": {"type": "Point", "coordinates": [-74.153167, 40.733521]}, "properties": {"id": "10A-E03-T042-P1", "name": "10A-T042-P1", "stream_mile": null}}, {"type": "Feature", "geometry": {"type": "Point", "coordinates": [-74.15316, 40.733743]}, "properties": {"id": "10A-E03-T042-P2", "name": "10A-T042-P2", "stream_mile": null}}, {"type": "Feature", "geometry": {"type": "Point", "coordinates": [-74.128659, 40.644215]}, "properties": {"id": "N01-E03-TKVK-P1", "name": "N01-TKVK-P1", "stream_mile": null}}, {"type": "Feature", "geometry": {"type": "Point", "coordinates": [-74.153188, 40.733939]}, "properties": {"id": "10A-E03-T042-P3", "name": "10A-T042-P3", "stream_mile": null}}, {"type": "Feature", "geometry": {"type": "Point", "coordinates": [-74.16102, 40.762715]}, "properties": {"id": "10A-E03-T067-P1", "name": "10A-T067-P1", "stream_mile": null}}, {"type": "Feature", "geometry": {"type": "Point", "coordinates": [-74.128656, 40.643052]}, "properties": {"id": "N01-E03-TKVK-P2", "name": "N01-TKVK-P2", "stream_mile": null}}, {"type": "Feature", "geometry": {"type": "Point", "coordinates": [-74.128664, 40.64204]}, "properties": {"id": "N01-E03-TKVK-P3", "name": "N01-TKVK-P3", "stream_mile": null}}, {"type": "Feature", "geometry": {"type": "Point", "coordinates": [-74.160806, 40.762573]}, "properties": {"id": "10A-E03-T067-P2", "name": "10A-T067-P2", "stream_mile": null}}, {"type": "Feature", "geometry": {"type": "Point", "coordinates": [-74.160632, 40.762431]}, "properties": {"id": "10A-E03-T067-P3", "name": "10A-T067-P3", "stream_mile": null}}, {"type": "Feature", "geometry": {"type": "Point", "coordinates": [-74.184067, 40.646776]}, "properties": {"id": "N01-E03-TARK-P1", "name": "N01-TARK-P1", "stream_mile": null}}, {"type": "Feature", "geometry": {"type": "Point", "coordinates": [-74.18379, 40.645889]}, "properties": {"id": "N01-E03-TARK-P2", "name": "N01-TARK-P2", "stream_mile": null}}, {"type": "Feature", "geometry": {"type": "Point", "coordinates": [-74.183483, 40.645116]}, "properties": {"id": "N01-E03-TARK-P3", "name": "N01-TARK-P3", "stream_mile": null}}, {"type": "Feature", "geometry": {"type": "Point", "coordinates": [-74.090952, 40.738348]}, "properties": {"id": "N01-E04-THKN-P1", "name": "N01-THKN-P1", "stream_mile": null}}, {"type": "Feature", "geometry": {"type": "Point", "coordinates": [-74.124554, 40.693095]}, "properties": {"id": "N01-E09-TNBN-P1", "name": "N01-TNBN-P1", "stream_mile": null}}, {"type": "Feature", "geometry": {"type": "Point", "coordinates": [-74.124548, 40.693112]}, "properties": {"id": "N01-E05-TNBN-P1", "name": "N01-TNBN-P1", "stream_mile": null}}, {"type": "Feature", "geometry": {"type": "Point", "coordinates": [-74.090902, 40.738334]}, "properties": {"id": "N01-E09-THKN-P1", "name": "N01-THKN-P1", "stream_mile": null}}, {"type": "Feature", "geometry": {"type": "Point", "coordinates": [-74.184042, 40.646747]}, "properties": {"id": "N01-E05-TARK-P1", "name": "N01-TARK-P1", "stream_mile": null}}, {"type": "Feature", "geometry": {"type": "Point", "coordinates": [-74.184032, 40.646762]}, "properties": {"id": "N01-E09-TARK-P1", "name": "N01-TARK-P1", "stream_mile": null}}, {"type": "Feature", "geometry": {"type": "Point", "coordinates": [-74.090886, 40.738364]}, "properties": {"id": "N01-E05-THKN-P1", "name": "N01-THKN-P1", "stream_mile": null}}, {"type": "Feature", "geometry": {"type": "Point", "coordinates": [-74.147623, 40.655452]}, "properties": {"id": "N01-E09-TNBS-P1", "name": "N01-TNBS-P1", "stream_mile": null}}, {"type": "Feature", "geometry": {"type": "Point", "coordinates": [-74.128663, 40.644203]}, "properties": {"id": "N01-E05-TKVK-P1", "name": "N01-TKVK-P1", "stream_mile": null}}, {"type": "Feature", "geometry": {"type": "Point", "coordinates": [-74.128642, 40.644197]}, "properties": {"id": "N01-E09-TKVK-P1", "name": "N01-TKVK-P1", "stream_mile": null}}, {"type": "Feature", "geometry": {"type": "Point", "coordinates": [-74.14762, 40.655476]}, "properties": {"id": "N01-E05-TNBS-P1", "name": "N01-TNBS-P1", "stream_mile": null}}, {"type": "Feature", "geometry": {"type": "Point", "coordinates": [-74.13878, 40.808813]}, "properties": {"id": "10A-E09-T102-P1", "name": "10A-T102-P1", "stream_mile": null}}, {"type": "Feature", "geometry": {"type": "Point", "coordinates": [-74.160598, 40.762432]}, "properties": {"id": "10A-E05-T067-P3", "name": "10A-T067-P3", "stream_mile": null}}, {"type": "Feature", "geometry": {"type": "Point", "coordinates": [-74.160596, 40.762463]}, "properties": {"id": "10A-E09-T067-P3", "name": "10A-T067-P3", "stream_mile": null}}, {"type": "Feature", "geometry": {"type": "Point", "coordinates": [-74.12013, 40.848662]}, "properties": {"id": "10A-E05-T135-P3", "name": "10A-T135-P3", "stream_mile": null}}, {"type": "Feature", "geometry": {"type": "Point", "coordinates": [-74.120138, 40.848661]}, "properties": {"id": "10A-E09-T135-P3", "name": "10A-T135-P3", "stream_mile": null}}, {"type": "Feature", "geometry": {"type": "Point", "coordinates": [-74.138788, 40.808786]}, "properties": {"id": "10A-E05-T102-P1", "name": "10A-T102-P1", "stream_mile": null}}, {"type": "Feature", "geometry": {"type": "Point", "coordinates": [-74.153153, 40.733536]}, "properties": {"id": "10A-E09-T042-P1", "name": "10A-T042-P1", "stream_mile": null}}, {"type": "Feature", "geometry": {"type": "Point", "coordinates": [-74.117993, 40.730439]}, "properties": {"id": "10A-E05-T014-P3", "name": "10A-T014-P3", "stream_mile": null}}, {"type": "Feature", "geometry": {"type": "Point", "coordinates": [-74.11798, 40.730465]}, "properties": {"id": "10A-E09-T014-P3", "name": "10A-T014-P3", "stream_mile": null}}, {"type": "Feature", "geometry": {"type": "Point", "coordinates": [-74.15314, 40.733531]}, "properties": {"id": "10A-E05-T042-P1", "name": "10A-T042-P1", "stream_mile": null}}, {"type": "Feature", "geometry": {"type": "Point", "coordinates": [-74.120628, 40.848834]}, "properties": {"id": "10A-E08-T135-P1", "name": "10A-T135-P1", "stream_mile": null}}, {"type": "Feature", "geometry": {"type": "Point", "coordinates": [-74.124556, 40.693103]}, "properties": {"id": "N01-E08-TNBN-P1", "name": "N01-TNBN-P1", "stream_mile": null}}, {"type": "Feature", "geometry": {"type": "Point", "coordinates": [-74.120357, 40.84873]}, "properties": {"id": "10A-E08-T135-P2", "name": "10A-T135-P2", "stream_mile": null}}, {"type": "Feature", "geometry": {"type": "Point", "coordinates": [-74.120174, 40.848644]}, "properties": {"id": "10A-E08-T135-P3", "name": "10A-T135-P3", "stream_mile": null}}, {"type": "Feature", "geometry": {"type": "Point", "coordinates": [-74.120906, 40.691692]}, "properties": {"id": "N01-E08-TNBN-P2", "name": "N01-TNBN-P2", "stream_mile": null}}, {"type": "Feature", "geometry": {"type": "Point", "coordinates": [-74.090921, 40.738376]}, "properties": {"id": "N01-E08-THKN-P1", "name": "N01-THKN-P1", "stream_mile": null}}, {"type": "Feature", "geometry": {"type": "Point", "coordinates": [-74.117166, 40.690376]}, "properties": {"id": "N01-E08-TNBN-P3", "name": "N01-TNBN-P3", "stream_mile": null}}, {"type": "Feature", "geometry": {"type": "Point", "coordinates": [-74.090581, 40.737877]}, "properties": {"id": "N01-E08-THKN-P2", "name": "N01-THKN-P2", "stream_mile": null}}, {"type": "Feature", "geometry": {"type": "Point", "coordinates": [-74.138834, 40.808777]}, "properties": {"id": "10A-E08-T102-P1", "name": "10A-T102-P1", "stream_mile": null}}, {"type": "Feature", "geometry": {"type": "Point", "coordinates": [-74.138645, 40.80879]}, "properties": {"id": "10A-E08-T102-P2", "name": "10A-T102-P2", "stream_mile": null}}, {"type": "Feature", "geometry": {"type": "Point", "coordinates": [-74.090278, 40.737438]}, "properties": {"id": "N01-E08-THKN-P3", "name": "N01-THKN-P3", "stream_mile": null}}, {"type": "Feature", "geometry": {"type": "Point", "coordinates": [-74.147631, 40.655472]}, "properties": {"id": "N01-E08-TNBS-P1", "name": "N01-TNBS-P1", "stream_mile": null}}, {"type": "Feature", "geometry": {"type": "Point", "coordinates": [-74.138427, 40.808798]}, "properties": {"id": "10A-E08-T102-P3", "name": "10A-T102-P3", "stream_mile": null}}, {"type": "Feature", "geometry": {"type": "Point", "coordinates": [-74.145632, 40.654699]}, "properties": {"id": "N01-E08-TNBS-P2", "name": "N01-TNBS-P2", "stream_mile": null}}, {"type": "Feature", "geometry": {"type": "Point", "coordinates": [-74.143557, 40.653969]}, "properties": {"id": "N01-E08-TNBS-P3", "name": "N01-TNBS-P3", "stream_mile": null}}, {"type": "Feature", "geometry": {"type": "Point", "coordinates": [-74.118722, 40.730586]}, "properties": {"id": "10A-E08-T014-P1", "name": "10A-T014-P1", "stream_mile": null}}, {"type": "Feature", "geometry": {"type": "Point", "coordinates": [-74.161031, 40.762724]}, "properties": {"id": "10A-E08-T067-P1", "name": "10A-T067-P1", "stream_mile": null}}, {"type": "Feature", "geometry": {"type": "Point", "coordinates": [-74.118286, 40.730501]}, "properties": {"id": "10A-E08-T014-P2", "name": "10A-T014-P2", "stream_mile": null}}, {"type": "Feature", "geometry": {"type": "Point", "coordinates": [-74.117996, 40.730393]}, "properties": {"id": "10A-E08-T014-P3", "name": "10A-T014-P3", "stream_mile": null}}, {"type": "Feature", "geometry": {"type": "Point", "coordinates": [-74.128655, 40.64422]}, "properties": {"id": "N01-E08-TKVK-P1", "name": "N01-TKVK-P1", "stream_mile": null}}, {"type": "Feature", "geometry": {"type": "Point", "coordinates": [-74.160807, 40.762579]}, "properties": {"id": "10A-E08-T067-P2", "name": "10A-T067-P2", "stream_mile": null}}, {"type": "Feature", "geometry": {"type": "Point", "coordinates": [-74.160636, 40.762438]}, "properties": {"id": "10A-E08-T067-P3", "name": "10A-T067-P3", "stream_mile": null}}, {"type": "Feature", "geometry": {"type": "Point", "coordinates": [-74.128672, 40.643052]}, "properties": {"id": "N01-E08-TKVK-P2", "name": "N01-TKVK-P2", "stream_mile": null}}, {"type": "Feature", "geometry": {"type": "Point", "coordinates": [-74.153183, 40.733485]}, "properties": {"id": "10A-E08-T042-P1", "name": "10A-T042-P1", "stream_mile": null}}, {"type": "Feature", "geometry": {"type": "Point", "coordinates": [-74.153182, 40.733709]}, "properties": {"id": "10A-E08-T042-P2", "name": "10A-T042-P2", "stream_mile": null}}, {"type": "Feature", "geometry": {"type": "Point", "coordinates": [-74.128666, 40.642044]}, "properties": {"id": "N01-E08-TKVK-P3", "name": "N01-TKVK-P3", "stream_mile": null}}, {"type": "Feature", "geometry": {"type": "Point", "coordinates": [-74.153202, 40.733955]}, "properties": {"id": "10A-E08-T042-P3", "name": "10A-T042-P3", "stream_mile": null}}, {"type": "Feature", "geometry": {"type": "Point", "coordinates": [-74.184049, 40.646776]}, "properties": {"id": "N01-E08-TARK-P1", "name": "N01-TARK-P1", "stream_mile": null}}, {"type": "Feature", "geometry": {"type": "Point", "coordinates": [-74.183759, 40.645899]}, "properties": {"id": "N01-E08-TARK-P2", "name": "N01-TARK-P2", "stream_mile": null}}, {"type": "Feature", "geometry": {"type": "Point", "coordinates": [-74.183463, 40.645104]}, "properties": {"id": "N01-E08-TARK-P3", "name": "N01-TARK-P3", "stream_mile": null}}, {"type": "Feature", "geometry": {"type": "Point", "coordinates": [-74.1206, 40.848842]}, "properties": {"id": "10A-E07-T135-P1", "name": "10A-T135-P1", "stream_mile": null}}, {"type": "Feature", "geometry": {"type": "Point", "coordinates": [-74.120354, 40.848725]}, "properties": {"id": "10A-E07-T135-P2", "name": "10A-T135-P2", "stream_mile": null}}, {"type": "Feature", "geometry": {"type": "Point", "coordinates": [-74.120168, 40.848652]}, "properties": {"id": "10A-E07-T135-P3", "name": "10A-T135-P3", "stream_mile": null}}, {"type": "Feature", "geometry": {"type": "Point", "coordinates": [-74.124574, 40.693103]}, "properties": {"id": "N01-E07-TNBN-P1", "name": "N01-TNBN-P1", "stream_mile": null}}, {"type": "Feature", "geometry": {"type": "Point", "coordinates": [-74.118736, 40.730636]}, "properties": {"id": "10A-E07-T014-P1", "name": "10A-T014-P1", "stream_mile": null}}, {"type": "Feature", "geometry": {"type": "Point", "coordinates": [-74.090907, 40.738345]}, "properties": {"id": "N01-E07-THKN-P1", "name": "N01-THKN-P1", "stream_mile": null}}, {"type": "Feature", "geometry": {"type": "Point", "coordinates": [-74.118282, 40.730486]}, "properties": {"id": "10A-E07-T014-P2", "name": "10A-T014-P2", "stream_mile": null}}, {"type": "Feature", "geometry": {"type": "Point", "coordinates": [-74.138826, 40.808797]}, "properties": {"id": "10A-E07-T102-P1", "name": "10A-T102-P1", "stream_mile": null}}, {"type": "Feature", "geometry": {"type": "Point", "coordinates": [-74.11801, 40.73045]}, "properties": {"id": "10A-E07-T014-P3", "name": "10A-T014-P3", "stream_mile": null}}, {"type": "Feature", "geometry": {"type": "Point", "coordinates": [-74.090583, 40.737891]}, "properties": {"id": "N01-E07-THKN-P2", "name": "N01-THKN-P2", "stream_mile": null}}, {"type": "Feature", "geometry": {"type": "Point", "coordinates": [-74.138619, 40.808785]}, "properties": {"id": "10A-E07-T102-P2", "name": "10A-T102-P2", "stream_mile": null}}, {"type": "Feature", "geometry": {"type": "Point", "coordinates": [-74.120886, 40.691693]}, "properties": {"id": "N01-E07-TNBN-P2", "name": "N01-TNBN-P2", "stream_mile": null}}, {"type": "Feature", "geometry": {"type": "Point", "coordinates": [-74.090266, 40.737399]}, "properties": {"id": "N01-E07-THKN-P3", "name": "N01-THKN-P3", "stream_mile": null}}, {"type": "Feature", "geometry": {"type": "Point", "coordinates": [-74.138425, 40.808791]}, "properties": {"id": "10A-E07-T102-P3", "name": "10A-T102-P3", "stream_mile": null}}, {"type": "Feature", "geometry": {"type": "Point", "coordinates": [-74.117171, 40.690386]}, "properties": {"id": "N01-E07-TNBN-P3", "name": "N01-TNBN-P3", "stream_mile": null}}, {"type": "Feature", "geometry": {"type": "Point", "coordinates": [-74.153155, 40.733514]}, "properties": {"id": "10A-E07-T042-P1", "name": "10A-T042-P1", "stream_mile": null}}, {"type": "Feature", "geometry": {"type": "Point", "coordinates": [-74.153157, 40.733742]}, "properties": {"id": "10A-E07-T042-P2", "name": "10A-T042-P2", "stream_mile": null}}, {"type": "Feature", "geometry": {"type": "Point", "coordinates": [-74.153231, 40.733961]}, "properties": {"id": "10A-E07-T042-P3", "name": "10A-T042-P3", "stream_mile": null}}, {"type": "Feature", "geometry": {"type": "Point", "coordinates": [-74.161011, 40.762726]}, "properties": {"id": "10A-E07-T067-P1", "name": "10A-T067-P1", "stream_mile": null}}, {"type": "Feature", "geometry": {"type": "Point", "coordinates": [-74.147629, 40.655479]}, "properties": {"id": "N01-E07-TNBS-P1", "name": "N01-TNBS-P1", "stream_mile": null}}, {"type": "Feature", "geometry": {"type": "Point", "coordinates": [-74.160835, 40.762582]}, "properties": {"id": "10A-E07-T067-P2", "name": "10A-T067-P2", "stream_mile": null}}, {"type": "Feature", "geometry": {"type": "Point", "coordinates": [-74.160633, 40.762437]}, "properties": {"id": "10A-E07-T067-P3", "name": "10A-T067-P3", "stream_mile": null}}, {"type": "Feature", "geometry": {"type": "Point", "coordinates": [-74.143556, 40.65396]}, "properties": {"id": "N01-E07-TNBS-P3", "name": "N01-TNBS-P3", "stream_mile": null}}, {"type": "Feature", "geometry": {"type": "Point", "coordinates": [-74.145623, 40.654695]}, "properties": {"id": "N01-E07-TNBS-P2", "name": "N01-TNBS-P2", "stream_mile": null}}, {"type": "Feature", "geometry": {"type": "Point", "coordinates": [-74.128674, 40.64422]}, "properties": {"id": "N01-E07-TKVK-P1", "name": "N01-TKVK-P1", "stream_mile": null}}, {"type": "Feature", "geometry": {"type": "Point", "coordinates": [-74.128663, 40.643044]}, "properties": {"id": "N01-E07-TKVK-P2", "name": "N01-TKVK-P2", "stream_mile": null}}, {"type": "Feature", "geometry": {"type": "Point", "coordinates": [-74.128653, 40.642037]}, "properties": {"id": "N01-E07-TKVK-P3", "name": "N01-TKVK-P3", "stream_mile": null}}, {"type": "Feature", "geometry": {"type": "Point", "coordinates": [-74.184052, 40.646779]}, "properties": {"id": "N01-E07-TARK-P1", "name": "N01-TARK-P1", "stream_mile": null}}, {"type": "Feature", "geometry": {"type": "Point", "coordinates": [-74.183755, 40.645899]}, "properties": {"id": "N01-E07-TARK-P2", "name": "N01-TARK-P2", "stream_mile": null}}, {"type": "Feature", "geometry": {"type": "Point", "coordinates": [-74.183458, 40.645119]}, "properties": {"id": "N01-E07-TARK-P3", "name": "N01-TARK-P3", "stream_mile": null}}, {"type": "Feature", "geometry": {"type": "Point", "coordinates": [-74.129952, 40.884473]}, "properties": {"id": "10A-E06-T175-P1", "name": "10A-T175-P1", "stream_mile": null}}, {"type": "Feature", "geometry": {"type": "Point", "coordinates": [-74.12981, 40.885004]}, "properties": {"id": "10A-E06-T175-P2", "name": "10A-T175-P2", "stream_mile": null}}, {"type": "Feature", "geometry": {"type": "Point", "coordinates": [-74.12927, 40.885414]}, "properties": {"id": "10A-E06-T175-P3", "name": "10A-T175-P3", "stream_mile": null}}, {"type": "Feature", "geometry": {"type": "Point", "coordinates": [-74.129075, 40.885609]}, "properties": {"id": "10A-E06-T175-P4", "name": "10A-T175-P4", "stream_mile": null}}, {"type": "Feature", "geometry": {"type": "Point", "coordinates": [-74.129814, 40.885003]}, "properties": {"id": "10A-E05-T175-P2", "name": "10A-T175-P2", "stream_mile": null}}, {"type": "Feature", "geometry": {"type": "Point", "coordinates": [-74.133019, 40.826007]}, "properties": {"id": "10C-T3R1-P1", "name": "Third River Road", "stream_mile": null}}, {"type": "Feature", "geometry": {"type": "Point", "coordinates": [-74.154376, 40.781209]}, "properties": {"id": "10C-T2R1-P1", "name": "Second River Washington Ave", "stream_mile": null}}, {"type": "Feature", "geometry": {"type": "Point", "coordinates": [-74.119771, 40.879729]}, "properties": {"id": "10C-T169-P2", "name": NaN, "stream_mile": null}}, {"type": "Feature", "geometry": {"type": "Point", "coordinates": [-74.119786, 40.87977]}, "properties": {"id": "10C-T169-P1", "name": "Ackerman Ave", "stream_mile": null}}, {"type": "Feature", "geometry": {"type": "Point", "coordinates": [-74.089066, 40.873522]}, "properties": {"id": "10C-TSR2-P1", "name": NaN, "stream_mile": null}}, {"type": "Feature", "geometry": {"type": "Point", "coordinates": [-74.138792, 40.808799]}, "properties": {"id": "10A-E14-T102-P1", "name": "10A-T102-P1", "stream_mile": null}}, {"type": "Feature", "geometry": {"type": "Point", "coordinates": [-74.160612, 40.762419]}, "properties": {"id": "10A-E10-T067-P3", "name": "10A-T067-P3", "stream_mile": null}}, {"type": "Feature", "geometry": {"type": "Point", "coordinates": [-74.160608, 40.762448]}, "properties": {"id": "10A-E14-T067-P3", "name": "10A-T067-P3", "stream_mile": null}}, {"type": "Feature", "geometry": {"type": "Point", "coordinates": [-74.120138, 40.848664]}, "properties": {"id": "10A-E10-T135-P3", "name": "10A-T135-P3", "stream_mile": null}}, {"type": "Feature", "geometry": {"type": "Point", "coordinates": [-74.120143, 40.848662]}, "properties": {"id": "10A-E14-T135-P3", "name": "10A-T135-P3", "stream_mile": null}}, {"type": "Feature", "geometry": {"type": "Point", "coordinates": [-74.138813, 40.808806]}, "properties": {"id": "10A-E10-T102-P1", "name": "10A-T102-P1", "stream_mile": null}}, {"type": "Feature", "geometry": {"type": "Point", "coordinates": [-74.117972, 40.730461]}, "properties": {"id": "10A-E10-T014-P3", "name": "10A-T014-P3", "stream_mile": null}}, {"type": "Feature", "geometry": {"type": "Point", "coordinates": [-74.117942, 40.730472]}, "properties": {"id": "10A-E14-T014-P3", "name": "10A-T014-P3", "stream_mile": null}}, {"type": "Feature", "geometry": {"type": "Point", "coordinates": [-74.153134, 40.733513]}, "properties": {"id": "10A-E10-T042-P1", "name": "10A-T042-P1", "stream_mile": null}}, {"type": "Feature", "geometry": {"type": "Point", "coordinates": [-74.153171, 40.733546]}, "properties": {"id": "10A-E14-T042-P1", "name": "10A-T042-P1", "stream_mile": null}}, {"type": "Feature", "geometry": {"type": "Point", "coordinates": [-74.147625, 40.655461]}, "properties": {"id": "N01-E14-TNBS-P1", "name": "N01-TNBS-P1", "stream_mile": null}}, {"type": "Feature", "geometry": {"type": "Point", "coordinates": [-74.184048, 40.646771]}, "properties": {"id": "N01-E10-TARK-P1", "name": "N01-TARK-P1", "stream_mile": null}}, {"type": "Feature", "geometry": {"type": "Point", "coordinates": [-74.184057, 40.646771]}, "properties": {"id": "N01-E14-TARK-P1", "name": "N01-TARK-P1", "stream_mile": null}}, {"type": "Feature", "geometry": {"type": "Point", "coordinates": [-74.147606, 40.655464]}, "properties": {"id": "N01-E10-TNBS-P1", "name": "N01-TNBS-P1", "stream_mile": null}}, {"type": "Feature", "geometry": {"type": "Point", "coordinates": [-74.124546, 40.693102]}, "properties": {"id": "N01-E14-TNBN-P1", "name": "N01-TNBN-P1", "stream_mile": null}}, {"type": "Feature", "geometry": {"type": "Point", "coordinates": [-74.128635, 40.644206]}, "properties": {"id": "N01-E10-TKVK-P1", "name": "N01-TKVK-P1", "stream_mile": null}}, {"type": "Feature", "geometry": {"type": "Point", "coordinates": [-74.128656, 40.644236]}, "properties": {"id": "N01-E14-TKVK-P1", "name": "N01-TKVK-P1", "stream_mile": null}}, {"type": "Feature", "geometry": {"type": "Point", "coordinates": [-74.12456, 40.693101]}, "properties": {"id": "N01-E10-TNBN-P1", "name": "N01-TNBN-P1", "stream_mile": null}}, {"type": "Feature", "geometry": {"type": "Point", "coordinates": [-74.09092, 40.738334]}, "properties": {"id": "N01-E10-THKN-P1", "name": "N01-THKN-P1", "stream_mile": null}}, {"type": "Feature", "geometry": {"type": "Point", "coordinates": [-74.090911, 40.738332]}, "properties": {"id": "N01-E14-THKN-P1", "name": "N01-THKN-P1", "stream_mile": null}}, {"type": "Feature", "geometry": {"type": "Point", "coordinates": [-74.124561, 40.693123]}, "properties": {"id": "N01-E13-TNBN-P1", "name": "N01-TNBN-P1", "stream_mile": null}}, {"type": "Feature", "geometry": {"type": "Point", "coordinates": [-74.120913, 40.691717]}, "properties": {"id": "N01-E13-TNBN-P2", "name": "N01-TNBN-P2", "stream_mile": null}}, {"type": "Feature", "geometry": {"type": "Point", "coordinates": [-74.117165, 40.690392]}, "properties": {"id": "N01-E13-TNBN-P3", "name": "N01-TNBN-P3", "stream_mile": null}}, {"type": "Feature", "geometry": {"type": "Point", "coordinates": [-74.120608, 40.848836]}, "properties": {"id": "10A-E12-T135-P1", "name": "10A-T135-P1", "stream_mile": null}}, {"type": "Feature", "geometry": {"type": "Point", "coordinates": [-74.120342, 40.848724]}, "properties": {"id": "10A-E12-T135-P2", "name": "10A-T135-P2", "stream_mile": null}}, {"type": "Feature", "geometry": {"type": "Point", "coordinates": [-74.091008, 40.738389]}, "properties": {"id": "N01-E13-THKN-P1", "name": "N01-THKN-P1", "stream_mile": null}}, {"type": "Feature", "geometry": {"type": "Point", "coordinates": [-74.120163, 40.848654]}, "properties": {"id": "10A-E12-T135-P3", "name": "10A-T135-P3", "stream_mile": null}}, {"type": "Feature", "geometry": {"type": "Point", "coordinates": [-74.090623, 40.737898]}, "properties": {"id": "N01-E13-THKN-P2", "name": "N01-THKN-P2", "stream_mile": null}}, {"type": "Feature", "geometry": {"type": "Point", "coordinates": [-74.090261, 40.737454]}, "properties": {"id": "N01-E13-THKN-P3", "name": "N01-THKN-P3", "stream_mile": null}}, {"type": "Feature", "geometry": {"type": "Point", "coordinates": [-74.147628, 40.655477]}, "properties": {"id": "N01-E13-TNBS-P1", "name": "N01-TNBS-P1", "stream_mile": null}}, {"type": "Feature", "geometry": {"type": "Point", "coordinates": [-74.145611, 40.654712]}, "properties": {"id": "N01-E13-TNBS-P2", "name": "N01-TNBS-P2", "stream_mile": null}}, {"type": "Feature", "geometry": {"type": "Point", "coordinates": [-74.143579, 40.653984]}, "properties": {"id": "N01-E13-TNBS-P3", "name": "N01-TNBS-P3", "stream_mile": null}}, {"type": "Feature", "geometry": {"type": "Point", "coordinates": [-74.138814, 40.808795]}, "properties": {"id": "10A-E12-T102-P1", "name": "10A-T102-P1", "stream_mile": null}}, {"type": "Feature", "geometry": {"type": "Point", "coordinates": [-74.138638, 40.80879]}, "properties": {"id": "10A-E12-T102-P2", "name": "10A-T102-P2", "stream_mile": null}}, {"type": "Feature", "geometry": {"type": "Point", "coordinates": [-74.138422, 40.808785]}, "properties": {"id": "10A-E12-T102-P3", "name": "10A-T102-P3", "stream_mile": null}}, {"type": "Feature", "geometry": {"type": "Point", "coordinates": [-74.118694, 40.730628]}, "properties": {"id": "10A-E13-T014-P1", "name": "10A-T014-P1", "stream_mile": null}}, {"type": "Feature", "geometry": {"type": "Point", "coordinates": [-74.12867, 40.644197]}, "properties": {"id": "N01-E13-TKVK-P1", "name": "N01-TKVK-P1", "stream_mile": null}}, {"type": "Feature", "geometry": {"type": "Point", "coordinates": [-74.118291, 40.730508]}, "properties": {"id": "10A-E13-T014-P2", "name": "10A-T014-P2", "stream_mile": null}}, {"type": "Feature", "geometry": {"type": "Point", "coordinates": [-74.118001, 40.730427]}, "properties": {"id": "10A-E13-T014-P3", "name": "10A-T014-P3", "stream_mile": null}}, {"type": "Feature", "geometry": {"type": "Point", "coordinates": [-74.128677, 40.643032]}, "properties": {"id": "N01-E13-TKVK-P2", "name": "N01-TKVK-P2", "stream_mile": null}}, {"type": "Feature", "geometry": {"type": "Point", "coordinates": [-74.128658, 40.642034]}, "properties": {"id": "N01-E13-TKVK-P3", "name": "N01-TKVK-P3", "stream_mile": null}}, {"type": "Feature", "geometry": {"type": "Point", "coordinates": [-74.161009, 40.762708]}, "properties": {"id": "10A-E12-T067-P1", "name": "10A-T067-P1", "stream_mile": null}}, {"type": "Feature", "geometry": {"type": "Point", "coordinates": [-74.160814, 40.76258]}, "properties": {"id": "10A-E12-T067-P2", "name": "10A-T067-P2", "stream_mile": null}}, {"type": "Feature", "geometry": {"type": "Point", "coordinates": [-74.16062, 40.762438]}, "properties": {"id": "10A-E12-T067-P3", "name": "10A-T067-P3", "stream_mile": null}}, {"type": "Feature", "geometry": {"type": "Point", "coordinates": [-74.184068, 40.646774]}, "properties": {"id": "N01-E13-TARK-P1", "name": "N01-TARK-P1", "stream_mile": null}}, {"type": "Feature", "geometry": {"type": "Point", "coordinates": [-74.153148, 40.733486]}, "properties": {"id": "10A-E13-T042-P1", "name": "10A-T042-P1", "stream_mile": null}}, {"type": "Feature", "geometry": {"type": "Point", "coordinates": [-74.153195, 40.73374]}, "properties": {"id": "10A-E13-T042-P2", "name": "10A-T042-P2", "stream_mile": null}}, {"type": "Feature", "geometry": {"type": "Point", "coordinates": [-74.183759, 40.645878]}, "properties": {"id": "N01-E13-TARK-P2", "name": "N01-TARK-P2", "stream_mile": null}}, {"type": "Feature", "geometry": {"type": "Point", "coordinates": [-74.183418, 40.645121]}, "properties": {"id": "N01-E13-TARK-P3", "name": "N01-TARK-P3", "stream_mile": null}}, {"type": "Feature", "geometry": {"type": "Point", "coordinates": [-74.153191, 40.733942]}, "properties": {"id": "10A-E13-T042-P3", "name": "10A-T042-P3", "stream_mile": null}}, {"type": "Feature", "geometry": {"type": "Point", "coordinates": [-74.124576, 40.693111]}, "properties": {"id": "N01-E12-TNBN-P1", "name": "N01-TNBN-P1", "stream_mile": null}}, {"type": "Feature", "geometry": {"type": "Point", "coordinates": [-74.090987, 40.738394]}, "properties": {"id": "N01-E12-THKN-P1", "name": "N01-THKN-P1", "stream_mile": null}}, {"type": "Feature", "geometry": {"type": "Point", "coordinates": [-74.120893, 40.691709]}, "properties": {"id": "N01-E12-TNBN-P2", "name": "N01-TNBN-P2", "stream_mile": null}}, {"type": "Feature", "geometry": {"type": "Point", "coordinates": [-74.117177, 40.690411]}, "properties": {"id": "N01-E12-TNBN-P3", "name": "N01-TNBN-P3", "stream_mile": null}}, {"type": "Feature", "geometry": {"type": "Point", "coordinates": [-74.09061, 40.737888]}, "properties": {"id": "N01-E12-THKN-P2", "name": "N01-THKN-P2", "stream_mile": null}}, {"type": "Feature", "geometry": {"type": "Point", "coordinates": [-74.090233, 40.737436]}, "properties": {"id": "N01-E12-THKN-P3", "name": "N01-THKN-P3", "stream_mile": null}}, {"type": "Feature", "geometry": {"type": "Point", "coordinates": [-74.147616, 40.655481]}, "properties": {"id": "N01-E12-TNBS-P1", "name": "N01-TNBS-P1", "stream_mile": null}}, {"type": "Feature", "geometry": {"type": "Point", "coordinates": [-74.145639, 40.654686]}, "properties": {"id": "N01-E12-TNBS-P2", "name": "N01-TNBS-P2", "stream_mile": null}}, {"type": "Feature", "geometry": {"type": "Point", "coordinates": [-74.143575, 40.653971]}, "properties": {"id": "N01-E12-TNBS-P3", "name": "N01-TNBS-P3", "stream_mile": null}}, {"type": "Feature", "geometry": {"type": "Point", "coordinates": [-74.118742, 40.730627]}, "properties": {"id": "10A-E12-T014-P1", "name": "10A-T014-P1", "stream_mile": null}}, {"type": "Feature", "geometry": {"type": "Point", "coordinates": [-74.128657, 40.644211]}, "properties": {"id": "N01-E12-TKVK-P1", "name": "N01-TKVK-P1", "stream_mile": null}}, {"type": "Feature", "geometry": {"type": "Point", "coordinates": [-74.118307, 40.730513]}, "properties": {"id": "10A-E12-T014-P2", "name": "10A-T014-P2", "stream_mile": null}}, {"type": "Feature", "geometry": {"type": "Point", "coordinates": [-74.117978, 40.730437]}, "properties": {"id": "10A-E12-T014-P3", "name": "10A-T014-P3", "stream_mile": null}}, {"type": "Feature", "geometry": {"type": "Point", "coordinates": [-74.128665, 40.643031]}, "properties": {"id": "N01-E12-TKVK-P2", "name": "N01-TKVK-P2", "stream_mile": null}}, {"type": "Feature", "geometry": {"type": "Point", "coordinates": [-74.128683, 40.642027]}, "properties": {"id": "N01-E12-TKVK-P3", "name": "N01-TKVK-P3", "stream_mile": null}}, {"type": "Feature", "geometry": {"type": "Point", "coordinates": [-74.184079, 40.646773]}, "properties": {"id": "N01-E12-TARK-P1", "name": "N01-TARK-P1", "stream_mile": null}}, {"type": "Feature", "geometry": {"type": "Point", "coordinates": [-74.153153, 40.733507]}, "properties": {"id": "10A-E12-T042-P1", "name": "10A-T042-P1", "stream_mile": null}}, {"type": "Feature", "geometry": {"type": "Point", "coordinates": [-74.183745, 40.645888]}, "properties": {"id": "N01-E12-TARK-P2", "name": "N01-TARK-P2", "stream_mile": null}}, {"type": "Feature", "geometry": {"type": "Point", "coordinates": [-74.153204, 40.733753]}, "properties": {"id": "10A-E12-T042-P2", "name": "10A-T042-P2", "stream_mile": null}}, {"type": "Feature", "geometry": {"type": "Point", "coordinates": [-74.183443, 40.645127]}, "properties": {"id": "N01-E12-TARK-P3", "name": "N01-TARK-P3", "stream_mile": null}}, {"type": "Feature", "geometry": {"type": "Point", "coordinates": [-74.153211, 40.733948]}, "properties": {"id": "10A-E12-T042-P3", "name": "10A-T042-P3", "stream_mile": null}}, {"type": "Feature", "geometry": {"type": "Point", "coordinates": [-74.120606, 40.848833]}, "properties": {"id": "10A-E13-T135-P1", "name": "10A-T135-P1", "stream_mile": null}}, {"type": "Feature", "geometry": {"type": "Point", "coordinates": [-74.120337, 40.84873]}, "properties": {"id": "10A-E13-T135-P2", "name": "10A-T135-P2", "stream_mile": null}}, {"type": "Feature", "geometry": {"type": "Point", "coordinates": [-74.120167, 40.848652]}, "properties": {"id": "10A-E13-T135-P3", "name": "10A-T135-P3", "stream_mile": null}}, {"type": "Feature", "geometry": {"type": "Point", "coordinates": [-74.138808, 40.808794]}, "properties": {"id": "10A-E13-T102-P1", "name": "10A-T102-P1", "stream_mile": null}}, {"type": "Feature", "geometry": {"type": "Point", "coordinates": [-74.138637, 40.808788]}, "properties": {"id": "10A-E13-T102-P2", "name": "10A-T102-P2", "stream_mile": null}}, {"type": "Feature", "geometry": {"type": "Point", "coordinates": [-74.138418, 40.808791]}, "properties": {"id": "10A-E13-T102-P3", "name": "10A-T102-P3", "stream_mile": null}}, {"type": "Feature", "geometry": {"type": "Point", "coordinates": [-74.16102, 40.762712]}, "properties": {"id": "10A-E13-T067-P1", "name": "10A-T067-P1", "stream_mile": null}}, {"type": "Feature", "geometry": {"type": "Point", "coordinates": [-74.160803, 40.762581]}, "properties": {"id": "10A-E13-T067-P2", "name": "10A-T067-P2", "stream_mile": null}}, {"type": "Feature", "geometry": {"type": "Point", "coordinates": [-74.160617, 40.762438]}, "properties": {"id": "10A-E13-T067-P3", "name": "10A-T067-P3", "stream_mile": null}}, {"type": "Feature", "geometry": {"type": "Point", "coordinates": [-74.129813, 40.884997]}, "properties": {"id": "10A-E10-T175-P2", "name": "10A-T175-P2", "stream_mile": null}}, {"type": "Feature", "geometry": {"type": "Point", "coordinates": [-74.129953, 40.884463]}, "properties": {"id": "10A-E11-T175-P1", "name": "10A-T175-P1", "stream_mile": null}}, {"type": "Feature", "geometry": {"type": "Point", "coordinates": [-74.129814, 40.885]}, "properties": {"id": "10A-E11-T175-P2", "name": "10A-T175-P2", "stream_mile": null}}, {"type": "Feature", "geometry": {"type": "Point", "coordinates": [-74.129264, 40.885402]}, "properties": {"id": "10A-E11-T175-P3", "name": "10A-T175-P3", "stream_mile": null}}, {"type": "Feature", "geometry": {"type": "Point", "coordinates": [-74.129057, 40.885608]}, "properties": {"id": "10A-E11-T175-P4", "name": "10A-T175-P4", "stream_mile": null}}, {"type": "Feature", "geometry": {"type": "Point", "coordinates": [-74.138805, 40.808815]}, "properties": {"id": "10A-E19-T102-P1", "name": "10A-T102-P1", "stream_mile": null}}, {"type": "Feature", "geometry": {"type": "Point", "coordinates": [-74.160589, 40.762427]}, "properties": {"id": "10A-E15-T067-P3", "name": "10A-T067-P3", "stream_mile": null}}, {"type": "Feature", "geometry": {"type": "Point", "coordinates": [-74.1606, 40.76243]}, "properties": {"id": "10A-E19-T067-P3", "name": "10A-T067-P3", "stream_mile": null}}, {"type": "Feature", "geometry": {"type": "Point", "coordinates": [-74.120147, 40.84868]}, "properties": {"id": "10A-E15-T135-P3", "name": "10A-T135-P3", "stream_mile": null}}, {"type": "Feature", "geometry": {"type": "Point", "coordinates": [-74.120141, 40.84869]}, "properties": {"id": "10A-E19-T135-P3", "name": "10A-T135-P3", "stream_mile": null}}, {"type": "Feature", "geometry": {"type": "Point", "coordinates": [-74.138798, 40.808815]}, "properties": {"id": "10A-E15-T102-P1", "name": "10A-T102-P1", "stream_mile": null}}, {"type": "Feature", "geometry": {"type": "Point", "coordinates": [-74.153162, 40.733519]}, "properties": {"id": "10A-E19-T042-P1", "name": "10A-T042-P1", "stream_mile": null}}, {"type": "Feature", "geometry": {"type": "Point", "coordinates": [-74.117978, 40.730477]}, "properties": {"id": "10A-E15-T014-P3", "name": "10A-T014-P3", "stream_mile": null}}, {"type": "Feature", "geometry": {"type": "Point", "coordinates": [-74.117977, 40.730486]}, "properties": {"id": "10A-E19-T014-P3", "name": "10A-T014-P3", "stream_mile": null}}, {"type": "Feature", "geometry": {"type": "Point", "coordinates": [-74.15315, 40.733518]}, "properties": {"id": "10A-E15-T042-P1", "name": "10A-T042-P1", "stream_mile": null}}, {"type": "Feature", "geometry": {"type": "Point", "coordinates": [-74.147625, 40.655461]}, "properties": {"id": "N01-E19-TNBS-P1", "name": "N01-TNBS-P1", "stream_mile": null}}, {"type": "Feature", "geometry": {"type": "Point", "coordinates": [-74.184048, 40.646771]}, "properties": {"id": "N01-E15-TARK-P1", "name": "N01-TARK-P1", "stream_mile": null}}, {"type": "Feature", "geometry": {"type": "Point", "coordinates": [-74.184057, 40.646771]}, "properties": {"id": "N01-E19-TARK-P1", "name": "N01-TARK-P1", "stream_mile": null}}, {"type": "Feature", "geometry": {"type": "Point", "coordinates": [-74.147606, 40.655464]}, "properties": {"id": "N01-E15-TNBS-P1", "name": "N01-TNBS-P1", "stream_mile": null}}, {"type": "Feature", "geometry": {"type": "Point", "coordinates": [-74.124546, 40.693102]}, "properties": {"id": "N01-E19-TNBN-P1", "name": "N01-TNBN-P1", "stream_mile": null}}, {"type": "Feature", "geometry": {"type": "Point", "coordinates": [-74.128635, 40.644206]}, "properties": {"id": "N01-E15-TKVK-P1", "name": "N01-TKVK-P1", "stream_mile": null}}, {"type": "Feature", "geometry": {"type": "Point", "coordinates": [-74.128656, 40.644236]}, "properties": {"id": "N01-E19-TKVK-P1", "name": "N01-TKVK-P1", "stream_mile": null}}, {"type": "Feature", "geometry": {"type": "Point", "coordinates": [-74.12456, 40.693101]}, "properties": {"id": "N01-E15-TNBN-P1", "name": "N01-TNBN-P1", "stream_mile": null}}, {"type": "Feature", "geometry": {"type": "Point", "coordinates": [-74.129806, 40.885001]}, "properties": {"id": "10A-E15-T175-P2", "name": "10A-T175-P2", "stream_mile": null}}, {"type": "Feature", "geometry": {"type": "Point", "coordinates": [-74.129956, 40.884464]}, "properties": {"id": "10A-E16-T175-P1", "name": "10A-T175-P1", "stream_mile": null}}, {"type": "Feature", "geometry": {"type": "Point", "coordinates": [-74.129816, 40.884999]}, "properties": {"id": "10A-E16-T175-P2", "name": "10A-T175-P2", "stream_mile": null}}, {"type": "Feature", "geometry": {"type": "Point", "coordinates": [-74.129271, 40.885401]}, "properties": {"id": "10A-E16-T175-P3", "name": "10A-T175-P3", "stream_mile": null}}, {"type": "Feature", "geometry": {"type": "Point", "coordinates": [-74.12906, 40.885602]}, "properties": {"id": "10A-E16-T175-P4", "name": "10A-T175-P4", "stream_mile": null}}, {"type": "Feature", "geometry": {"type": "Point", "coordinates": [-74.09092, 40.738334]}, "properties": {"id": "N01-E15-THKN-P1", "name": "N01-THKN-P1", "stream_mile": null}}, {"type": "Feature", "geometry": {"type": "Point", "coordinates": [-74.090911, 40.738332]}, "properties": {"id": "N01-E19-THKN-P1", "name": "N01-THKN-P1", "stream_mile": null}}, {"type": "Feature", "geometry": {"type": "Point", "coordinates": [-74.124561, 40.693123]}, "properties": {"id": "N01-E18-TNBN-P1", "name": "N01-TNBN-P1", "stream_mile": null}}, {"type": "Feature", "geometry": {"type": "Point", "coordinates": [-74.120613, 40.848835]}, "properties": {"id": "10A-E18-T135-P1", "name": "10A-T135-P1", "stream_mile": null}}, {"type": "Feature", "geometry": {"type": "Point", "coordinates": [-74.091006, 40.738375]}, "properties": {"id": "N01-E18-THKN-P1", "name": "N01-THKN-P1", "stream_mile": null}}, {"type": "Feature", "geometry": {"type": "Point", "coordinates": [-74.120913, 40.691717]}, "properties": {"id": "N01-E18-TNBN-P2", "name": "N01-TNBN-P2", "stream_mile": null}}, {"type": "Feature", "geometry": {"type": "Point", "coordinates": [-74.120342, 40.848725]}, "properties": {"id": "10A-E18-T135-P2", "name": "10A-T135-P2", "stream_mile": null}}, {"type": "Feature", "geometry": {"type": "Point", "coordinates": [-74.090599, 40.737918]}, "properties": {"id": "N01-E18-THKN-P2", "name": "N01-THKN-P2", "stream_mile": null}}, {"type": "Feature", "geometry": {"type": "Point", "coordinates": [-74.117165, 40.690392]}, "properties": {"id": "N01-E18-TNBN-P3", "name": "N01-TNBN-P3", "stream_mile": null}}, {"type": "Feature", "geometry": {"type": "Point", "coordinates": [-74.120158, 40.848651]}, "properties": {"id": "10A-E18-T135-P3", "name": "10A-T135-P3", "stream_mile": null}}, {"type": "Feature", "geometry": {"type": "Point", "coordinates": [-74.090237, 40.737451]}, "properties": {"id": "N01-E18-THKN-P3", "name": "N01-THKN-P3", "stream_mile": null}}, {"type": "Feature", "geometry": {"type": "Point", "coordinates": [-74.13881, 40.808796]}, "properties": {"id": "10A-E18-T102-P1", "name": "10A-T102-P1", "stream_mile": null}}, {"type": "Feature", "geometry": {"type": "Point", "coordinates": [-74.147628, 40.655477]}, "properties": {"id": "N01-E18-TNBS-P1", "name": "N01-TNBS-P1", "stream_mile": null}}, {"type": "Feature", "geometry": {"type": "Point", "coordinates": [-74.138641, 40.808796]}, "properties": {"id": "10A-E18-T102-P2", "name": "10A-T102-P2", "stream_mile": null}}, {"type": "Feature", "geometry": {"type": "Point", "coordinates": [-74.145611, 40.654712]}, "properties": {"id": "N01-E18-TNBS-P2", "name": "N01-TNBS-P2", "stream_mile": null}}, {"type": "Feature", "geometry": {"type": "Point", "coordinates": [-74.138424, 40.808787]}, "properties": {"id": "10A-E18-T102-P3", "name": "10A-T102-P3", "stream_mile": null}}, {"type": "Feature", "geometry": {"type": "Point", "coordinates": [-74.143579, 40.653984]}, "properties": {"id": "N01-E18-TNBS-P3", "name": "N01-TNBS-P3", "stream_mile": null}}, {"type": "Feature", "geometry": {"type": "Point", "coordinates": [-74.12867, 40.644197]}, "properties": {"id": "N01-E18-TKVK-P1", "name": "N01-TKVK-P1", "stream_mile": null}}, {"type": "Feature", "geometry": {"type": "Point", "coordinates": [-74.128677, 40.643032]}, "properties": {"id": "N01-E18-TKVK-P2", "name": "N01-TKVK-P2", "stream_mile": null}}, {"type": "Feature", "geometry": {"type": "Point", "coordinates": [-74.16102, 40.762705]}, "properties": {"id": "10A-E18-T067-P1", "name": "10A-T067-P1", "stream_mile": null}}, {"type": "Feature", "geometry": {"type": "Point", "coordinates": [-74.128658, 40.642034]}, "properties": {"id": "N01-E18-TKVK-P3", "name": "N01-TKVK-P3", "stream_mile": null}}, {"type": "Feature", "geometry": {"type": "Point", "coordinates": [-74.16081, 40.76258]}, "properties": {"id": "10A-E18-T067-P2", "name": "10A-T067-P2", "stream_mile": null}}, {"type": "Feature", "geometry": {"type": "Point", "coordinates": [-74.160621, 40.762431]}, "properties": {"id": "10A-E18-T067-P3", "name": "10A-T067-P3", "stream_mile": null}}, {"type": "Feature", "geometry": {"type": "Point", "coordinates": [-74.184068, 40.646774]}, "properties": {"id": "N01-E18-TARK-P1", "name": "N01-TARK-P1", "stream_mile": null}}, {"type": "Feature", "geometry": {"type": "Point", "coordinates": [-74.183759, 40.645878]}, "properties": {"id": "N01-E18-TARK-P2", "name": "N01-TARK-P2", "stream_mile": null}}, {"type": "Feature", "geometry": {"type": "Point", "coordinates": [-74.183418, 40.645121]}, "properties": {"id": "N01-E18-TARK-P3", "name": "N01-TARK-P3", "stream_mile": null}}, {"type": "Feature", "geometry": {"type": "Point", "coordinates": [-74.153153, 40.7335]}, "properties": {"id": "10A-E18-T042-P1", "name": "10A-T042-P1", "stream_mile": null}}, {"type": "Feature", "geometry": {"type": "Point", "coordinates": [-74.153191, 40.733741]}, "properties": {"id": "10A-E18-T042-P2", "name": "10A-T042-P2", "stream_mile": null}}, {"type": "Feature", "geometry": {"type": "Point", "coordinates": [-74.153207, 40.733945]}, "properties": {"id": "10A-E18-T042-P3", "name": "10A-T042-P3", "stream_mile": null}}, {"type": "Feature", "geometry": {"type": "Point", "coordinates": [-74.118721, 40.730626]}, "properties": {"id": "10A-E18-T014-P1", "name": "10A-T014-P1", "stream_mile": null}}, {"type": "Feature", "geometry": {"type": "Point", "coordinates": [-74.118296, 40.730502]}, "properties": {"id": "10A-E18-T014-P2", "name": "10A-T014-P2", "stream_mile": null}}, {"type": "Feature", "geometry": {"type": "Point", "coordinates": [-74.118018, 40.730433]}, "properties": {"id": "10A-E18-T014-P3", "name": "10A-T014-P3", "stream_mile": null}}, {"type": "Feature", "geometry": {"type": "Point", "coordinates": [-74.124576, 40.693111]}, "properties": {"id": "N01-E17-TNBN-P1", "name": "N01-TNBN-P1", "stream_mile": null}}, {"type": "Feature", "geometry": {"type": "Point", "coordinates": [-74.120893, 40.691709]}, "properties": {"id": "N01-E17-TNBN-P2", "name": "N01-TNBN-P2", "stream_mile": null}}, {"type": "Feature", "geometry": {"type": "Point", "coordinates": [-74.12062, 40.848834]}, "properties": {"id": "10A-E17-T135-P1", "name": "10A-T135-P1", "stream_mile": null}}, {"type": "Feature", "geometry": {"type": "Point", "coordinates": [-74.091012, 40.738382]}, "properties": {"id": "N01-E17-THKN-P1", "name": "N01-THKN-P1", "stream_mile": null}}, {"type": "Feature", "geometry": {"type": "Point", "coordinates": [-74.120348, 40.848726]}, "properties": {"id": "10A-E17-T135-P2", "name": "10A-T135-P2", "stream_mile": null}}, {"type": "Feature", "geometry": {"type": "Point", "coordinates": [-74.12016, 40.848653]}, "properties": {"id": "10A-E17-T135-P3", "name": "10A-T135-P3", "stream_mile": null}}, {"type": "Feature", "geometry": {"type": "Point", "coordinates": [-74.117177, 40.690411]}, "properties": {"id": "N01-E17-TNBN-P3", "name": "N01-TNBN-P3", "stream_mile": null}}, {"type": "Feature", "geometry": {"type": "Point", "coordinates": [-74.090598, 40.737922]}, "properties": {"id": "N01-E17-THKN-P2", "name": "N01-THKN-P2", "stream_mile": null}}, {"type": "Feature", "geometry": {"type": "Point", "coordinates": [-74.090233, 40.737445]}, "properties": {"id": "N01-E17-THKN-P3", "name": "N01-THKN-P3", "stream_mile": null}}, {"type": "Feature", "geometry": {"type": "Point", "coordinates": [-74.138814, 40.808791]}, "properties": {"id": "10A-E17-T102-P1", "name": "10A-T102-P1", "stream_mile": null}}, {"type": "Feature", "geometry": {"type": "Point", "coordinates": [-74.138642, 40.80879]}, "properties": {"id": "10A-E17-T102-P2", "name": "10A-T102-P2", "stream_mile": null}}, {"type": "Feature", "geometry": {"type": "Point", "coordinates": [-74.138418, 40.808784]}, "properties": {"id": "10A-E17-T102-P3", "name": "10A-T102-P3", "stream_mile": null}}, {"type": "Feature", "geometry": {"type": "Point", "coordinates": [-74.147616, 40.655481]}, "properties": {"id": "N01-E17-TNBS-P1", "name": "N01-TNBS-P1", "stream_mile": null}}, {"type": "Feature", "geometry": {"type": "Point", "coordinates": [-74.145639, 40.654686]}, "properties": {"id": "N01-E17-TNBS-P2", "name": "N01-TNBS-P2", "stream_mile": null}}, {"type": "Feature", "geometry": {"type": "Point", "coordinates": [-74.118716, 40.730626]}, "properties": {"id": "10A-E17-T014-P1", "name": "10A-T014-P1", "stream_mile": null}}, {"type": "Feature", "geometry": {"type": "Point", "coordinates": [-74.143575, 40.653971]}, "properties": {"id": "N01-E17-TNBS-P3", "name": "N01-TNBS-P3", "stream_mile": null}}, {"type": "Feature", "geometry": {"type": "Point", "coordinates": [-74.118298, 40.730511]}, "properties": {"id": "10A-E17-T014-P2", "name": "10A-T014-P2", "stream_mile": null}}, {"type": "Feature", "geometry": {"type": "Point", "coordinates": [-74.161017, 40.762713]}, "properties": {"id": "10A-E17-T067-P1", "name": "10A-T067-P1", "stream_mile": null}}, {"type": "Feature", "geometry": {"type": "Point", "coordinates": [-74.118024, 40.730447]}, "properties": {"id": "10A-E17-T014-P3", "name": "10A-T014-P3", "stream_mile": null}}, {"type": "Feature", "geometry": {"type": "Point", "coordinates": [-74.160801, 40.762582]}, "properties": {"id": "10A-E17-T067-P2", "name": "10A-T067-P2", "stream_mile": null}}, {"type": "Feature", "geometry": {"type": "Point", "coordinates": [-74.160624, 40.76243]}, "properties": {"id": "10A-E17-T067-P3", "name": "10A-T067-P3", "stream_mile": null}}, {"type": "Feature", "geometry": {"type": "Point", "coordinates": [-74.128657, 40.644211]}, "properties": {"id": "N01-E17-TKVK-P1", "name": "N01-TKVK-P1", "stream_mile": null}}, {"type": "Feature", "geometry": {"type": "Point", "coordinates": [-74.128665, 40.643031]}, "properties": {"id": "N01-E17-TKVK-P2", "name": "N01-TKVK-P2", "stream_mile": null}}, {"type": "Feature", "geometry": {"type": "Point", "coordinates": [-74.128683, 40.642027]}, "properties": {"id": "N01-E17-TKVK-P3", "name": "N01-TKVK-P3", "stream_mile": null}}, {"type": "Feature", "geometry": {"type": "Point", "coordinates": [-74.153138, 40.733508]}, "properties": {"id": "10A-E17-T042-P1", "name": "10A-T042-P1", "stream_mile": null}}, {"type": "Feature", "geometry": {"type": "Point", "coordinates": [-74.153178, 40.733741]}, "properties": {"id": "10A-E17-T042-P2", "name": "10A-T042-P2", "stream_mile": null}}, {"type": "Feature", "geometry": {"type": "Point", "coordinates": [-74.153212, 40.733965]}, "properties": {"id": "10A-E17-T042-P3", "name": "10A-T042-P3", "stream_mile": null}}, {"type": "Feature", "geometry": {"type": "Point", "coordinates": [-74.184079, 40.646773]}, "properties": {"id": "N01-E17-TARK-P1", "name": "N01-TARK-P1", "stream_mile": null}}, {"type": "Feature", "geometry": {"type": "Point", "coordinates": [-74.183745, 40.645888]}, "properties": {"id": "N01-E17-TARK-P2", "name": "N01-TARK-P2", "stream_mile": null}}, {"type": "Feature", "geometry": {"type": "Point", "coordinates": [-74.183443, 40.645127]}, "properties": {"id": "N01-E17-TARK-P3", "name": "N01-TARK-P3", "stream_mile": null}}, {"type": "Feature", "geometry": {"type": "Point", "coordinates": [-74.124561, 40.693123]}, "properties": {"id": "N01-E22-TNBN-P1", "name": "N01-TNBN-P1", "stream_mile": null}}, {"type": "Feature", "geometry": {"type": "Point", "coordinates": [-74.120913, 40.691717]}, "properties": {"id": "N01-E22-TNBN-P2", "name": "N01-TNBN-P2", "stream_mile": null}}, {"type": "Feature", "geometry": {"type": "Point", "coordinates": [-74.091008, 40.738389]}, "properties": {"id": "N01-E22-THKN-P1", "name": "N01-THKN-P1", "stream_mile": null}}, {"type": "Feature", "geometry": {"type": "Point", "coordinates": [-74.117165, 40.690392]}, "properties": {"id": "N01-E22-TNBN-P3", "name": "N01-TNBN-P3", "stream_mile": null}}, {"type": "Feature", "geometry": {"type": "Point", "coordinates": [-74.090623, 40.737898]}, "properties": {"id": "N01-E22-THKN-P2", "name": "N01-THKN-P2", "stream_mile": null}}, {"type": "Feature", "geometry": {"type": "Point", "coordinates": [-74.090261, 40.737454]}, "properties": {"id": "N01-E22-THKN-P3", "name": "N01-THKN-P3", "stream_mile": null}}, {"type": "Feature", "geometry": {"type": "Point", "coordinates": [-74.120606, 40.848833]}, "properties": {"id": "10A-E22-T135-P1", "name": "10A-T135-P1", "stream_mile": null}}, {"type": "Feature", "geometry": {"type": "Point", "coordinates": [-74.120337, 40.84873]}, "properties": {"id": "10A-E22-T135-P2", "name": "10A-T135-P2", "stream_mile": null}}, {"type": "Feature", "geometry": {"type": "Point", "coordinates": [-74.120167, 40.848652]}, "properties": {"id": "10A-E22-T135-P3", "name": "10A-T135-P3", "stream_mile": null}}, {"type": "Feature", "geometry": {"type": "Point", "coordinates": [-74.147628, 40.655477]}, "properties": {"id": "N01-E22-TNBS-P1", "name": "N01-TNBS-P1", "stream_mile": null}}, {"type": "Feature", "geometry": {"type": "Point", "coordinates": [-74.145611, 40.654712]}, "properties": {"id": "N01-E22-TNBS-P2", "name": "N01-TNBS-P2", "stream_mile": null}}, {"type": "Feature", "geometry": {"type": "Point", "coordinates": [-74.118694, 40.730628]}, "properties": {"id": "10A-E22-T014-P1", "name": "10A-T014-P1", "stream_mile": null}}, {"type": "Feature", "geometry": {"type": "Point", "coordinates": [-74.143579, 40.653984]}, "properties": {"id": "N01-E22-TNBS-P3", "name": "N01-TNBS-P3", "stream_mile": null}}, {"type": "Feature", "geometry": {"type": "Point", "coordinates": [-74.118291, 40.730508]}, "properties": {"id": "10A-E22-T014-P2", "name": "10A-T014-P2", "stream_mile": null}}, {"type": "Feature", "geometry": {"type": "Point", "coordinates": [-74.138808, 40.808794]}, "properties": {"id": "10A-E22-T102-P1", "name": "10A-T102-P1", "stream_mile": null}}, {"type": "Feature", "geometry": {"type": "Point", "coordinates": [-74.118001, 40.730427]}, "properties": {"id": "10A-E22-T014-P3", "name": "10A-T014-P3", "stream_mile": null}}, {"type": "Feature", "geometry": {"type": "Point", "coordinates": [-74.138637, 40.808788]}, "properties": {"id": "10A-E22-T102-P2", "name": "10A-T102-P2", "stream_mile": null}}, {"type": "Feature", "geometry": {"type": "Point", "coordinates": [-74.138418, 40.808791]}, "properties": {"id": "10A-E22-T102-P3", "name": "10A-T102-P3", "stream_mile": null}}, {"type": "Feature", "geometry": {"type": "Point", "coordinates": [-74.12867, 40.644197]}, "properties": {"id": "N01-E22-TKVK-P1", "name": "N01-TKVK-P1", "stream_mile": null}}, {"type": "Feature", "geometry": {"type": "Point", "coordinates": [-74.128677, 40.643032]}, "properties": {"id": "N01-E22-TKVK-P2", "name": "N01-TKVK-P2", "stream_mile": null}}, {"type": "Feature", "geometry": {"type": "Point", "coordinates": [-74.153148, 40.733486]}, "properties": {"id": "10A-E22-T042-P1", "name": "10A-T042-P1", "stream_mile": null}}, {"type": "Feature", "geometry": {"type": "Point", "coordinates": [-74.153195, 40.73374]}, "properties": {"id": "10A-E22-T042-P2", "name": "10A-T042-P2", "stream_mile": null}}, {"type": "Feature", "geometry": {"type": "Point", "coordinates": [-74.128658, 40.642034]}, "properties": {"id": "N01-E22-TKVK-P3", "name": "N01-TKVK-P3", "stream_mile": null}}, {"type": "Feature", "geometry": {"type": "Point", "coordinates": [-74.153191, 40.733942]}, "properties": {"id": "10A-E22-T042-P3", "name": "10A-T042-P3", "stream_mile": null}}, {"type": "Feature", "geometry": {"type": "Point", "coordinates": [-74.16102, 40.762712]}, "properties": {"id": "10A-E22-T067-P1", "name": "10A-T067-P1", "stream_mile": null}}, {"type": "Feature", "geometry": {"type": "Point", "coordinates": [-74.160803, 40.762581]}, "properties": {"id": "10A-E22-T067-P2", "name": "10A-T067-P2", "stream_mile": null}}, {"type": "Feature", "geometry": {"type": "Point", "coordinates": [-74.160617, 40.762438]}, "properties": {"id": "10A-E22-T067-P3", "name": "10A-T067-P3", "stream_mile": null}}, {"type": "Feature", "geometry": {"type": "Point", "coordinates": [-74.184068, 40.646774]}, "properties": {"id": "N01-E22-TARK-P1", "name": "N01-TARK-P1", "stream_mile": null}}, {"type": "Feature", "geometry": {"type": "Point", "coordinates": [-74.183759, 40.645878]}, "properties": {"id": "N01-E22-TARK-P2", "name": "N01-TARK-P2", "stream_mile": null}}, {"type": "Feature", "geometry": {"type": "Point", "coordinates": [-74.183418, 40.645121]}, "properties": {"id": "N01-E22-TARK-P3", "name": "N01-TARK-P3", "stream_mile": null}}, {"type": "Feature", "geometry": {"type": "Point", "coordinates": [-74.124576, 40.693111]}, "properties": {"id": "N01-E21-TNBN-P1", "name": "N01-TNBN-P1", "stream_mile": null}}, {"type": "Feature", "geometry": {"type": "Point", "coordinates": [-74.120893, 40.691709]}, "properties": {"id": "N01-E21-TNBN-P2", "name": "N01-TNBN-P2", "stream_mile": null}}, {"type": "Feature", "geometry": {"type": "Point", "coordinates": [-74.117177, 40.690411]}, "properties": {"id": "N01-E21-TNBN-P3", "name": "N01-TNBN-P3", "stream_mile": null}}, {"type": "Feature", "geometry": {"type": "Point", "coordinates": [-74.120608, 40.848836]}, "properties": {"id": "10A-E21-T135-P1", "name": "10A-T135-P1", "stream_mile": null}}, {"type": "Feature", "geometry": {"type": "Point", "coordinates": [-74.090987, 40.738394]}, "properties": {"id": "N01-E21-THKN-P1", "name": "N01-THKN-P1", "stream_mile": null}}, {"type": "Feature", "geometry": {"type": "Point", "coordinates": [-74.120342, 40.848724]}, "properties": {"id": "10A-E21-T135-P2", "name": "10A-T135-P2", "stream_mile": null}}, {"type": "Feature", "geometry": {"type": "Point", "coordinates": [-74.120163, 40.848654]}, "properties": {"id": "10A-E21-T135-P3", "name": "10A-T135-P3", "stream_mile": null}}, {"type": "Feature", "geometry": {"type": "Point", "coordinates": [-74.09061, 40.737888]}, "properties": {"id": "N01-E21-THKN-P2", "name": "N01-THKN-P2", "stream_mile": null}}, {"type": "Feature", "geometry": {"type": "Point", "coordinates": [-74.090233, 40.737436]}, "properties": {"id": "N01-E21-THKN-P3", "name": "N01-THKN-P3", "stream_mile": null}}, {"type": "Feature", "geometry": {"type": "Point", "coordinates": [-74.147616, 40.655481]}, "properties": {"id": "N01-E21-TNBS-P1", "name": "N01-TNBS-P1", "stream_mile": null}}, {"type": "Feature", "geometry": {"type": "Point", "coordinates": [-74.145639, 40.654686]}, "properties": {"id": "N01-E21-TNBS-P2", "name": "N01-TNBS-P2", "stream_mile": null}}, {"type": "Feature", "geometry": {"type": "Point", "coordinates": [-74.138814, 40.808795]}, "properties": {"id": "10A-E21-T102-P1", "name": "10A-T102-P1", "stream_mile": null}}, {"type": "Feature", "geometry": {"type": "Point", "coordinates": [-74.143575, 40.653971]}, "properties": {"id": "N01-E21-TNBS-P3", "name": "N01-TNBS-P3", "stream_mile": null}}, {"type": "Feature", "geometry": {"type": "Point", "coordinates": [-74.138638, 40.80879]}, "properties": {"id": "10A-E21-T102-P2", "name": "10A-T102-P2", "stream_mile": null}}, {"type": "Feature", "geometry": {"type": "Point", "coordinates": [-74.118742, 40.730627]}, "properties": {"id": "10A-E21-T014-P1", "name": "10A-T014-P1", "stream_mile": null}}, {"type": "Feature", "geometry": {"type": "Point", "coordinates": [-74.138422, 40.808785]}, "properties": {"id": "10A-E21-T102-P3", "name": "10A-T102-P3", "stream_mile": null}}, {"type": "Feature", "geometry": {"type": "Point", "coordinates": [-74.118307, 40.730513]}, "properties": {"id": "10A-E21-T014-P2", "name": "10A-T014-P2", "stream_mile": null}}, {"type": "Feature", "geometry": {"type": "Point", "coordinates": [-74.128657, 40.644211]}, "properties": {"id": "N01-E21-TKVK-P1", "name": "N01-TKVK-P1", "stream_mile": null}}, {"type": "Feature", "geometry": {"type": "Point", "coordinates": [-74.117978, 40.730437]}, "properties": {"id": "10A-E21-T014-P3", "name": "10A-T014-P3", "stream_mile": null}}, {"type": "Feature", "geometry": {"type": "Point", "coordinates": [-74.128665, 40.643031]}, "properties": {"id": "N01-E21-TKVK-P2", "name": "N01-TKVK-P2", "stream_mile": null}}, {"type": "Feature", "geometry": {"type": "Point", "coordinates": [-74.128683, 40.642027]}, "properties": {"id": "N01-E21-TKVK-P3", "name": "N01-TKVK-P3", "stream_mile": null}}, {"type": "Feature", "geometry": {"type": "Point", "coordinates": [-74.153153, 40.733507]}, "properties": {"id": "10A-E21-T042-P1", "name": "10A-T042-P1", "stream_mile": null}}, {"type": "Feature", "geometry": {"type": "Point", "coordinates": [-73.777335, 40.732001]}, "properties": {"id": "10A-E21-T042-P2", "name": "10A-T042-P2", "stream_mile": null}}, {"type": "Feature", "geometry": {"type": "Point", "coordinates": [-74.161009, 40.762708]}, "properties": {"id": "10A-E21-T067-P1", "name": "10A-T067-P1", "stream_mile": null}}, {"type": "Feature", "geometry": {"type": "Point", "coordinates": [-74.153211, 40.733948]}, "properties": {"id": "10A-E21-T042-P3", "name": "10A-T042-P3", "stream_mile": null}}, {"type": "Feature", "geometry": {"type": "Point", "coordinates": [-74.184079, 40.646773]}, "properties": {"id": "N01-E21-TARK-P1", "name": "N01-TARK-P1", "stream_mile": null}}, {"type": "Feature", "geometry": {"type": "Point", "coordinates": [-74.160814, 40.76258]}, "properties": {"id": "10A-E21-T067-P2", "name": "10A-T067-P2", "stream_mile": null}}, {"type": "Feature", "geometry": {"type": "Point", "coordinates": [-74.183745, 40.645888]}, "properties": {"id": "N01-E21-TARK-P2", "name": "N01-TARK-P2", "stream_mile": null}}, {"type": "Feature", "geometry": {"type": "Point", "coordinates": [-74.183443, 40.645127]}, "properties": {"id": "N01-E21-TARK-P3", "name": "N01-TARK-P3", "stream_mile": null}}, {"type": "Feature", "geometry": {"type": "Point", "coordinates": [-74.16062, 40.762438]}, "properties": {"id": "10A-E21-T067-P3", "name": "10A-T067-P3", "stream_mile": null}}, {"type": "Feature", "geometry": {"type": "Point", "coordinates": [-74.117972, 40.730461]}, "properties": {"id": "10A-E23-T014-P3", "name": "10A-T014-P3", "stream_mile": null}}, {"type": "Feature", "geometry": {"type": "Point", "coordinates": [-74.153134, 40.733513]}, "properties": {"id": "10A-E23-T042-P1", "name": "10A-T042-P1", "stream_mile": null}}, {"type": "Feature", "geometry": {"type": "Point", "coordinates": [-74.129953, 40.884463]}, "properties": {"id": "10A-E20-T175-P1", "name": "10A-T175-P1", "stream_mile": null}}, {"type": "Feature", "geometry": {"type": "Point", "coordinates": [-74.129814, 40.885]}, "properties": {"id": "10A-E20-T175-P2", "name": "10A-T175-P2", "stream_mile": null}}, {"type": "Feature", "geometry": {"type": "Point", "coordinates": [-74.129264, 40.885402]}, "properties": {"id": "10A-E20-T175-P3", "name": "10A-T175-P3", "stream_mile": null}}, {"type": "Feature", "geometry": {"type": "Point", "coordinates": [-74.129057, 40.885608]}, "properties": {"id": "10A-E20-T175-P4", "name": "10A-T175-P4", "stream_mile": null}}, {"type": "Feature", "geometry": {"type": "Point", "coordinates": [-74.160612, 40.762419]}, "properties": {"id": "10A-E23-T067-P3", "name": "10A-T067-P3", "stream_mile": null}}, {"type": "Feature", "geometry": {"type": "Point", "coordinates": [-74.138813, 40.808806]}, "properties": {"id": "10A-E23-T102-P1", "name": "10A-T102-P1", "stream_mile": null}}, {"type": "Feature", "geometry": {"type": "Point", "coordinates": [-74.120138, 40.848664]}, "properties": {"id": "10A-E23-T135-P3", "name": "10A-T135-P3", "stream_mile": null}}, {"type": "Feature", "geometry": {"type": "Point", "coordinates": [-74.12456, 40.693101]}, "properties": {"id": "N01-E23-TNBN-P1", "name": "N01-TNBN-P1", "stream_mile": null}}, {"type": "Feature", "geometry": {"type": "Point", "coordinates": [-74.184048, 40.646771]}, "properties": {"id": "N01-E23-TARK-P1", "name": "N01-TARK-P1", "stream_mile": null}}, {"type": "Feature", "geometry": {"type": "Point", "coordinates": [-74.147606, 40.655464]}, "properties": {"id": "N01-E23-TNBS-P1", "name": "N01-TNBS-P1", "stream_mile": null}}, {"type": "Feature", "geometry": {"type": "Point", "coordinates": [-74.128635, 40.644206]}, "properties": {"id": "N01-E23-TKVK-P1", "name": "N01-TKVK-P1", "stream_mile": null}}, {"type": "Feature", "geometry": {"type": "Point", "coordinates": [-74.09092, 40.738334]}, "properties": {"id": "N01-E23-THKN-P1", "name": "N01-THKN-P1", "stream_mile": null}}]}